{
"type": "FeatureCollection",
"name": "geojson_lapse_rate_20240716T12",
"crs": { "type": "name", "properties": { "name": "urn:ogc:def:crs:OGC:1.3:CRS84" } },
"features": [
{ "type": "Feature", "properties": { "level": 6.5, "color": "red", "line_style": "dashed", "line_width": 1.0 }, "geometry": { "type": "LineString", "coordinates": [ [ -79.920419605362156, 41.0 ], [ -79.75, 41.233165678787188 ], [ -79.733559280170596, 41.25 ], [ -79.523601054942162, 41.5 ], [ -79.5, 41.543394777265746 ], [ -79.25, 41.613896043329412 ], [ -79.123833970283485, 41.5 ], [ -79.0, 41.323632570817033 ], [ -78.960610119912872, 41.25 ], [ -78.967914636729503, 41.0 ] ] } },
{ "type": "Feature", "properties": { "level": 6.0, "color": "red", "line_style": "dotted", "line_width": 0.5 }, "geometry": { "type": "LineString", "coordinates": [ [ -82.25, 45.293934088059636 ], [ -82.010983795632981, 45.5 ], [ -82.0, 45.505930095840711 ], [ -81.75, 45.572502234959202 ], [ -81.5, 45.594095858246803 ], [ -81.25, 45.578319957056259 ], [ -81.0, 45.525769307371 ], [ -80.899880750476996, 45.5 ], [ -80.75, 45.425376029132366 ], [ -80.5, 45.303442951311666 ], [ -80.417883831521735, 45.25 ], [ -80.5, 45.213790990582091 ], [ -80.75, 45.079381969973916 ], [ -80.888377234200618, 45.0 ], [ -81.0, 44.976906211981778 ], [ -81.25, 44.951540573363012 ], [ -81.5, 44.943991093824238 ], [ -81.75, 44.951693515305379 ], [ -81.998726994565459, 45.0 ], [ -82.0, 45.000754285559658 ], [ -82.25, 45.192707913854477 ], [ -77.25, 41.299834635089844 ], [ -77.283200541005769, 41.25 ], [ -77.491721280107157, 41.0 ], [ -80.47318511373183, 41.0 ], [ -80.25, 41.208663853127021 ], [ -80.213801112479288, 41.25 ], [ -80.063465374225657, 41.5 ], [ -80.0, 41.648061324956629 ], [ -79.956380798255964, 41.75 ], [ -79.885052386278318, 42.0 ], [ -79.8928791607688, 42.25 ], [ -80.0, 42.451787201887846 ], [ -80.032119352176608, 42.5 ], [ -80.25, 42.736844849626593 ], [ -80.266330129900496, 42.75 ], [ -80.392867199966616, 43.0 ], [ -80.295059157031545, 43.25 ], [ -80.301383122592441, 43.5 ], [ -80.444668275977449, 43.75 ], [ -80.357542883012798, 44.0 ], [ -80.25, 44.062569874367597 ], [ -80.0, 44.098455433343148 ], [ -79.75, 44.115099619748655 ], [ -79.5, 44.150533248529769 ], [ -79.25, 44.122143296175231 ], [ -79.097454596207186, 44.0 ], [ -79.232034421822519, 43.75 ], [ -79.25, 43.730850195299993 ], [ -79.496830622293487, 43.5 ], [ -79.379671027667328, 43.25 ], [ -79.25, 43.127584951503565 ], [ -79.154005818228697, 43.0 ], [ -79.0, 42.812736223768255 ], [ -78.932926132576696, 42.75 ], [ -78.75, 42.595269658613901 ], [ -78.565688688064824, 42.5 ], [ -78.5, 42.466138219740543 ], [ -78.25, 42.417783749890333 ], [ -78.0, 42.411799083724517 ], [ -77.75, 42.400823494096457 ], [ -77.5, 42.355439217457629 ], [ -77.312368229175817, 42.25 ], [ -77.25, 42.186133488060378 ], [ -79.0, 45.754802014452871 ], [ -78.75, 45.822092365692747 ], [ -78.5, 45.771711231995099 ], [ -78.466788748901251, 45.75 ], [ -78.5, 45.739871325172011 ], [ -78.672872580208903, 45.5 ], [ -78.75, 45.414440126305564 ], [ -79.0, 45.355930431145651 ], [ -79.25, 45.444160281222842 ], [ -79.430386611092217, 45.5 ], [ -79.25, 45.582984405877639 ], [ -79.012823006390676, 45.75 ], [ -79.0, 45.754802014452871 ], [ -77.5, 45.526063689217764 ], [ -77.466609299176156, 45.5 ], [ -77.5, 45.489641863151817 ], [ -77.515376520112255, 45.5 ], [ -77.5, 45.526063689217764 ] ] } },
{ "type": "Feature", "properties": { "level": 5.0, "color": "gray", "line_style": "dotted", "line_width": 0.1 }, "geometry": { "type": "LineString", "coordinates": [ [ -82.25, 41.100489152047381 ], [ -82.0, 41.077157914021221 ], [ -81.75, 41.109371512494754 ], [ -81.5, 41.223577117788409 ], [ -81.467011132267316, 41.25 ], [ -81.258647949848637, 41.5 ], [ -81.25, 41.512683541009913 ], [ -81.059456912536675, 41.75 ], [ -81.0, 41.850949653579676 ], [ -80.894463878307107, 42.0 ], [ -80.976668640319375, 42.25 ], [ -81.0, 42.265095411305978 ], [ -81.25, 42.458878427449072 ], [ -81.2894047820309, 42.5 ], [ -81.5, 42.71290242672972 ], [ -81.546028243719505, 42.75 ], [ -81.681458906315811, 43.0 ], [ -81.564862218115891, 43.25 ], [ -81.5, 43.320319467885128 ], [ -81.382507615283515, 43.5 ], [ -81.368643172586758, 43.75 ], [ -81.5, 43.869809974918184 ], [ -81.75, 43.762271313005598 ], [ -81.75764684897085, 43.75 ], [ -81.980467624246614, 43.5 ], [ -82.0, 43.483599169524929 ], [ -82.25, 43.277371981954502 ] ] } }
]
}
