{
"type": "FeatureCollection",
"name": "geojson_cape_points_20240716T12",
"crs": { "type": "name", "properties": { "name": "urn:ogc:def:crs:OGC:1.3:CRS84" } },
"features": [
{ "type": "Feature", "properties": { "cape": 1.75, "timestamp": "20240716T12" }, "geometry": { "type": "Point", "coordinates": [ -82.25, 41.0 ] } },
{ "type": "Feature", "properties": { "cape": 9.0, "timestamp": "20240716T12" }, "geometry": { "type": "Point", "coordinates": [ -82.25, 41.25 ] } },
{ "type": "Feature", "properties": { "cape": 58.0, "timestamp": "20240716T12" }, "geometry": { "type": "Point", "coordinates": [ -82.25, 41.5 ] } },
{ "type": "Feature", "properties": { "cape": 64.25, "timestamp": "20240716T12" }, "geometry": { "type": "Point", "coordinates": [ -82.25, 41.75 ] } },
{ "type": "Feature", "properties": { "cape": 30.0, "timestamp": "20240716T12" }, "geometry": { "type": "Point", "coordinates": [ -82.25, 42.0 ] } },
{ "type": "Feature", "properties": { "cape": 142.75, "timestamp": "20240716T12" }, "geometry": { "type": "Point", "coordinates": [ -82.25, 42.25 ] } },
{ "type": "Feature", "properties": { "cape": 215.75, "timestamp": "20240716T12" }, "geometry": { "type": "Point", "coordinates": [ -82.25, 42.5 ] } },
{ "type": "Feature", "properties": { "cape": 141.25, "timestamp": "20240716T12" }, "geometry": { "type": "Point", "coordinates": [ -82.25, 42.75 ] } },
{ "type": "Feature", "properties": { "cape": 157.25, "timestamp": "20240716T12" }, "geometry": { "type": "Point", "coordinates": [ -82.25, 43.0 ] } },
{ "type": "Feature", "properties": { "cape": 160.0, "timestamp": "20240716T12" }, "geometry": { "type": "Point", "coordinates": [ -82.25, 43.25 ] } },
{ "type": "Feature", "properties": { "cape": 67.0, "timestamp": "20240716T12" }, "geometry": { "type": "Point", "coordinates": [ -82.25, 43.5 ] } },
{ "type": "Feature", "properties": { "cape": 73.5, "timestamp": "20240716T12" }, "geometry": { "type": "Point", "coordinates": [ -82.25, 43.75 ] } },
{ "type": "Feature", "properties": { "cape": 171.25, "timestamp": "20240716T12" }, "geometry": { "type": "Point", "coordinates": [ -82.25, 44.0 ] } },
{ "type": "Feature", "properties": { "cape": 266.75, "timestamp": "20240716T12" }, "geometry": { "type": "Point", "coordinates": [ -82.25, 44.25 ] } },
{ "type": "Feature", "properties": { "cape": 224.0, "timestamp": "20240716T12" }, "geometry": { "type": "Point", "coordinates": [ -82.25, 44.5 ] } },
{ "type": "Feature", "properties": { "cape": 211.75, "timestamp": "20240716T12" }, "geometry": { "type": "Point", "coordinates": [ -82.25, 44.75 ] } },
{ "type": "Feature", "properties": { "cape": 103.25, "timestamp": "20240716T12" }, "geometry": { "type": "Point", "coordinates": [ -82.25, 45.0 ] } },
{ "type": "Feature", "properties": { "cape": 79.5, "timestamp": "20240716T12" }, "geometry": { "type": "Point", "coordinates": [ -82.25, 45.25 ] } },
{ "type": "Feature", "properties": { "cape": 78.0, "timestamp": "20240716T12" }, "geometry": { "type": "Point", "coordinates": [ -82.25, 45.5 ] } },
{ "type": "Feature", "properties": { "cape": 39.0, "timestamp": "20240716T12" }, "geometry": { "type": "Point", "coordinates": [ -82.25, 45.75 ] } },
{ "type": "Feature", "properties": { "cape": 10.75, "timestamp": "20240716T12" }, "geometry": { "type": "Point", "coordinates": [ -82.25, 46.0 ] } },
{ "type": "Feature", "properties": { "cape": 1.75, "timestamp": "20240716T12" }, "geometry": { "type": "Point", "coordinates": [ -82.0, 41.0 ] } },
{ "type": "Feature", "properties": { "cape": 25.25, "timestamp": "20240716T12" }, "geometry": { "type": "Point", "coordinates": [ -82.0, 41.25 ] } },
{ "type": "Feature", "properties": { "cape": 85.5, "timestamp": "20240716T12" }, "geometry": { "type": "Point", "coordinates": [ -82.0, 41.5 ] } },
{ "type": "Feature", "properties": { "cape": 90.0, "timestamp": "20240716T12" }, "geometry": { "type": "Point", "coordinates": [ -82.0, 41.75 ] } },
{ "type": "Feature", "properties": { "cape": 60.0, "timestamp": "20240716T12" }, "geometry": { "type": "Point", "coordinates": [ -82.0, 42.0 ] } },
{ "type": "Feature", "properties": { "cape": 106.25, "timestamp": "20240716T12" }, "geometry": { "type": "Point", "coordinates": [ -82.0, 42.25 ] } },
{ "type": "Feature", "properties": { "cape": 125.5, "timestamp": "20240716T12" }, "geometry": { "type": "Point", "coordinates": [ -82.0, 42.5 ] } },
{ "type": "Feature", "properties": { "cape": 88.25, "timestamp": "20240716T12" }, "geometry": { "type": "Point", "coordinates": [ -82.0, 42.75 ] } },
{ "type": "Feature", "properties": { "cape": 208.75, "timestamp": "20240716T12" }, "geometry": { "type": "Point", "coordinates": [ -82.0, 43.0 ] } },
{ "type": "Feature", "properties": { "cape": 219.25, "timestamp": "20240716T12" }, "geometry": { "type": "Point", "coordinates": [ -82.0, 43.25 ] } },
{ "type": "Feature", "properties": { "cape": 126.0, "timestamp": "20240716T12" }, "geometry": { "type": "Point", "coordinates": [ -82.0, 43.5 ] } },
{ "type": "Feature", "properties": { "cape": 99.25, "timestamp": "20240716T12" }, "geometry": { "type": "Point", "coordinates": [ -82.0, 43.75 ] } },
{ "type": "Feature", "properties": { "cape": 186.0, "timestamp": "20240716T12" }, "geometry": { "type": "Point", "coordinates": [ -82.0, 44.0 ] } },
{ "type": "Feature", "properties": { "cape": 304.25, "timestamp": "20240716T12" }, "geometry": { "type": "Point", "coordinates": [ -82.0, 44.25 ] } },
{ "type": "Feature", "properties": { "cape": 219.5, "timestamp": "20240716T12" }, "geometry": { "type": "Point", "coordinates": [ -82.0, 44.5 ] } },
{ "type": "Feature", "properties": { "cape": 192.5, "timestamp": "20240716T12" }, "geometry": { "type": "Point", "coordinates": [ -82.0, 44.75 ] } },
{ "type": "Feature", "properties": { "cape": 140.5, "timestamp": "20240716T12" }, "geometry": { "type": "Point", "coordinates": [ -82.0, 45.0 ] } },
{ "type": "Feature", "properties": { "cape": 116.5, "timestamp": "20240716T12" }, "geometry": { "type": "Point", "coordinates": [ -82.0, 45.25 ] } },
{ "type": "Feature", "properties": { "cape": 112.0, "timestamp": "20240716T12" }, "geometry": { "type": "Point", "coordinates": [ -82.0, 45.5 ] } },
{ "type": "Feature", "properties": { "cape": 73.0, "timestamp": "20240716T12" }, "geometry": { "type": "Point", "coordinates": [ -82.0, 45.75 ] } },
{ "type": "Feature", "properties": { "cape": 15.75, "timestamp": "20240716T12" }, "geometry": { "type": "Point", "coordinates": [ -82.0, 46.0 ] } },
{ "type": "Feature", "properties": { "cape": 6.0, "timestamp": "20240716T12" }, "geometry": { "type": "Point", "coordinates": [ -81.75, 41.0 ] } },
{ "type": "Feature", "properties": { "cape": 33.0, "timestamp": "20240716T12" }, "geometry": { "type": "Point", "coordinates": [ -81.75, 41.25 ] } },
{ "type": "Feature", "properties": { "cape": 76.75, "timestamp": "20240716T12" }, "geometry": { "type": "Point", "coordinates": [ -81.75, 41.5 ] } },
{ "type": "Feature", "properties": { "cape": 74.25, "timestamp": "20240716T12" }, "geometry": { "type": "Point", "coordinates": [ -81.75, 41.75 ] } },
{ "type": "Feature", "properties": { "cape": 76.0, "timestamp": "20240716T12" }, "geometry": { "type": "Point", "coordinates": [ -81.75, 42.0 ] } },
{ "type": "Feature", "properties": { "cape": 74.5, "timestamp": "20240716T12" }, "geometry": { "type": "Point", "coordinates": [ -81.75, 42.25 ] } },
{ "type": "Feature", "properties": { "cape": 67.75, "timestamp": "20240716T12" }, "geometry": { "type": "Point", "coordinates": [ -81.75, 42.5 ] } },
{ "type": "Feature", "properties": { "cape": 165.5, "timestamp": "20240716T12" }, "geometry": { "type": "Point", "coordinates": [ -81.75, 42.75 ] } },
{ "type": "Feature", "properties": { "cape": 223.0, "timestamp": "20240716T12" }, "geometry": { "type": "Point", "coordinates": [ -81.75, 43.0 ] } },
{ "type": "Feature", "properties": { "cape": 215.75, "timestamp": "20240716T12" }, "geometry": { "type": "Point", "coordinates": [ -81.75, 43.25 ] } },
{ "type": "Feature", "properties": { "cape": 180.0, "timestamp": "20240716T12" }, "geometry": { "type": "Point", "coordinates": [ -81.75, 43.5 ] } },
{ "type": "Feature", "properties": { "cape": 155.75, "timestamp": "20240716T12" }, "geometry": { "type": "Point", "coordinates": [ -81.75, 43.75 ] } },
{ "type": "Feature", "properties": { "cape": 212.75, "timestamp": "20240716T12" }, "geometry": { "type": "Point", "coordinates": [ -81.75, 44.0 ] } },
{ "type": "Feature", "properties": { "cape": 333.75, "timestamp": "20240716T12" }, "geometry": { "type": "Point", "coordinates": [ -81.75, 44.25 ] } },
{ "type": "Feature", "properties": { "cape": 272.25, "timestamp": "20240716T12" }, "geometry": { "type": "Point", "coordinates": [ -81.75, 44.5 ] } },
{ "type": "Feature", "properties": { "cape": 152.25, "timestamp": "20240716T12" }, "geometry": { "type": "Point", "coordinates": [ -81.75, 44.75 ] } },
{ "type": "Feature", "properties": { "cape": 135.25, "timestamp": "20240716T12" }, "geometry": { "type": "Point", "coordinates": [ -81.75, 45.0 ] } },
{ "type": "Feature", "properties": { "cape": 142.5, "timestamp": "20240716T12" }, "geometry": { "type": "Point", "coordinates": [ -81.75, 45.25 ] } },
{ "type": "Feature", "properties": { "cape": 136.75, "timestamp": "20240716T12" }, "geometry": { "type": "Point", "coordinates": [ -81.75, 45.5 ] } },
{ "type": "Feature", "properties": { "cape": 108.75, "timestamp": "20240716T12" }, "geometry": { "type": "Point", "coordinates": [ -81.75, 45.75 ] } },
{ "type": "Feature", "properties": { "cape": 36.5, "timestamp": "20240716T12" }, "geometry": { "type": "Point", "coordinates": [ -81.75, 46.0 ] } },
{ "type": "Feature", "properties": { "cape": 0.0, "timestamp": "20240716T12" }, "geometry": { "type": "Point", "coordinates": [ -81.5, 41.0 ] } },
{ "type": "Feature", "properties": { "cape": 23.25, "timestamp": "20240716T12" }, "geometry": { "type": "Point", "coordinates": [ -81.5, 41.25 ] } },
{ "type": "Feature", "properties": { "cape": 37.5, "timestamp": "20240716T12" }, "geometry": { "type": "Point", "coordinates": [ -81.5, 41.5 ] } },
{ "type": "Feature", "properties": { "cape": 39.25, "timestamp": "20240716T12" }, "geometry": { "type": "Point", "coordinates": [ -81.5, 41.75 ] } },
{ "type": "Feature", "properties": { "cape": 50.0, "timestamp": "20240716T12" }, "geometry": { "type": "Point", "coordinates": [ -81.5, 42.0 ] } },
{ "type": "Feature", "properties": { "cape": 40.25, "timestamp": "20240716T12" }, "geometry": { "type": "Point", "coordinates": [ -81.5, 42.25 ] } },
{ "type": "Feature", "properties": { "cape": 79.25, "timestamp": "20240716T12" }, "geometry": { "type": "Point", "coordinates": [ -81.5, 42.5 ] } },
{ "type": "Feature", "properties": { "cape": 218.0, "timestamp": "20240716T12" }, "geometry": { "type": "Point", "coordinates": [ -81.5, 42.75 ] } },
{ "type": "Feature", "properties": { "cape": 267.75, "timestamp": "20240716T12" }, "geometry": { "type": "Point", "coordinates": [ -81.5, 43.0 ] } },
{ "type": "Feature", "properties": { "cape": 242.25, "timestamp": "20240716T12" }, "geometry": { "type": "Point", "coordinates": [ -81.5, 43.25 ] } },
{ "type": "Feature", "properties": { "cape": 154.25, "timestamp": "20240716T12" }, "geometry": { "type": "Point", "coordinates": [ -81.5, 43.5 ] } },
{ "type": "Feature", "properties": { "cape": 146.25, "timestamp": "20240716T12" }, "geometry": { "type": "Point", "coordinates": [ -81.5, 43.75 ] } },
{ "type": "Feature", "properties": { "cape": 191.5, "timestamp": "20240716T12" }, "geometry": { "type": "Point", "coordinates": [ -81.5, 44.0 ] } },
{ "type": "Feature", "properties": { "cape": 363.5, "timestamp": "20240716T12" }, "geometry": { "type": "Point", "coordinates": [ -81.5, 44.25 ] } },
{ "type": "Feature", "properties": { "cape": 345.0, "timestamp": "20240716T12" }, "geometry": { "type": "Point", "coordinates": [ -81.5, 44.5 ] } },
{ "type": "Feature", "properties": { "cape": 201.25, "timestamp": "20240716T12" }, "geometry": { "type": "Point", "coordinates": [ -81.5, 44.75 ] } },
{ "type": "Feature", "properties": { "cape": 177.75, "timestamp": "20240716T12" }, "geometry": { "type": "Point", "coordinates": [ -81.5, 45.0 ] } },
{ "type": "Feature", "properties": { "cape": 159.5, "timestamp": "20240716T12" }, "geometry": { "type": "Point", "coordinates": [ -81.5, 45.25 ] } },
{ "type": "Feature", "properties": { "cape": 152.75, "timestamp": "20240716T12" }, "geometry": { "type": "Point", "coordinates": [ -81.5, 45.5 ] } },
{ "type": "Feature", "properties": { "cape": 176.5, "timestamp": "20240716T12" }, "geometry": { "type": "Point", "coordinates": [ -81.5, 45.75 ] } },
{ "type": "Feature", "properties": { "cape": 125.25, "timestamp": "20240716T12" }, "geometry": { "type": "Point", "coordinates": [ -81.5, 46.0 ] } },
{ "type": "Feature", "properties": { "cape": 0.0, "timestamp": "20240716T12" }, "geometry": { "type": "Point", "coordinates": [ -81.25, 41.0 ] } },
{ "type": "Feature", "properties": { "cape": 0.0, "timestamp": "20240716T12" }, "geometry": { "type": "Point", "coordinates": [ -81.25, 41.25 ] } },
{ "type": "Feature", "properties": { "cape": 9.25, "timestamp": "20240716T12" }, "geometry": { "type": "Point", "coordinates": [ -81.25, 41.5 ] } },
{ "type": "Feature", "properties": { "cape": 13.25, "timestamp": "20240716T12" }, "geometry": { "type": "Point", "coordinates": [ -81.25, 41.75 ] } },
{ "type": "Feature", "properties": { "cape": 28.25, "timestamp": "20240716T12" }, "geometry": { "type": "Point", "coordinates": [ -81.25, 42.0 ] } },
{ "type": "Feature", "properties": { "cape": 44.25, "timestamp": "20240716T12" }, "geometry": { "type": "Point", "coordinates": [ -81.25, 42.25 ] } },
{ "type": "Feature", "properties": { "cape": 152.5, "timestamp": "20240716T12" }, "geometry": { "type": "Point", "coordinates": [ -81.25, 42.5 ] } },
{ "type": "Feature", "properties": { "cape": 293.75, "timestamp": "20240716T12" }, "geometry": { "type": "Point", "coordinates": [ -81.25, 42.75 ] } },
{ "type": "Feature", "properties": { "cape": 329.25, "timestamp": "20240716T12" }, "geometry": { "type": "Point", "coordinates": [ -81.25, 43.0 ] } },
{ "type": "Feature", "properties": { "cape": 227.5, "timestamp": "20240716T12" }, "geometry": { "type": "Point", "coordinates": [ -81.25, 43.25 ] } },
{ "type": "Feature", "properties": { "cape": 139.5, "timestamp": "20240716T12" }, "geometry": { "type": "Point", "coordinates": [ -81.25, 43.5 ] } },
{ "type": "Feature", "properties": { "cape": 104.25, "timestamp": "20240716T12" }, "geometry": { "type": "Point", "coordinates": [ -81.25, 43.75 ] } },
{ "type": "Feature", "properties": { "cape": 135.75, "timestamp": "20240716T12" }, "geometry": { "type": "Point", "coordinates": [ -81.25, 44.0 ] } },
{ "type": "Feature", "properties": { "cape": 342.75, "timestamp": "20240716T12" }, "geometry": { "type": "Point", "coordinates": [ -81.25, 44.25 ] } },
{ "type": "Feature", "properties": { "cape": 419.0, "timestamp": "20240716T12" }, "geometry": { "type": "Point", "coordinates": [ -81.25, 44.5 ] } },
{ "type": "Feature", "properties": { "cape": 267.0, "timestamp": "20240716T12" }, "geometry": { "type": "Point", "coordinates": [ -81.25, 44.75 ] } },
{ "type": "Feature", "properties": { "cape": 197.75, "timestamp": "20240716T12" }, "geometry": { "type": "Point", "coordinates": [ -81.25, 45.0 ] } },
{ "type": "Feature", "properties": { "cape": 179.75, "timestamp": "20240716T12" }, "geometry": { "type": "Point", "coordinates": [ -81.25, 45.25 ] } },
{ "type": "Feature", "properties": { "cape": 203.25, "timestamp": "20240716T12" }, "geometry": { "type": "Point", "coordinates": [ -81.25, 45.5 ] } },
{ "type": "Feature", "properties": { "cape": 227.0, "timestamp": "20240716T12" }, "geometry": { "type": "Point", "coordinates": [ -81.25, 45.75 ] } },
{ "type": "Feature", "properties": { "cape": 210.0, "timestamp": "20240716T12" }, "geometry": { "type": "Point", "coordinates": [ -81.25, 46.0 ] } },
{ "type": "Feature", "properties": { "cape": 0.25, "timestamp": "20240716T12" }, "geometry": { "type": "Point", "coordinates": [ -81.0, 41.0 ] } },
{ "type": "Feature", "properties": { "cape": 0.25, "timestamp": "20240716T12" }, "geometry": { "type": "Point", "coordinates": [ -81.0, 41.25 ] } },
{ "type": "Feature", "properties": { "cape": 0.0, "timestamp": "20240716T12" }, "geometry": { "type": "Point", "coordinates": [ -81.0, 41.5 ] } },
{ "type": "Feature", "properties": { "cape": 1.0, "timestamp": "20240716T12" }, "geometry": { "type": "Point", "coordinates": [ -81.0, 41.75 ] } },
{ "type": "Feature", "properties": { "cape": 15.25, "timestamp": "20240716T12" }, "geometry": { "type": "Point", "coordinates": [ -81.0, 42.0 ] } },
{ "type": "Feature", "properties": { "cape": 87.5, "timestamp": "20240716T12" }, "geometry": { "type": "Point", "coordinates": [ -81.0, 42.25 ] } },
{ "type": "Feature", "properties": { "cape": 217.0, "timestamp": "20240716T12" }, "geometry": { "type": "Point", "coordinates": [ -81.0, 42.5 ] } },
{ "type": "Feature", "properties": { "cape": 341.25, "timestamp": "20240716T12" }, "geometry": { "type": "Point", "coordinates": [ -81.0, 42.75 ] } },
{ "type": "Feature", "properties": { "cape": 375.25, "timestamp": "20240716T12" }, "geometry": { "type": "Point", "coordinates": [ -81.0, 43.0 ] } },
{ "type": "Feature", "properties": { "cape": 270.75, "timestamp": "20240716T12" }, "geometry": { "type": "Point", "coordinates": [ -81.0, 43.25 ] } },
{ "type": "Feature", "properties": { "cape": 125.5, "timestamp": "20240716T12" }, "geometry": { "type": "Point", "coordinates": [ -81.0, 43.5 ] } },
{ "type": "Feature", "properties": { "cape": 61.5, "timestamp": "20240716T12" }, "geometry": { "type": "Point", "coordinates": [ -81.0, 43.75 ] } },
{ "type": "Feature", "properties": { "cape": 53.5, "timestamp": "20240716T12" }, "geometry": { "type": "Point", "coordinates": [ -81.0, 44.0 ] } },
{ "type": "Feature", "properties": { "cape": 281.75, "timestamp": "20240716T12" }, "geometry": { "type": "Point", "coordinates": [ -81.0, 44.25 ] } },
{ "type": "Feature", "properties": { "cape": 452.5, "timestamp": "20240716T12" }, "geometry": { "type": "Point", "coordinates": [ -81.0, 44.5 ] } },
{ "type": "Feature", "properties": { "cape": 289.25, "timestamp": "20240716T12" }, "geometry": { "type": "Point", "coordinates": [ -81.0, 44.75 ] } },
{ "type": "Feature", "properties": { "cape": 212.75, "timestamp": "20240716T12" }, "geometry": { "type": "Point", "coordinates": [ -81.0, 45.0 ] } },
{ "type": "Feature", "properties": { "cape": 199.0, "timestamp": "20240716T12" }, "geometry": { "type": "Point", "coordinates": [ -81.0, 45.25 ] } },
{ "type": "Feature", "properties": { "cape": 229.75, "timestamp": "20240716T12" }, "geometry": { "type": "Point", "coordinates": [ -81.0, 45.5 ] } },
{ "type": "Feature", "properties": { "cape": 313.25, "timestamp": "20240716T12" }, "geometry": { "type": "Point", "coordinates": [ -81.0, 45.75 ] } },
{ "type": "Feature", "properties": { "cape": 341.75, "timestamp": "20240716T12" }, "geometry": { "type": "Point", "coordinates": [ -81.0, 46.0 ] } },
{ "type": "Feature", "properties": { "cape": 28.25, "timestamp": "20240716T12" }, "geometry": { "type": "Point", "coordinates": [ -80.75, 41.0 ] } },
{ "type": "Feature", "properties": { "cape": 43.25, "timestamp": "20240716T12" }, "geometry": { "type": "Point", "coordinates": [ -80.75, 41.25 ] } },
{ "type": "Feature", "properties": { "cape": 65.25, "timestamp": "20240716T12" }, "geometry": { "type": "Point", "coordinates": [ -80.75, 41.5 ] } },
{ "type": "Feature", "properties": { "cape": 118.0, "timestamp": "20240716T12" }, "geometry": { "type": "Point", "coordinates": [ -80.75, 41.75 ] } },
{ "type": "Feature", "properties": { "cape": 179.25, "timestamp": "20240716T12" }, "geometry": { "type": "Point", "coordinates": [ -80.75, 42.0 ] } },
{ "type": "Feature", "properties": { "cape": 207.75, "timestamp": "20240716T12" }, "geometry": { "type": "Point", "coordinates": [ -80.75, 42.25 ] } },
{ "type": "Feature", "properties": { "cape": 291.5, "timestamp": "20240716T12" }, "geometry": { "type": "Point", "coordinates": [ -80.75, 42.5 ] } },
{ "type": "Feature", "properties": { "cape": 386.0, "timestamp": "20240716T12" }, "geometry": { "type": "Point", "coordinates": [ -80.75, 42.75 ] } },
{ "type": "Feature", "properties": { "cape": 428.25, "timestamp": "20240716T12" }, "geometry": { "type": "Point", "coordinates": [ -80.75, 43.0 ] } },
{ "type": "Feature", "properties": { "cape": 320.75, "timestamp": "20240716T12" }, "geometry": { "type": "Point", "coordinates": [ -80.75, 43.25 ] } },
{ "type": "Feature", "properties": { "cape": 75.75, "timestamp": "20240716T12" }, "geometry": { "type": "Point", "coordinates": [ -80.75, 43.5 ] } },
{ "type": "Feature", "properties": { "cape": 24.25, "timestamp": "20240716T12" }, "geometry": { "type": "Point", "coordinates": [ -80.75, 43.75 ] } },
{ "type": "Feature", "properties": { "cape": 125.5, "timestamp": "20240716T12" }, "geometry": { "type": "Point", "coordinates": [ -80.75, 44.0 ] } },
{ "type": "Feature", "properties": { "cape": 298.75, "timestamp": "20240716T12" }, "geometry": { "type": "Point", "coordinates": [ -80.75, 44.25 ] } },
{ "type": "Feature", "properties": { "cape": 482.25, "timestamp": "20240716T12" }, "geometry": { "type": "Point", "coordinates": [ -80.75, 44.5 ] } },
{ "type": "Feature", "properties": { "cape": 333.25, "timestamp": "20240716T12" }, "geometry": { "type": "Point", "coordinates": [ -80.75, 44.75 ] } },
{ "type": "Feature", "properties": { "cape": 237.0, "timestamp": "20240716T12" }, "geometry": { "type": "Point", "coordinates": [ -80.75, 45.0 ] } },
{ "type": "Feature", "properties": { "cape": 249.5, "timestamp": "20240716T12" }, "geometry": { "type": "Point", "coordinates": [ -80.75, 45.25 ] } },
{ "type": "Feature", "properties": { "cape": 293.5, "timestamp": "20240716T12" }, "geometry": { "type": "Point", "coordinates": [ -80.75, 45.5 ] } },
{ "type": "Feature", "properties": { "cape": 365.75, "timestamp": "20240716T12" }, "geometry": { "type": "Point", "coordinates": [ -80.75, 45.75 ] } },
{ "type": "Feature", "properties": { "cape": 399.0, "timestamp": "20240716T12" }, "geometry": { "type": "Point", "coordinates": [ -80.75, 46.0 ] } },
{ "type": "Feature", "properties": { "cape": 27.0, "timestamp": "20240716T12" }, "geometry": { "type": "Point", "coordinates": [ -80.5, 41.0 ] } },
{ "type": "Feature", "properties": { "cape": 123.0, "timestamp": "20240716T12" }, "geometry": { "type": "Point", "coordinates": [ -80.5, 41.25 ] } },
{ "type": "Feature", "properties": { "cape": 161.5, "timestamp": "20240716T12" }, "geometry": { "type": "Point", "coordinates": [ -80.5, 41.5 ] } },
{ "type": "Feature", "properties": { "cape": 292.75, "timestamp": "20240716T12" }, "geometry": { "type": "Point", "coordinates": [ -80.5, 41.75 ] } },
{ "type": "Feature", "properties": { "cape": 335.5, "timestamp": "20240716T12" }, "geometry": { "type": "Point", "coordinates": [ -80.5, 42.0 ] } },
{ "type": "Feature", "properties": { "cape": 360.5, "timestamp": "20240716T12" }, "geometry": { "type": "Point", "coordinates": [ -80.5, 42.25 ] } },
{ "type": "Feature", "properties": { "cape": 336.0, "timestamp": "20240716T12" }, "geometry": { "type": "Point", "coordinates": [ -80.5, 42.5 ] } },
{ "type": "Feature", "properties": { "cape": 422.5, "timestamp": "20240716T12" }, "geometry": { "type": "Point", "coordinates": [ -80.5, 42.75 ] } },
{ "type": "Feature", "properties": { "cape": 457.25, "timestamp": "20240716T12" }, "geometry": { "type": "Point", "coordinates": [ -80.5, 43.0 ] } },
{ "type": "Feature", "properties": { "cape": 286.5, "timestamp": "20240716T12" }, "geometry": { "type": "Point", "coordinates": [ -80.5, 43.25 ] } },
{ "type": "Feature", "properties": { "cape": 41.75, "timestamp": "20240716T12" }, "geometry": { "type": "Point", "coordinates": [ -80.5, 43.5 ] } },
{ "type": "Feature", "properties": { "cape": 49.0, "timestamp": "20240716T12" }, "geometry": { "type": "Point", "coordinates": [ -80.5, 43.75 ] } },
{ "type": "Feature", "properties": { "cape": 190.5, "timestamp": "20240716T12" }, "geometry": { "type": "Point", "coordinates": [ -80.5, 44.0 ] } },
{ "type": "Feature", "properties": { "cape": 311.75, "timestamp": "20240716T12" }, "geometry": { "type": "Point", "coordinates": [ -80.5, 44.25 ] } },
{ "type": "Feature", "properties": { "cape": 489.5, "timestamp": "20240716T12" }, "geometry": { "type": "Point", "coordinates": [ -80.5, 44.5 ] } },
{ "type": "Feature", "properties": { "cape": 346.25, "timestamp": "20240716T12" }, "geometry": { "type": "Point", "coordinates": [ -80.5, 44.75 ] } },
{ "type": "Feature", "properties": { "cape": 229.25, "timestamp": "20240716T12" }, "geometry": { "type": "Point", "coordinates": [ -80.5, 45.0 ] } },
{ "type": "Feature", "properties": { "cape": 241.75, "timestamp": "20240716T12" }, "geometry": { "type": "Point", "coordinates": [ -80.5, 45.25 ] } },
{ "type": "Feature", "properties": { "cape": 306.5, "timestamp": "20240716T12" }, "geometry": { "type": "Point", "coordinates": [ -80.5, 45.5 ] } },
{ "type": "Feature", "properties": { "cape": 379.0, "timestamp": "20240716T12" }, "geometry": { "type": "Point", "coordinates": [ -80.5, 45.75 ] } },
{ "type": "Feature", "properties": { "cape": 416.25, "timestamp": "20240716T12" }, "geometry": { "type": "Point", "coordinates": [ -80.5, 46.0 ] } },
{ "type": "Feature", "properties": { "cape": 34.5, "timestamp": "20240716T12" }, "geometry": { "type": "Point", "coordinates": [ -80.25, 41.0 ] } },
{ "type": "Feature", "properties": { "cape": 142.25, "timestamp": "20240716T12" }, "geometry": { "type": "Point", "coordinates": [ -80.25, 41.25 ] } },
{ "type": "Feature", "properties": { "cape": 263.25, "timestamp": "20240716T12" }, "geometry": { "type": "Point", "coordinates": [ -80.25, 41.5 ] } },
{ "type": "Feature", "properties": { "cape": 451.25, "timestamp": "20240716T12" }, "geometry": { "type": "Point", "coordinates": [ -80.25, 41.75 ] } },
{ "type": "Feature", "properties": { "cape": 434.5, "timestamp": "20240716T12" }, "geometry": { "type": "Point", "coordinates": [ -80.25, 42.0 ] } },
{ "type": "Feature", "properties": { "cape": 361.5, "timestamp": "20240716T12" }, "geometry": { "type": "Point", "coordinates": [ -80.25, 42.25 ] } },
{ "type": "Feature", "properties": { "cape": 324.75, "timestamp": "20240716T12" }, "geometry": { "type": "Point", "coordinates": [ -80.25, 42.5 ] } },
{ "type": "Feature", "properties": { "cape": 457.75, "timestamp": "20240716T12" }, "geometry": { "type": "Point", "coordinates": [ -80.25, 42.75 ] } },
{ "type": "Feature", "properties": { "cape": 434.0, "timestamp": "20240716T12" }, "geometry": { "type": "Point", "coordinates": [ -80.25, 43.0 ] } },
{ "type": "Feature", "properties": { "cape": 249.0, "timestamp": "20240716T12" }, "geometry": { "type": "Point", "coordinates": [ -80.25, 43.25 ] } },
{ "type": "Feature", "properties": { "cape": 34.75, "timestamp": "20240716T12" }, "geometry": { "type": "Point", "coordinates": [ -80.25, 43.5 ] } },
{ "type": "Feature", "properties": { "cape": 44.75, "timestamp": "20240716T12" }, "geometry": { "type": "Point", "coordinates": [ -80.25, 43.75 ] } },
{ "type": "Feature", "properties": { "cape": 236.25, "timestamp": "20240716T12" }, "geometry": { "type": "Point", "coordinates": [ -80.25, 44.0 ] } },
{ "type": "Feature", "properties": { "cape": 304.75, "timestamp": "20240716T12" }, "geometry": { "type": "Point", "coordinates": [ -80.25, 44.25 ] } },
{ "type": "Feature", "properties": { "cape": 473.25, "timestamp": "20240716T12" }, "geometry": { "type": "Point", "coordinates": [ -80.25, 44.5 ] } },
{ "type": "Feature", "properties": { "cape": 374.75, "timestamp": "20240716T12" }, "geometry": { "type": "Point", "coordinates": [ -80.25, 44.75 ] } },
{ "type": "Feature", "properties": { "cape": 238.75, "timestamp": "20240716T12" }, "geometry": { "type": "Point", "coordinates": [ -80.25, 45.0 ] } },
{ "type": "Feature", "properties": { "cape": 232.0, "timestamp": "20240716T12" }, "geometry": { "type": "Point", "coordinates": [ -80.25, 45.25 ] } },
{ "type": "Feature", "properties": { "cape": 297.0, "timestamp": "20240716T12" }, "geometry": { "type": "Point", "coordinates": [ -80.25, 45.5 ] } },
{ "type": "Feature", "properties": { "cape": 329.75, "timestamp": "20240716T12" }, "geometry": { "type": "Point", "coordinates": [ -80.25, 45.75 ] } },
{ "type": "Feature", "properties": { "cape": 334.0, "timestamp": "20240716T12" }, "geometry": { "type": "Point", "coordinates": [ -80.25, 46.0 ] } },
{ "type": "Feature", "properties": { "cape": 14.0, "timestamp": "20240716T12" }, "geometry": { "type": "Point", "coordinates": [ -80.0, 41.0 ] } },
{ "type": "Feature", "properties": { "cape": 83.25, "timestamp": "20240716T12" }, "geometry": { "type": "Point", "coordinates": [ -80.0, 41.25 ] } },
{ "type": "Feature", "properties": { "cape": 97.75, "timestamp": "20240716T12" }, "geometry": { "type": "Point", "coordinates": [ -80.0, 41.5 ] } },
{ "type": "Feature", "properties": { "cape": 135.75, "timestamp": "20240716T12" }, "geometry": { "type": "Point", "coordinates": [ -80.0, 41.75 ] } },
{ "type": "Feature", "properties": { "cape": 153.25, "timestamp": "20240716T12" }, "geometry": { "type": "Point", "coordinates": [ -80.0, 42.0 ] } },
{ "type": "Feature", "properties": { "cape": 145.75, "timestamp": "20240716T12" }, "geometry": { "type": "Point", "coordinates": [ -80.0, 42.25 ] } },
{ "type": "Feature", "properties": { "cape": 373.0, "timestamp": "20240716T12" }, "geometry": { "type": "Point", "coordinates": [ -80.0, 42.5 ] } },
{ "type": "Feature", "properties": { "cape": 490.75, "timestamp": "20240716T12" }, "geometry": { "type": "Point", "coordinates": [ -80.0, 42.75 ] } },
{ "type": "Feature", "properties": { "cape": 429.75, "timestamp": "20240716T12" }, "geometry": { "type": "Point", "coordinates": [ -80.0, 43.0 ] } },
{ "type": "Feature", "properties": { "cape": 243.5, "timestamp": "20240716T12" }, "geometry": { "type": "Point", "coordinates": [ -80.0, 43.25 ] } },
{ "type": "Feature", "properties": { "cape": 70.75, "timestamp": "20240716T12" }, "geometry": { "type": "Point", "coordinates": [ -80.0, 43.5 ] } },
{ "type": "Feature", "properties": { "cape": 42.0, "timestamp": "20240716T12" }, "geometry": { "type": "Point", "coordinates": [ -80.0, 43.75 ] } },
{ "type": "Feature", "properties": { "cape": 127.25, "timestamp": "20240716T12" }, "geometry": { "type": "Point", "coordinates": [ -80.0, 44.0 ] } },
{ "type": "Feature", "properties": { "cape": 217.25, "timestamp": "20240716T12" }, "geometry": { "type": "Point", "coordinates": [ -80.0, 44.25 ] } },
{ "type": "Feature", "properties": { "cape": 376.75, "timestamp": "20240716T12" }, "geometry": { "type": "Point", "coordinates": [ -80.0, 44.5 ] } },
{ "type": "Feature", "properties": { "cape": 375.25, "timestamp": "20240716T12" }, "geometry": { "type": "Point", "coordinates": [ -80.0, 44.75 ] } },
{ "type": "Feature", "properties": { "cape": 258.25, "timestamp": "20240716T12" }, "geometry": { "type": "Point", "coordinates": [ -80.0, 45.0 ] } },
{ "type": "Feature", "properties": { "cape": 246.0, "timestamp": "20240716T12" }, "geometry": { "type": "Point", "coordinates": [ -80.0, 45.25 ] } },
{ "type": "Feature", "properties": { "cape": 300.0, "timestamp": "20240716T12" }, "geometry": { "type": "Point", "coordinates": [ -80.0, 45.5 ] } },
{ "type": "Feature", "properties": { "cape": 281.25, "timestamp": "20240716T12" }, "geometry": { "type": "Point", "coordinates": [ -80.0, 45.75 ] } },
{ "type": "Feature", "properties": { "cape": 241.0, "timestamp": "20240716T12" }, "geometry": { "type": "Point", "coordinates": [ -80.0, 46.0 ] } },
{ "type": "Feature", "properties": { "cape": 40.5, "timestamp": "20240716T12" }, "geometry": { "type": "Point", "coordinates": [ -79.75, 41.0 ] } },
{ "type": "Feature", "properties": { "cape": 105.25, "timestamp": "20240716T12" }, "geometry": { "type": "Point", "coordinates": [ -79.75, 41.25 ] } },
{ "type": "Feature", "properties": { "cape": 125.0, "timestamp": "20240716T12" }, "geometry": { "type": "Point", "coordinates": [ -79.75, 41.5 ] } },
{ "type": "Feature", "properties": { "cape": 92.25, "timestamp": "20240716T12" }, "geometry": { "type": "Point", "coordinates": [ -79.75, 41.75 ] } },
{ "type": "Feature", "properties": { "cape": 121.75, "timestamp": "20240716T12" }, "geometry": { "type": "Point", "coordinates": [ -79.75, 42.0 ] } },
{ "type": "Feature", "properties": { "cape": 259.0, "timestamp": "20240716T12" }, "geometry": { "type": "Point", "coordinates": [ -79.75, 42.25 ] } },
{ "type": "Feature", "properties": { "cape": 446.25, "timestamp": "20240716T12" }, "geometry": { "type": "Point", "coordinates": [ -79.75, 42.5 ] } },
{ "type": "Feature", "properties": { "cape": 541.25, "timestamp": "20240716T12" }, "geometry": { "type": "Point", "coordinates": [ -79.75, 42.75 ] } },
{ "type": "Feature", "properties": { "cape": 448.0, "timestamp": "20240716T12" }, "geometry": { "type": "Point", "coordinates": [ -79.75, 43.0 ] } },
{ "type": "Feature", "properties": { "cape": 269.5, "timestamp": "20240716T12" }, "geometry": { "type": "Point", "coordinates": [ -79.75, 43.25 ] } },
{ "type": "Feature", "properties": { "cape": 97.0, "timestamp": "20240716T12" }, "geometry": { "type": "Point", "coordinates": [ -79.75, 43.5 ] } },
{ "type": "Feature", "properties": { "cape": 21.25, "timestamp": "20240716T12" }, "geometry": { "type": "Point", "coordinates": [ -79.75, 43.75 ] } },
{ "type": "Feature", "properties": { "cape": 68.25, "timestamp": "20240716T12" }, "geometry": { "type": "Point", "coordinates": [ -79.75, 44.0 ] } },
{ "type": "Feature", "properties": { "cape": 151.0, "timestamp": "20240716T12" }, "geometry": { "type": "Point", "coordinates": [ -79.75, 44.25 ] } },
{ "type": "Feature", "properties": { "cape": 293.75, "timestamp": "20240716T12" }, "geometry": { "type": "Point", "coordinates": [ -79.75, 44.5 ] } },
{ "type": "Feature", "properties": { "cape": 303.0, "timestamp": "20240716T12" }, "geometry": { "type": "Point", "coordinates": [ -79.75, 44.75 ] } },
{ "type": "Feature", "properties": { "cape": 277.75, "timestamp": "20240716T12" }, "geometry": { "type": "Point", "coordinates": [ -79.75, 45.0 ] } },
{ "type": "Feature", "properties": { "cape": 265.25, "timestamp": "20240716T12" }, "geometry": { "type": "Point", "coordinates": [ -79.75, 45.25 ] } },
{ "type": "Feature", "properties": { "cape": 275.0, "timestamp": "20240716T12" }, "geometry": { "type": "Point", "coordinates": [ -79.75, 45.5 ] } },
{ "type": "Feature", "properties": { "cape": 256.5, "timestamp": "20240716T12" }, "geometry": { "type": "Point", "coordinates": [ -79.75, 45.75 ] } },
{ "type": "Feature", "properties": { "cape": 200.25, "timestamp": "20240716T12" }, "geometry": { "type": "Point", "coordinates": [ -79.75, 46.0 ] } },
{ "type": "Feature", "properties": { "cape": 114.25, "timestamp": "20240716T12" }, "geometry": { "type": "Point", "coordinates": [ -79.5, 41.0 ] } },
{ "type": "Feature", "properties": { "cape": 188.75, "timestamp": "20240716T12" }, "geometry": { "type": "Point", "coordinates": [ -79.5, 41.25 ] } },
{ "type": "Feature", "properties": { "cape": 212.5, "timestamp": "20240716T12" }, "geometry": { "type": "Point", "coordinates": [ -79.5, 41.5 ] } },
{ "type": "Feature", "properties": { "cape": 165.25, "timestamp": "20240716T12" }, "geometry": { "type": "Point", "coordinates": [ -79.5, 41.75 ] } },
{ "type": "Feature", "properties": { "cape": 201.0, "timestamp": "20240716T12" }, "geometry": { "type": "Point", "coordinates": [ -79.5, 42.0 ] } },
{ "type": "Feature", "properties": { "cape": 380.5, "timestamp": "20240716T12" }, "geometry": { "type": "Point", "coordinates": [ -79.5, 42.25 ] } },
{ "type": "Feature", "properties": { "cape": 569.25, "timestamp": "20240716T12" }, "geometry": { "type": "Point", "coordinates": [ -79.5, 42.5 ] } },
{ "type": "Feature", "properties": { "cape": 570.25, "timestamp": "20240716T12" }, "geometry": { "type": "Point", "coordinates": [ -79.5, 42.75 ] } },
{ "type": "Feature", "properties": { "cape": 451.5, "timestamp": "20240716T12" }, "geometry": { "type": "Point", "coordinates": [ -79.5, 43.0 ] } },
{ "type": "Feature", "properties": { "cape": 268.75, "timestamp": "20240716T12" }, "geometry": { "type": "Point", "coordinates": [ -79.5, 43.25 ] } },
{ "type": "Feature", "properties": { "cape": 109.75, "timestamp": "20240716T12" }, "geometry": { "type": "Point", "coordinates": [ -79.5, 43.5 ] } },
{ "type": "Feature", "properties": { "cape": 68.5, "timestamp": "20240716T12" }, "geometry": { "type": "Point", "coordinates": [ -79.5, 43.75 ] } },
{ "type": "Feature", "properties": { "cape": 58.0, "timestamp": "20240716T12" }, "geometry": { "type": "Point", "coordinates": [ -79.5, 44.0 ] } },
{ "type": "Feature", "properties": { "cape": 103.75, "timestamp": "20240716T12" }, "geometry": { "type": "Point", "coordinates": [ -79.5, 44.25 ] } },
{ "type": "Feature", "properties": { "cape": 231.5, "timestamp": "20240716T12" }, "geometry": { "type": "Point", "coordinates": [ -79.5, 44.5 ] } },
{ "type": "Feature", "properties": { "cape": 239.0, "timestamp": "20240716T12" }, "geometry": { "type": "Point", "coordinates": [ -79.5, 44.75 ] } },
{ "type": "Feature", "properties": { "cape": 239.5, "timestamp": "20240716T12" }, "geometry": { "type": "Point", "coordinates": [ -79.5, 45.0 ] } },
{ "type": "Feature", "properties": { "cape": 286.0, "timestamp": "20240716T12" }, "geometry": { "type": "Point", "coordinates": [ -79.5, 45.25 ] } },
{ "type": "Feature", "properties": { "cape": 296.5, "timestamp": "20240716T12" }, "geometry": { "type": "Point", "coordinates": [ -79.5, 45.5 ] } },
{ "type": "Feature", "properties": { "cape": 218.75, "timestamp": "20240716T12" }, "geometry": { "type": "Point", "coordinates": [ -79.5, 45.75 ] } },
{ "type": "Feature", "properties": { "cape": 160.5, "timestamp": "20240716T12" }, "geometry": { "type": "Point", "coordinates": [ -79.5, 46.0 ] } },
{ "type": "Feature", "properties": { "cape": 167.25, "timestamp": "20240716T12" }, "geometry": { "type": "Point", "coordinates": [ -79.25, 41.0 ] } },
{ "type": "Feature", "properties": { "cape": 255.5, "timestamp": "20240716T12" }, "geometry": { "type": "Point", "coordinates": [ -79.25, 41.25 ] } },
{ "type": "Feature", "properties": { "cape": 271.75, "timestamp": "20240716T12" }, "geometry": { "type": "Point", "coordinates": [ -79.25, 41.5 ] } },
{ "type": "Feature", "properties": { "cape": 216.0, "timestamp": "20240716T12" }, "geometry": { "type": "Point", "coordinates": [ -79.25, 41.75 ] } },
{ "type": "Feature", "properties": { "cape": 262.5, "timestamp": "20240716T12" }, "geometry": { "type": "Point", "coordinates": [ -79.25, 42.0 ] } },
{ "type": "Feature", "properties": { "cape": 495.0, "timestamp": "20240716T12" }, "geometry": { "type": "Point", "coordinates": [ -79.25, 42.25 ] } },
{ "type": "Feature", "properties": { "cape": 654.5, "timestamp": "20240716T12" }, "geometry": { "type": "Point", "coordinates": [ -79.25, 42.5 ] } },
{ "type": "Feature", "properties": { "cape": 577.5, "timestamp": "20240716T12" }, "geometry": { "type": "Point", "coordinates": [ -79.25, 42.75 ] } },
{ "type": "Feature", "properties": { "cape": 411.0, "timestamp": "20240716T12" }, "geometry": { "type": "Point", "coordinates": [ -79.25, 43.0 ] } },
{ "type": "Feature", "properties": { "cape": 230.0, "timestamp": "20240716T12" }, "geometry": { "type": "Point", "coordinates": [ -79.25, 43.25 ] } },
{ "type": "Feature", "properties": { "cape": 75.25, "timestamp": "20240716T12" }, "geometry": { "type": "Point", "coordinates": [ -79.25, 43.5 ] } },
{ "type": "Feature", "properties": { "cape": 27.75, "timestamp": "20240716T12" }, "geometry": { "type": "Point", "coordinates": [ -79.25, 43.75 ] } },
{ "type": "Feature", "properties": { "cape": 89.75, "timestamp": "20240716T12" }, "geometry": { "type": "Point", "coordinates": [ -79.25, 44.0 ] } },
{ "type": "Feature", "properties": { "cape": 115.25, "timestamp": "20240716T12" }, "geometry": { "type": "Point", "coordinates": [ -79.25, 44.25 ] } },
{ "type": "Feature", "properties": { "cape": 206.5, "timestamp": "20240716T12" }, "geometry": { "type": "Point", "coordinates": [ -79.25, 44.5 ] } },
{ "type": "Feature", "properties": { "cape": 161.5, "timestamp": "20240716T12" }, "geometry": { "type": "Point", "coordinates": [ -79.25, 44.75 ] } },
{ "type": "Feature", "properties": { "cape": 190.0, "timestamp": "20240716T12" }, "geometry": { "type": "Point", "coordinates": [ -79.25, 45.0 ] } },
{ "type": "Feature", "properties": { "cape": 206.5, "timestamp": "20240716T12" }, "geometry": { "type": "Point", "coordinates": [ -79.25, 45.25 ] } },
{ "type": "Feature", "properties": { "cape": 202.25, "timestamp": "20240716T12" }, "geometry": { "type": "Point", "coordinates": [ -79.25, 45.5 ] } },
{ "type": "Feature", "properties": { "cape": 185.0, "timestamp": "20240716T12" }, "geometry": { "type": "Point", "coordinates": [ -79.25, 45.75 ] } },
{ "type": "Feature", "properties": { "cape": 153.75, "timestamp": "20240716T12" }, "geometry": { "type": "Point", "coordinates": [ -79.25, 46.0 ] } },
{ "type": "Feature", "properties": { "cape": 168.75, "timestamp": "20240716T12" }, "geometry": { "type": "Point", "coordinates": [ -79.0, 41.0 ] } },
{ "type": "Feature", "properties": { "cape": 324.0, "timestamp": "20240716T12" }, "geometry": { "type": "Point", "coordinates": [ -79.0, 41.25 ] } },
{ "type": "Feature", "properties": { "cape": 364.25, "timestamp": "20240716T12" }, "geometry": { "type": "Point", "coordinates": [ -79.0, 41.5 ] } },
{ "type": "Feature", "properties": { "cape": 312.0, "timestamp": "20240716T12" }, "geometry": { "type": "Point", "coordinates": [ -79.0, 41.75 ] } },
{ "type": "Feature", "properties": { "cape": 319.5, "timestamp": "20240716T12" }, "geometry": { "type": "Point", "coordinates": [ -79.0, 42.0 ] } },
{ "type": "Feature", "properties": { "cape": 521.75, "timestamp": "20240716T12" }, "geometry": { "type": "Point", "coordinates": [ -79.0, 42.25 ] } },
{ "type": "Feature", "properties": { "cape": 525.0, "timestamp": "20240716T12" }, "geometry": { "type": "Point", "coordinates": [ -79.0, 42.5 ] } },
{ "type": "Feature", "properties": { "cape": 476.0, "timestamp": "20240716T12" }, "geometry": { "type": "Point", "coordinates": [ -79.0, 42.75 ] } },
{ "type": "Feature", "properties": { "cape": 332.5, "timestamp": "20240716T12" }, "geometry": { "type": "Point", "coordinates": [ -79.0, 43.0 ] } },
{ "type": "Feature", "properties": { "cape": 190.75, "timestamp": "20240716T12" }, "geometry": { "type": "Point", "coordinates": [ -79.0, 43.25 ] } },
{ "type": "Feature", "properties": { "cape": 36.25, "timestamp": "20240716T12" }, "geometry": { "type": "Point", "coordinates": [ -79.0, 43.5 ] } },
{ "type": "Feature", "properties": { "cape": 39.75, "timestamp": "20240716T12" }, "geometry": { "type": "Point", "coordinates": [ -79.0, 43.75 ] } },
{ "type": "Feature", "properties": { "cape": 128.0, "timestamp": "20240716T12" }, "geometry": { "type": "Point", "coordinates": [ -79.0, 44.0 ] } },
{ "type": "Feature", "properties": { "cape": 150.25, "timestamp": "20240716T12" }, "geometry": { "type": "Point", "coordinates": [ -79.0, 44.25 ] } },
{ "type": "Feature", "properties": { "cape": 206.0, "timestamp": "20240716T12" }, "geometry": { "type": "Point", "coordinates": [ -79.0, 44.5 ] } },
{ "type": "Feature", "properties": { "cape": 151.0, "timestamp": "20240716T12" }, "geometry": { "type": "Point", "coordinates": [ -79.0, 44.75 ] } },
{ "type": "Feature", "properties": { "cape": 184.75, "timestamp": "20240716T12" }, "geometry": { "type": "Point", "coordinates": [ -79.0, 45.0 ] } },
{ "type": "Feature", "properties": { "cape": 201.25, "timestamp": "20240716T12" }, "geometry": { "type": "Point", "coordinates": [ -79.0, 45.25 ] } },
{ "type": "Feature", "properties": { "cape": 184.25, "timestamp": "20240716T12" }, "geometry": { "type": "Point", "coordinates": [ -79.0, 45.5 ] } },
{ "type": "Feature", "properties": { "cape": 166.75, "timestamp": "20240716T12" }, "geometry": { "type": "Point", "coordinates": [ -79.0, 45.75 ] } },
{ "type": "Feature", "properties": { "cape": 191.75, "timestamp": "20240716T12" }, "geometry": { "type": "Point", "coordinates": [ -79.0, 46.0 ] } },
{ "type": "Feature", "properties": { "cape": 179.25, "timestamp": "20240716T12" }, "geometry": { "type": "Point", "coordinates": [ -78.75, 41.0 ] } },
{ "type": "Feature", "properties": { "cape": 338.25, "timestamp": "20240716T12" }, "geometry": { "type": "Point", "coordinates": [ -78.75, 41.25 ] } },
{ "type": "Feature", "properties": { "cape": 430.75, "timestamp": "20240716T12" }, "geometry": { "type": "Point", "coordinates": [ -78.75, 41.5 ] } },
{ "type": "Feature", "properties": { "cape": 386.5, "timestamp": "20240716T12" }, "geometry": { "type": "Point", "coordinates": [ -78.75, 41.75 ] } },
{ "type": "Feature", "properties": { "cape": 348.5, "timestamp": "20240716T12" }, "geometry": { "type": "Point", "coordinates": [ -78.75, 42.0 ] } },
{ "type": "Feature", "properties": { "cape": 485.5, "timestamp": "20240716T12" }, "geometry": { "type": "Point", "coordinates": [ -78.75, 42.25 ] } },
{ "type": "Feature", "properties": { "cape": 472.0, "timestamp": "20240716T12" }, "geometry": { "type": "Point", "coordinates": [ -78.75, 42.5 ] } },
{ "type": "Feature", "properties": { "cape": 363.5, "timestamp": "20240716T12" }, "geometry": { "type": "Point", "coordinates": [ -78.75, 42.75 ] } },
{ "type": "Feature", "properties": { "cape": 256.5, "timestamp": "20240716T12" }, "geometry": { "type": "Point", "coordinates": [ -78.75, 43.0 ] } },
{ "type": "Feature", "properties": { "cape": 128.75, "timestamp": "20240716T12" }, "geometry": { "type": "Point", "coordinates": [ -78.75, 43.25 ] } },
{ "type": "Feature", "properties": { "cape": 11.25, "timestamp": "20240716T12" }, "geometry": { "type": "Point", "coordinates": [ -78.75, 43.5 ] } },
{ "type": "Feature", "properties": { "cape": 45.0, "timestamp": "20240716T12" }, "geometry": { "type": "Point", "coordinates": [ -78.75, 43.75 ] } },
{ "type": "Feature", "properties": { "cape": 171.5, "timestamp": "20240716T12" }, "geometry": { "type": "Point", "coordinates": [ -78.75, 44.0 ] } },
{ "type": "Feature", "properties": { "cape": 208.25, "timestamp": "20240716T12" }, "geometry": { "type": "Point", "coordinates": [ -78.75, 44.25 ] } },
{ "type": "Feature", "properties": { "cape": 246.25, "timestamp": "20240716T12" }, "geometry": { "type": "Point", "coordinates": [ -78.75, 44.5 ] } },
{ "type": "Feature", "properties": { "cape": 129.25, "timestamp": "20240716T12" }, "geometry": { "type": "Point", "coordinates": [ -78.75, 44.75 ] } },
{ "type": "Feature", "properties": { "cape": 173.75, "timestamp": "20240716T12" }, "geometry": { "type": "Point", "coordinates": [ -78.75, 45.0 ] } },
{ "type": "Feature", "properties": { "cape": 217.25, "timestamp": "20240716T12" }, "geometry": { "type": "Point", "coordinates": [ -78.75, 45.25 ] } },
{ "type": "Feature", "properties": { "cape": 203.75, "timestamp": "20240716T12" }, "geometry": { "type": "Point", "coordinates": [ -78.75, 45.5 ] } },
{ "type": "Feature", "properties": { "cape": 211.5, "timestamp": "20240716T12" }, "geometry": { "type": "Point", "coordinates": [ -78.75, 45.75 ] } },
{ "type": "Feature", "properties": { "cape": 269.75, "timestamp": "20240716T12" }, "geometry": { "type": "Point", "coordinates": [ -78.75, 46.0 ] } },
{ "type": "Feature", "properties": { "cape": 169.5, "timestamp": "20240716T12" }, "geometry": { "type": "Point", "coordinates": [ -78.5, 41.0 ] } },
{ "type": "Feature", "properties": { "cape": 308.5, "timestamp": "20240716T12" }, "geometry": { "type": "Point", "coordinates": [ -78.5, 41.25 ] } },
{ "type": "Feature", "properties": { "cape": 405.0, "timestamp": "20240716T12" }, "geometry": { "type": "Point", "coordinates": [ -78.5, 41.5 ] } },
{ "type": "Feature", "properties": { "cape": 394.5, "timestamp": "20240716T12" }, "geometry": { "type": "Point", "coordinates": [ -78.5, 41.75 ] } },
{ "type": "Feature", "properties": { "cape": 309.0, "timestamp": "20240716T12" }, "geometry": { "type": "Point", "coordinates": [ -78.5, 42.0 ] } },
{ "type": "Feature", "properties": { "cape": 392.5, "timestamp": "20240716T12" }, "geometry": { "type": "Point", "coordinates": [ -78.5, 42.25 ] } },
{ "type": "Feature", "properties": { "cape": 378.0, "timestamp": "20240716T12" }, "geometry": { "type": "Point", "coordinates": [ -78.5, 42.5 ] } },
{ "type": "Feature", "properties": { "cape": 309.75, "timestamp": "20240716T12" }, "geometry": { "type": "Point", "coordinates": [ -78.5, 42.75 ] } },
{ "type": "Feature", "properties": { "cape": 210.0, "timestamp": "20240716T12" }, "geometry": { "type": "Point", "coordinates": [ -78.5, 43.0 ] } },
{ "type": "Feature", "properties": { "cape": 81.25, "timestamp": "20240716T12" }, "geometry": { "type": "Point", "coordinates": [ -78.5, 43.25 ] } },
{ "type": "Feature", "properties": { "cape": 11.5, "timestamp": "20240716T12" }, "geometry": { "type": "Point", "coordinates": [ -78.5, 43.5 ] } },
{ "type": "Feature", "properties": { "cape": 48.75, "timestamp": "20240716T12" }, "geometry": { "type": "Point", "coordinates": [ -78.5, 43.75 ] } },
{ "type": "Feature", "properties": { "cape": 174.5, "timestamp": "20240716T12" }, "geometry": { "type": "Point", "coordinates": [ -78.5, 44.0 ] } },
{ "type": "Feature", "properties": { "cape": 225.0, "timestamp": "20240716T12" }, "geometry": { "type": "Point", "coordinates": [ -78.5, 44.25 ] } },
{ "type": "Feature", "properties": { "cape": 237.75, "timestamp": "20240716T12" }, "geometry": { "type": "Point", "coordinates": [ -78.5, 44.5 ] } },
{ "type": "Feature", "properties": { "cape": 249.0, "timestamp": "20240716T12" }, "geometry": { "type": "Point", "coordinates": [ -78.5, 44.75 ] } },
{ "type": "Feature", "properties": { "cape": 276.25, "timestamp": "20240716T12" }, "geometry": { "type": "Point", "coordinates": [ -78.5, 45.0 ] } },
{ "type": "Feature", "properties": { "cape": 348.75, "timestamp": "20240716T12" }, "geometry": { "type": "Point", "coordinates": [ -78.5, 45.25 ] } },
{ "type": "Feature", "properties": { "cape": 355.75, "timestamp": "20240716T12" }, "geometry": { "type": "Point", "coordinates": [ -78.5, 45.5 ] } },
{ "type": "Feature", "properties": { "cape": 396.75, "timestamp": "20240716T12" }, "geometry": { "type": "Point", "coordinates": [ -78.5, 45.75 ] } },
{ "type": "Feature", "properties": { "cape": 436.0, "timestamp": "20240716T12" }, "geometry": { "type": "Point", "coordinates": [ -78.5, 46.0 ] } },
{ "type": "Feature", "properties": { "cape": 113.25, "timestamp": "20240716T12" }, "geometry": { "type": "Point", "coordinates": [ -78.25, 41.0 ] } },
{ "type": "Feature", "properties": { "cape": 145.5, "timestamp": "20240716T12" }, "geometry": { "type": "Point", "coordinates": [ -78.25, 41.25 ] } },
{ "type": "Feature", "properties": { "cape": 203.75, "timestamp": "20240716T12" }, "geometry": { "type": "Point", "coordinates": [ -78.25, 41.5 ] } },
{ "type": "Feature", "properties": { "cape": 208.5, "timestamp": "20240716T12" }, "geometry": { "type": "Point", "coordinates": [ -78.25, 41.75 ] } },
{ "type": "Feature", "properties": { "cape": 176.25, "timestamp": "20240716T12" }, "geometry": { "type": "Point", "coordinates": [ -78.25, 42.0 ] } },
{ "type": "Feature", "properties": { "cape": 242.25, "timestamp": "20240716T12" }, "geometry": { "type": "Point", "coordinates": [ -78.25, 42.25 ] } },
{ "type": "Feature", "properties": { "cape": 385.75, "timestamp": "20240716T12" }, "geometry": { "type": "Point", "coordinates": [ -78.25, 42.5 ] } },
{ "type": "Feature", "properties": { "cape": 297.5, "timestamp": "20240716T12" }, "geometry": { "type": "Point", "coordinates": [ -78.25, 42.75 ] } },
{ "type": "Feature", "properties": { "cape": 167.0, "timestamp": "20240716T12" }, "geometry": { "type": "Point", "coordinates": [ -78.25, 43.0 ] } },
{ "type": "Feature", "properties": { "cape": 83.25, "timestamp": "20240716T12" }, "geometry": { "type": "Point", "coordinates": [ -78.25, 43.25 ] } },
{ "type": "Feature", "properties": { "cape": 13.5, "timestamp": "20240716T12" }, "geometry": { "type": "Point", "coordinates": [ -78.25, 43.5 ] } },
{ "type": "Feature", "properties": { "cape": 59.25, "timestamp": "20240716T12" }, "geometry": { "type": "Point", "coordinates": [ -78.25, 43.75 ] } },
{ "type": "Feature", "properties": { "cape": 191.5, "timestamp": "20240716T12" }, "geometry": { "type": "Point", "coordinates": [ -78.25, 44.0 ] } },
{ "type": "Feature", "properties": { "cape": 237.75, "timestamp": "20240716T12" }, "geometry": { "type": "Point", "coordinates": [ -78.25, 44.25 ] } },
{ "type": "Feature", "properties": { "cape": 254.0, "timestamp": "20240716T12" }, "geometry": { "type": "Point", "coordinates": [ -78.25, 44.5 ] } },
{ "type": "Feature", "properties": { "cape": 278.75, "timestamp": "20240716T12" }, "geometry": { "type": "Point", "coordinates": [ -78.25, 44.75 ] } },
{ "type": "Feature", "properties": { "cape": 324.25, "timestamp": "20240716T12" }, "geometry": { "type": "Point", "coordinates": [ -78.25, 45.0 ] } },
{ "type": "Feature", "properties": { "cape": 396.5, "timestamp": "20240716T12" }, "geometry": { "type": "Point", "coordinates": [ -78.25, 45.25 ] } },
{ "type": "Feature", "properties": { "cape": 511.5, "timestamp": "20240716T12" }, "geometry": { "type": "Point", "coordinates": [ -78.25, 45.5 ] } },
{ "type": "Feature", "properties": { "cape": 552.0, "timestamp": "20240716T12" }, "geometry": { "type": "Point", "coordinates": [ -78.25, 45.75 ] } },
{ "type": "Feature", "properties": { "cape": 567.75, "timestamp": "20240716T12" }, "geometry": { "type": "Point", "coordinates": [ -78.25, 46.0 ] } },
{ "type": "Feature", "properties": { "cape": 18.0, "timestamp": "20240716T12" }, "geometry": { "type": "Point", "coordinates": [ -78.0, 41.0 ] } },
{ "type": "Feature", "properties": { "cape": 50.75, "timestamp": "20240716T12" }, "geometry": { "type": "Point", "coordinates": [ -78.0, 41.25 ] } },
{ "type": "Feature", "properties": { "cape": 65.25, "timestamp": "20240716T12" }, "geometry": { "type": "Point", "coordinates": [ -78.0, 41.5 ] } },
{ "type": "Feature", "properties": { "cape": 75.25, "timestamp": "20240716T12" }, "geometry": { "type": "Point", "coordinates": [ -78.0, 41.75 ] } },
{ "type": "Feature", "properties": { "cape": 76.75, "timestamp": "20240716T12" }, "geometry": { "type": "Point", "coordinates": [ -78.0, 42.0 ] } },
{ "type": "Feature", "properties": { "cape": 169.25, "timestamp": "20240716T12" }, "geometry": { "type": "Point", "coordinates": [ -78.0, 42.25 ] } },
{ "type": "Feature", "properties": { "cape": 306.5, "timestamp": "20240716T12" }, "geometry": { "type": "Point", "coordinates": [ -78.0, 42.5 ] } },
{ "type": "Feature", "properties": { "cape": 238.75, "timestamp": "20240716T12" }, "geometry": { "type": "Point", "coordinates": [ -78.0, 42.75 ] } },
{ "type": "Feature", "properties": { "cape": 132.0, "timestamp": "20240716T12" }, "geometry": { "type": "Point", "coordinates": [ -78.0, 43.0 ] } },
{ "type": "Feature", "properties": { "cape": 58.75, "timestamp": "20240716T12" }, "geometry": { "type": "Point", "coordinates": [ -78.0, 43.25 ] } },
{ "type": "Feature", "properties": { "cape": 18.0, "timestamp": "20240716T12" }, "geometry": { "type": "Point", "coordinates": [ -78.0, 43.5 ] } },
{ "type": "Feature", "properties": { "cape": 61.5, "timestamp": "20240716T12" }, "geometry": { "type": "Point", "coordinates": [ -78.0, 43.75 ] } },
{ "type": "Feature", "properties": { "cape": 221.75, "timestamp": "20240716T12" }, "geometry": { "type": "Point", "coordinates": [ -78.0, 44.0 ] } },
{ "type": "Feature", "properties": { "cape": 245.0, "timestamp": "20240716T12" }, "geometry": { "type": "Point", "coordinates": [ -78.0, 44.25 ] } },
{ "type": "Feature", "properties": { "cape": 293.5, "timestamp": "20240716T12" }, "geometry": { "type": "Point", "coordinates": [ -78.0, 44.5 ] } },
{ "type": "Feature", "properties": { "cape": 324.5, "timestamp": "20240716T12" }, "geometry": { "type": "Point", "coordinates": [ -78.0, 44.75 ] } },
{ "type": "Feature", "properties": { "cape": 356.75, "timestamp": "20240716T12" }, "geometry": { "type": "Point", "coordinates": [ -78.0, 45.0 ] } },
{ "type": "Feature", "properties": { "cape": 461.25, "timestamp": "20240716T12" }, "geometry": { "type": "Point", "coordinates": [ -78.0, 45.25 ] } },
{ "type": "Feature", "properties": { "cape": 594.0, "timestamp": "20240716T12" }, "geometry": { "type": "Point", "coordinates": [ -78.0, 45.5 ] } },
{ "type": "Feature", "properties": { "cape": 671.0, "timestamp": "20240716T12" }, "geometry": { "type": "Point", "coordinates": [ -78.0, 45.75 ] } },
{ "type": "Feature", "properties": { "cape": 696.25, "timestamp": "20240716T12" }, "geometry": { "type": "Point", "coordinates": [ -78.0, 46.0 ] } },
{ "type": "Feature", "properties": { "cape": 7.5, "timestamp": "20240716T12" }, "geometry": { "type": "Point", "coordinates": [ -77.75, 41.0 ] } },
{ "type": "Feature", "properties": { "cape": 0.25, "timestamp": "20240716T12" }, "geometry": { "type": "Point", "coordinates": [ -77.75, 41.25 ] } },
{ "type": "Feature", "properties": { "cape": 4.0, "timestamp": "20240716T12" }, "geometry": { "type": "Point", "coordinates": [ -77.75, 41.5 ] } },
{ "type": "Feature", "properties": { "cape": 22.5, "timestamp": "20240716T12" }, "geometry": { "type": "Point", "coordinates": [ -77.75, 41.75 ] } },
{ "type": "Feature", "properties": { "cape": 35.5, "timestamp": "20240716T12" }, "geometry": { "type": "Point", "coordinates": [ -77.75, 42.0 ] } },
{ "type": "Feature", "properties": { "cape": 151.75, "timestamp": "20240716T12" }, "geometry": { "type": "Point", "coordinates": [ -77.75, 42.25 ] } },
{ "type": "Feature", "properties": { "cape": 253.75, "timestamp": "20240716T12" }, "geometry": { "type": "Point", "coordinates": [ -77.75, 42.5 ] } },
{ "type": "Feature", "properties": { "cape": 205.0, "timestamp": "20240716T12" }, "geometry": { "type": "Point", "coordinates": [ -77.75, 42.75 ] } },
{ "type": "Feature", "properties": { "cape": 111.75, "timestamp": "20240716T12" }, "geometry": { "type": "Point", "coordinates": [ -77.75, 43.0 ] } },
{ "type": "Feature", "properties": { "cape": 41.25, "timestamp": "20240716T12" }, "geometry": { "type": "Point", "coordinates": [ -77.75, 43.25 ] } },
{ "type": "Feature", "properties": { "cape": 22.25, "timestamp": "20240716T12" }, "geometry": { "type": "Point", "coordinates": [ -77.75, 43.5 ] } },
{ "type": "Feature", "properties": { "cape": 62.75, "timestamp": "20240716T12" }, "geometry": { "type": "Point", "coordinates": [ -77.75, 43.75 ] } },
{ "type": "Feature", "properties": { "cape": 197.25, "timestamp": "20240716T12" }, "geometry": { "type": "Point", "coordinates": [ -77.75, 44.0 ] } },
{ "type": "Feature", "properties": { "cape": 299.5, "timestamp": "20240716T12" }, "geometry": { "type": "Point", "coordinates": [ -77.75, 44.25 ] } },
{ "type": "Feature", "properties": { "cape": 288.5, "timestamp": "20240716T12" }, "geometry": { "type": "Point", "coordinates": [ -77.75, 44.5 ] } },
{ "type": "Feature", "properties": { "cape": 296.25, "timestamp": "20240716T12" }, "geometry": { "type": "Point", "coordinates": [ -77.75, 44.75 ] } },
{ "type": "Feature", "properties": { "cape": 342.25, "timestamp": "20240716T12" }, "geometry": { "type": "Point", "coordinates": [ -77.75, 45.0 ] } },
{ "type": "Feature", "properties": { "cape": 446.25, "timestamp": "20240716T12" }, "geometry": { "type": "Point", "coordinates": [ -77.75, 45.25 ] } },
{ "type": "Feature", "properties": { "cape": 571.0, "timestamp": "20240716T12" }, "geometry": { "type": "Point", "coordinates": [ -77.75, 45.5 ] } },
{ "type": "Feature", "properties": { "cape": 614.0, "timestamp": "20240716T12" }, "geometry": { "type": "Point", "coordinates": [ -77.75, 45.75 ] } },
{ "type": "Feature", "properties": { "cape": 622.25, "timestamp": "20240716T12" }, "geometry": { "type": "Point", "coordinates": [ -77.75, 46.0 ] } },
{ "type": "Feature", "properties": { "cape": 144.25, "timestamp": "20240716T12" }, "geometry": { "type": "Point", "coordinates": [ -77.5, 41.0 ] } },
{ "type": "Feature", "properties": { "cape": 40.75, "timestamp": "20240716T12" }, "geometry": { "type": "Point", "coordinates": [ -77.5, 41.25 ] } },
{ "type": "Feature", "properties": { "cape": 12.0, "timestamp": "20240716T12" }, "geometry": { "type": "Point", "coordinates": [ -77.5, 41.5 ] } },
{ "type": "Feature", "properties": { "cape": 44.25, "timestamp": "20240716T12" }, "geometry": { "type": "Point", "coordinates": [ -77.5, 41.75 ] } },
{ "type": "Feature", "properties": { "cape": 33.5, "timestamp": "20240716T12" }, "geometry": { "type": "Point", "coordinates": [ -77.5, 42.0 ] } },
{ "type": "Feature", "properties": { "cape": 207.25, "timestamp": "20240716T12" }, "geometry": { "type": "Point", "coordinates": [ -77.5, 42.25 ] } },
{ "type": "Feature", "properties": { "cape": 253.5, "timestamp": "20240716T12" }, "geometry": { "type": "Point", "coordinates": [ -77.5, 42.5 ] } },
{ "type": "Feature", "properties": { "cape": 196.25, "timestamp": "20240716T12" }, "geometry": { "type": "Point", "coordinates": [ -77.5, 42.75 ] } },
{ "type": "Feature", "properties": { "cape": 94.5, "timestamp": "20240716T12" }, "geometry": { "type": "Point", "coordinates": [ -77.5, 43.0 ] } },
{ "type": "Feature", "properties": { "cape": 43.75, "timestamp": "20240716T12" }, "geometry": { "type": "Point", "coordinates": [ -77.5, 43.25 ] } },
{ "type": "Feature", "properties": { "cape": 24.75, "timestamp": "20240716T12" }, "geometry": { "type": "Point", "coordinates": [ -77.5, 43.5 ] } },
{ "type": "Feature", "properties": { "cape": 76.0, "timestamp": "20240716T12" }, "geometry": { "type": "Point", "coordinates": [ -77.5, 43.75 ] } },
{ "type": "Feature", "properties": { "cape": 221.5, "timestamp": "20240716T12" }, "geometry": { "type": "Point", "coordinates": [ -77.5, 44.0 ] } },
{ "type": "Feature", "properties": { "cape": 323.5, "timestamp": "20240716T12" }, "geometry": { "type": "Point", "coordinates": [ -77.5, 44.25 ] } },
{ "type": "Feature", "properties": { "cape": 279.5, "timestamp": "20240716T12" }, "geometry": { "type": "Point", "coordinates": [ -77.5, 44.5 ] } },
{ "type": "Feature", "properties": { "cape": 289.25, "timestamp": "20240716T12" }, "geometry": { "type": "Point", "coordinates": [ -77.5, 44.75 ] } },
{ "type": "Feature", "properties": { "cape": 354.75, "timestamp": "20240716T12" }, "geometry": { "type": "Point", "coordinates": [ -77.5, 45.0 ] } },
{ "type": "Feature", "properties": { "cape": 458.5, "timestamp": "20240716T12" }, "geometry": { "type": "Point", "coordinates": [ -77.5, 45.25 ] } },
{ "type": "Feature", "properties": { "cape": 527.25, "timestamp": "20240716T12" }, "geometry": { "type": "Point", "coordinates": [ -77.5, 45.5 ] } },
{ "type": "Feature", "properties": { "cape": 570.25, "timestamp": "20240716T12" }, "geometry": { "type": "Point", "coordinates": [ -77.5, 45.75 ] } },
{ "type": "Feature", "properties": { "cape": 658.0, "timestamp": "20240716T12" }, "geometry": { "type": "Point", "coordinates": [ -77.5, 46.0 ] } },
{ "type": "Feature", "properties": { "cape": 187.5, "timestamp": "20240716T12" }, "geometry": { "type": "Point", "coordinates": [ -77.25, 41.0 ] } },
{ "type": "Feature", "properties": { "cape": 83.75, "timestamp": "20240716T12" }, "geometry": { "type": "Point", "coordinates": [ -77.25, 41.25 ] } },
{ "type": "Feature", "properties": { "cape": 41.0, "timestamp": "20240716T12" }, "geometry": { "type": "Point", "coordinates": [ -77.25, 41.5 ] } },
{ "type": "Feature", "properties": { "cape": 75.75, "timestamp": "20240716T12" }, "geometry": { "type": "Point", "coordinates": [ -77.25, 41.75 ] } },
{ "type": "Feature", "properties": { "cape": 88.5, "timestamp": "20240716T12" }, "geometry": { "type": "Point", "coordinates": [ -77.25, 42.0 ] } },
{ "type": "Feature", "properties": { "cape": 228.75, "timestamp": "20240716T12" }, "geometry": { "type": "Point", "coordinates": [ -77.25, 42.25 ] } },
{ "type": "Feature", "properties": { "cape": 285.5, "timestamp": "20240716T12" }, "geometry": { "type": "Point", "coordinates": [ -77.25, 42.5 ] } },
{ "type": "Feature", "properties": { "cape": 188.25, "timestamp": "20240716T12" }, "geometry": { "type": "Point", "coordinates": [ -77.25, 42.75 ] } },
{ "type": "Feature", "properties": { "cape": 75.5, "timestamp": "20240716T12" }, "geometry": { "type": "Point", "coordinates": [ -77.25, 43.0 ] } },
{ "type": "Feature", "properties": { "cape": 25.0, "timestamp": "20240716T12" }, "geometry": { "type": "Point", "coordinates": [ -77.25, 43.25 ] } },
{ "type": "Feature", "properties": { "cape": 24.0, "timestamp": "20240716T12" }, "geometry": { "type": "Point", "coordinates": [ -77.25, 43.5 ] } },
{ "type": "Feature", "properties": { "cape": 76.25, "timestamp": "20240716T12" }, "geometry": { "type": "Point", "coordinates": [ -77.25, 43.75 ] } },
{ "type": "Feature", "properties": { "cape": 294.75, "timestamp": "20240716T12" }, "geometry": { "type": "Point", "coordinates": [ -77.25, 44.0 ] } },
{ "type": "Feature", "properties": { "cape": 316.75, "timestamp": "20240716T12" }, "geometry": { "type": "Point", "coordinates": [ -77.25, 44.25 ] } },
{ "type": "Feature", "properties": { "cape": 281.5, "timestamp": "20240716T12" }, "geometry": { "type": "Point", "coordinates": [ -77.25, 44.5 ] } },
{ "type": "Feature", "properties": { "cape": 321.0, "timestamp": "20240716T12" }, "geometry": { "type": "Point", "coordinates": [ -77.25, 44.75 ] } },
{ "type": "Feature", "properties": { "cape": 382.0, "timestamp": "20240716T12" }, "geometry": { "type": "Point", "coordinates": [ -77.25, 45.0 ] } },
{ "type": "Feature", "properties": { "cape": 459.0, "timestamp": "20240716T12" }, "geometry": { "type": "Point", "coordinates": [ -77.25, 45.25 ] } },
{ "type": "Feature", "properties": { "cape": 517.5, "timestamp": "20240716T12" }, "geometry": { "type": "Point", "coordinates": [ -77.25, 45.5 ] } },
{ "type": "Feature", "properties": { "cape": 553.5, "timestamp": "20240716T12" }, "geometry": { "type": "Point", "coordinates": [ -77.25, 45.75 ] } },
{ "type": "Feature", "properties": { "cape": 675.0, "timestamp": "20240716T12" }, "geometry": { "type": "Point", "coordinates": [ -77.25, 46.0 ] } }
]
}
