{
"type": "FeatureCollection",
"name": "geojson_q500m_points_20240716T12",
"crs": { "type": "name", "properties": { "name": "urn:ogc:def:crs:OGC:1.3:CRS84" } },
"features": [
{ "type": "Feature", "properties": { "humidity@500m": 12.950406166689755, "lapserate": 0.0051219398, "timestamp": "20240716T12" }, "geometry": { "type": "Point", "coordinates": [ -82.25, 41.0 ] } },
{ "type": "Feature", "properties": { "humidity@500m": 13.019933379635619, "lapserate": 0.0048185745, "timestamp": "20240716T12" }, "geometry": { "type": "Point", "coordinates": [ -82.25, 41.25 ] } },
{ "type": "Feature", "properties": { "humidity@500m": 13.289529516982331, "lapserate": 0.0045705633, "timestamp": "20240716T12" }, "geometry": { "type": "Point", "coordinates": [ -82.25, 41.5 ] } },
{ "type": "Feature", "properties": { "humidity@500m": 13.489742115522338, "lapserate": 0.004481866, "timestamp": "20240716T12" }, "geometry": { "type": "Point", "coordinates": [ -82.25, 41.75 ] } },
{ "type": "Feature", "properties": { "humidity@500m": 13.534266109539487, "lapserate": 0.004532658, "timestamp": "20240716T12" }, "geometry": { "type": "Point", "coordinates": [ -82.25, 42.0 ] } },
{ "type": "Feature", "properties": { "humidity@500m": 13.913816568954882, "lapserate": 0.0045401622, "timestamp": "20240716T12" }, "geometry": { "type": "Point", "coordinates": [ -82.25, 42.25 ] } },
{ "type": "Feature", "properties": { "humidity@500m": 13.664106175171796, "lapserate": 0.0044916836, "timestamp": "20240716T12" }, "geometry": { "type": "Point", "coordinates": [ -82.25, 42.5 ] } },
{ "type": "Feature", "properties": { "humidity@500m": 13.455999073418475, "lapserate": 0.0046001365, "timestamp": "20240716T12" }, "geometry": { "type": "Point", "coordinates": [ -82.25, 42.75 ] } },
{ "type": "Feature", "properties": { "humidity@500m": 13.414808988739898, "lapserate": 0.0048108152, "timestamp": "20240716T12" }, "geometry": { "type": "Point", "coordinates": [ -82.25, 43.0 ] } },
{ "type": "Feature", "properties": { "humidity@500m": 12.608200422637438, "lapserate": 0.0049806624, "timestamp": "20240716T12" }, "geometry": { "type": "Point", "coordinates": [ -82.25, 43.25 ] } },
{ "type": "Feature", "properties": { "humidity@500m": 11.434596653886597, "lapserate": 0.0051572812, "timestamp": "20240716T12" }, "geometry": { "type": "Point", "coordinates": [ -82.25, 43.5 ] } },
{ "type": "Feature", "properties": { "humidity@500m": 11.476505631054609, "lapserate": 0.0052959444, "timestamp": "20240716T12" }, "geometry": { "type": "Point", "coordinates": [ -82.25, 43.75 ] } },
{ "type": "Feature", "properties": { "humidity@500m": 12.40564955653954, "lapserate": 0.0053313849, "timestamp": "20240716T12" }, "geometry": { "type": "Point", "coordinates": [ -82.25, 44.0 ] } },
{ "type": "Feature", "properties": { "humidity@500m": 13.590299652155224, "lapserate": 0.0054143383, "timestamp": "20240716T12" }, "geometry": { "type": "Point", "coordinates": [ -82.25, 44.25 ] } },
{ "type": "Feature", "properties": { "humidity@500m": 13.766203696129324, "lapserate": 0.0055920035, "timestamp": "20240716T12" }, "geometry": { "type": "Point", "coordinates": [ -82.25, 44.5 ] } },
{ "type": "Feature", "properties": { "humidity@500m": 13.620794252967944, "lapserate": 0.005776084, "timestamp": "20240716T12" }, "geometry": { "type": "Point", "coordinates": [ -82.25, 44.75 ] } },
{ "type": "Feature", "properties": { "humidity@500m": 13.442771891157507, "lapserate": 0.0059543629, "timestamp": "20240716T12" }, "geometry": { "type": "Point", "coordinates": [ -82.25, 45.0 ] } },
{ "type": "Feature", "properties": { "humidity@500m": 13.542227581235952, "lapserate": 0.006013568, "timestamp": "20240716T12" }, "geometry": { "type": "Point", "coordinates": [ -82.25, 45.25 ] } },
{ "type": "Feature", "properties": { "humidity@500m": 13.634302149935998, "lapserate": 0.0059363618, "timestamp": "20240716T12" }, "geometry": { "type": "Point", "coordinates": [ -82.25, 45.5 ] } },
{ "type": "Feature", "properties": { "humidity@500m": 13.474058594648861, "lapserate": 0.0058483011, "timestamp": "20240716T12" }, "geometry": { "type": "Point", "coordinates": [ -82.25, 45.75 ] } },
{ "type": "Feature", "properties": { "humidity@500m": 13.095626396787312, "lapserate": 0.0057595605, "timestamp": "20240716T12" }, "geometry": { "type": "Point", "coordinates": [ -82.25, 46.0 ] } },
{ "type": "Feature", "properties": { "humidity@500m": 13.011018130955991, "lapserate": 0.005102823, "timestamp": "20240716T12" }, "geometry": { "type": "Point", "coordinates": [ -82.0, 41.0 ] } },
{ "type": "Feature", "properties": { "humidity@500m": 12.992118466423269, "lapserate": 0.0047696647, "timestamp": "20240716T12" }, "geometry": { "type": "Point", "coordinates": [ -82.0, 41.25 ] } },
{ "type": "Feature", "properties": { "humidity@500m": 13.243201503804181, "lapserate": 0.0044959211, "timestamp": "20240716T12" }, "geometry": { "type": "Point", "coordinates": [ -82.0, 41.5 ] } },
{ "type": "Feature", "properties": { "humidity@500m": 13.381945156646704, "lapserate": 0.0043775891, "timestamp": "20240716T12" }, "geometry": { "type": "Point", "coordinates": [ -82.0, 41.75 ] } },
{ "type": "Feature", "properties": { "humidity@500m": 13.558851434164463, "lapserate": 0.0044257836, "timestamp": "20240716T12" }, "geometry": { "type": "Point", "coordinates": [ -82.0, 42.0 ] } },
{ "type": "Feature", "properties": { "humidity@500m": 13.919709510660081, "lapserate": 0.0045006322, "timestamp": "20240716T12" }, "geometry": { "type": "Point", "coordinates": [ -82.0, 42.25 ] } },
{ "type": "Feature", "properties": { "humidity@500m": 13.560352064228026, "lapserate": 0.0045558033, "timestamp": "20240716T12" }, "geometry": { "type": "Point", "coordinates": [ -82.0, 42.5 ] } },
{ "type": "Feature", "properties": { "humidity@500m": 13.593921123036811, "lapserate": 0.0047124373, "timestamp": "20240716T12" }, "geometry": { "type": "Point", "coordinates": [ -82.0, 42.75 ] } },
{ "type": "Feature", "properties": { "humidity@500m": 13.713330050931301, "lapserate": 0.0048319944, "timestamp": "20240716T12" }, "geometry": { "type": "Point", "coordinates": [ -82.0, 43.0 ] } },
{ "type": "Feature", "properties": { "humidity@500m": 13.532063076254133, "lapserate": 0.0048729554, "timestamp": "20240716T12" }, "geometry": { "type": "Point", "coordinates": [ -82.0, 43.25 ] } },
{ "type": "Feature", "properties": { "humidity@500m": 12.334632659101754, "lapserate": 0.0050089196, "timestamp": "20240716T12" }, "geometry": { "type": "Point", "coordinates": [ -82.0, 43.5 ] } },
{ "type": "Feature", "properties": { "humidity@500m": 11.50762454206987, "lapserate": 0.0051490092, "timestamp": "20240716T12" }, "geometry": { "type": "Point", "coordinates": [ -82.0, 43.75 ] } },
{ "type": "Feature", "properties": { "humidity@500m": 12.132706767429692, "lapserate": 0.0051920968, "timestamp": "20240716T12" }, "geometry": { "type": "Point", "coordinates": [ -82.0, 44.0 ] } },
{ "type": "Feature", "properties": { "humidity@500m": 13.463036058914248, "lapserate": 0.0053077955, "timestamp": "20240716T12" }, "geometry": { "type": "Point", "coordinates": [ -82.0, 44.25 ] } },
{ "type": "Feature", "properties": { "humidity@500m": 13.749756230882006, "lapserate": 0.0055624731, "timestamp": "20240716T12" }, "geometry": { "type": "Point", "coordinates": [ -82.0, 44.5 ] } },
{ "type": "Feature", "properties": { "humidity@500m": 13.604638940384804, "lapserate": 0.0058132727, "timestamp": "20240716T12" }, "geometry": { "type": "Point", "coordinates": [ -82.0, 44.75 ] } },
{ "type": "Feature", "properties": { "humidity@500m": 13.541989064182211, "lapserate": 0.0059997872, "timestamp": "20240716T12" }, "geometry": { "type": "Point", "coordinates": [ -82.0, 45.0 ] } },
{ "type": "Feature", "properties": { "humidity@500m": 13.644397116192488, "lapserate": 0.0060702744, "timestamp": "20240716T12" }, "geometry": { "type": "Point", "coordinates": [ -82.0, 45.25 ] } },
{ "type": "Feature", "properties": { "humidity@500m": 13.734892492283889, "lapserate": 0.0060029244, "timestamp": "20240716T12" }, "geometry": { "type": "Point", "coordinates": [ -82.0, 45.5 ] } },
{ "type": "Feature", "properties": { "humidity@500m": 13.575443501919425, "lapserate": 0.0058796364, "timestamp": "20240716T12" }, "geometry": { "type": "Point", "coordinates": [ -82.0, 45.75 ] } },
{ "type": "Feature", "properties": { "humidity@500m": 13.165574364657729, "lapserate": 0.005748081, "timestamp": "20240716T12" }, "geometry": { "type": "Point", "coordinates": [ -82.0, 46.0 ] } },
{ "type": "Feature", "properties": { "humidity@500m": 13.039238321342609, "lapserate": 0.0051401942, "timestamp": "20240716T12" }, "geometry": { "type": "Point", "coordinates": [ -81.75, 41.0 ] } },
{ "type": "Feature", "properties": { "humidity@500m": 13.044826593377026, "lapserate": 0.0048197396, "timestamp": "20240716T12" }, "geometry": { "type": "Point", "coordinates": [ -81.75, 41.25 ] } },
{ "type": "Feature", "properties": { "humidity@500m": 13.148110837555855, "lapserate": 0.0045561949, "timestamp": "20240716T12" }, "geometry": { "type": "Point", "coordinates": [ -81.75, 41.5 ] } },
{ "type": "Feature", "properties": { "humidity@500m": 13.232069880465593, "lapserate": 0.0044095875, "timestamp": "20240716T12" }, "geometry": { "type": "Point", "coordinates": [ -81.75, 41.75 ] } },
{ "type": "Feature", "properties": { "humidity@500m": 13.630605267630976, "lapserate": 0.0044237175, "timestamp": "20240716T12" }, "geometry": { "type": "Point", "coordinates": [ -81.75, 42.0 ] } },
{ "type": "Feature", "properties": { "humidity@500m": 13.891168777838574, "lapserate": 0.0045272382, "timestamp": "20240716T12" }, "geometry": { "type": "Point", "coordinates": [ -81.75, 42.25 ] } },
{ "type": "Feature", "properties": { "humidity@500m": 13.480833460071143, "lapserate": 0.0046552597, "timestamp": "20240716T12" }, "geometry": { "type": "Point", "coordinates": [ -81.75, 42.5 ] } },
{ "type": "Feature", "properties": { "humidity@500m": 13.569553857748048, "lapserate": 0.0048550637, "timestamp": "20240716T12" }, "geometry": { "type": "Point", "coordinates": [ -81.75, 42.75 ] } },
{ "type": "Feature", "properties": { "humidity@500m": 14.200284844322054, "lapserate": 0.0049472381, "timestamp": "20240716T12" }, "geometry": { "type": "Point", "coordinates": [ -81.75, 43.0 ] } },
{ "type": "Feature", "properties": { "humidity@500m": 14.174962457727187, "lapserate": 0.0048883981, "timestamp": "20240716T12" }, "geometry": { "type": "Point", "coordinates": [ -81.75, 43.25 ] } },
{ "type": "Feature", "properties": { "humidity@500m": 13.100255355139019, "lapserate": 0.0048947539, "timestamp": "20240716T12" }, "geometry": { "type": "Point", "coordinates": [ -81.75, 43.5 ] } },
{ "type": "Feature", "properties": { "humidity@500m": 12.223770503928787, "lapserate": 0.0049952986, "timestamp": "20240716T12" }, "geometry": { "type": "Point", "coordinates": [ -81.75, 43.75 ] } },
{ "type": "Feature", "properties": { "humidity@500m": 12.105437434293034, "lapserate": 0.0050910832, "timestamp": "20240716T12" }, "geometry": { "type": "Point", "coordinates": [ -81.75, 44.0 ] } },
{ "type": "Feature", "properties": { "humidity@500m": 13.354014921632393, "lapserate": 0.0052208472, "timestamp": "20240716T12" }, "geometry": { "type": "Point", "coordinates": [ -81.75, 44.25 ] } },
{ "type": "Feature", "properties": { "humidity@500m": 13.758351900595191, "lapserate": 0.0054991883, "timestamp": "20240716T12" }, "geometry": { "type": "Point", "coordinates": [ -81.75, 44.5 ] } },
{ "type": "Feature", "properties": { "humidity@500m": 13.589018011636977, "lapserate": 0.0058265063, "timestamp": "20240716T12" }, "geometry": { "type": "Point", "coordinates": [ -81.75, 44.75 ] } },
{ "type": "Feature", "properties": { "humidity@500m": 13.560211951663877, "lapserate": 0.0060415524, "timestamp": "20240716T12" }, "geometry": { "type": "Point", "coordinates": [ -81.75, 45.0 ] } },
{ "type": "Feature", "properties": { "humidity@500m": 13.654388055941835, "lapserate": 0.0061106943, "timestamp": "20240716T12" }, "geometry": { "type": "Point", "coordinates": [ -81.75, 45.25 ] } },
{ "type": "Feature", "properties": { "humidity@500m": 13.742047987841351, "lapserate": 0.0060436213, "timestamp": "20240716T12" }, "geometry": { "type": "Point", "coordinates": [ -81.75, 45.5 ] } },
{ "type": "Feature", "properties": { "humidity@500m": 13.655125766355152, "lapserate": 0.0058932072, "timestamp": "20240716T12" }, "geometry": { "type": "Point", "coordinates": [ -81.75, 45.75 ] } },
{ "type": "Feature", "properties": { "humidity@500m": 13.21144292822324, "lapserate": 0.005727286, "timestamp": "20240716T12" }, "geometry": { "type": "Point", "coordinates": [ -81.75, 46.0 ] } },
{ "type": "Feature", "properties": { "humidity@500m": 13.053171546753461, "lapserate": 0.0052424283, "timestamp": "20240716T12" }, "geometry": { "type": "Point", "coordinates": [ -81.5, 41.0 ] } },
{ "type": "Feature", "properties": { "humidity@500m": 13.087911346339499, "lapserate": 0.0049713491, "timestamp": "20240716T12" }, "geometry": { "type": "Point", "coordinates": [ -81.5, 41.25 ] } },
{ "type": "Feature", "properties": { "humidity@500m": 13.145390694856731, "lapserate": 0.0047509167, "timestamp": "20240716T12" }, "geometry": { "type": "Point", "coordinates": [ -81.5, 41.5 ] } },
{ "type": "Feature", "properties": { "humidity@500m": 13.166342012717061, "lapserate": 0.0045883362, "timestamp": "20240716T12" }, "geometry": { "type": "Point", "coordinates": [ -81.5, 41.75 ] } },
{ "type": "Feature", "properties": { "humidity@500m": 13.556481639186003, "lapserate": 0.004549013, "timestamp": "20240716T12" }, "geometry": { "type": "Point", "coordinates": [ -81.5, 42.0 ] } },
{ "type": "Feature", "properties": { "humidity@500m": 13.738532966869984, "lapserate": 0.0046453872, "timestamp": "20240716T12" }, "geometry": { "type": "Point", "coordinates": [ -81.5, 42.25 ] } },
{ "type": "Feature", "properties": { "humidity@500m": 13.400024192717892, "lapserate": 0.0048122993, "timestamp": "20240716T12" }, "geometry": { "type": "Point", "coordinates": [ -81.5, 42.5 ] } },
{ "type": "Feature", "properties": { "humidity@500m": 13.67216592992618, "lapserate": 0.0050327061, "timestamp": "20240716T12" }, "geometry": { "type": "Point", "coordinates": [ -81.5, 42.75 ] } },
{ "type": "Feature", "properties": { "humidity@500m": 13.971719707271202, "lapserate": 0.0051396848, "timestamp": "20240716T12" }, "geometry": { "type": "Point", "coordinates": [ -81.5, 43.0 ] } },
{ "type": "Feature", "properties": { "humidity@500m": 13.772302979524593, "lapserate": 0.0050390991, "timestamp": "20240716T12" }, "geometry": { "type": "Point", "coordinates": [ -81.5, 43.25 ] } },
{ "type": "Feature", "properties": { "humidity@500m": 13.126315958861184, "lapserate": 0.0049000937, "timestamp": "20240716T12" }, "geometry": { "type": "Point", "coordinates": [ -81.5, 43.5 ] } },
{ "type": "Feature", "properties": { "humidity@500m": 12.428068346377346, "lapserate": 0.0049264748, "timestamp": "20240716T12" }, "geometry": { "type": "Point", "coordinates": [ -81.5, 43.75 ] } },
{ "type": "Feature", "properties": { "humidity@500m": 12.239362203055496, "lapserate": 0.0050798957, "timestamp": "20240716T12" }, "geometry": { "type": "Point", "coordinates": [ -81.5, 44.0 ] } },
{ "type": "Feature", "properties": { "humidity@500m": 13.343419487071849, "lapserate": 0.0052135312, "timestamp": "20240716T12" }, "geometry": { "type": "Point", "coordinates": [ -81.5, 44.25 ] } },
{ "type": "Feature", "properties": { "humidity@500m": 13.823785568213014, "lapserate": 0.0054466119, "timestamp": "20240716T12" }, "geometry": { "type": "Point", "coordinates": [ -81.5, 44.5 ] } },
{ "type": "Feature", "properties": { "humidity@500m": 13.609737152139727, "lapserate": 0.0057990877, "timestamp": "20240716T12" }, "geometry": { "type": "Point", "coordinates": [ -81.5, 44.75 ] } },
{ "type": "Feature", "properties": { "humidity@500m": 13.547022442127563, "lapserate": 0.0060580075, "timestamp": "20240716T12" }, "geometry": { "type": "Point", "coordinates": [ -81.5, 45.0 ] } },
{ "type": "Feature", "properties": { "humidity@500m": 13.601238215820127, "lapserate": 0.0061389827, "timestamp": "20240716T12" }, "geometry": { "type": "Point", "coordinates": [ -81.5, 45.25 ] } },
{ "type": "Feature", "properties": { "humidity@500m": 13.697538034347652, "lapserate": 0.0060640546, "timestamp": "20240716T12" }, "geometry": { "type": "Point", "coordinates": [ -81.5, 45.5 ] } },
{ "type": "Feature", "properties": { "humidity@500m": 13.667379091003879, "lapserate": 0.0058938703, "timestamp": "20240716T12" }, "geometry": { "type": "Point", "coordinates": [ -81.5, 45.75 ] } },
{ "type": "Feature", "properties": { "humidity@500m": 13.216545794814261, "lapserate": 0.0057094581, "timestamp": "20240716T12" }, "geometry": { "type": "Point", "coordinates": [ -81.5, 46.0 ] } },
{ "type": "Feature", "properties": { "humidity@500m": 12.942812438853222, "lapserate": 0.00540525, "timestamp": "20240716T12" }, "geometry": { "type": "Point", "coordinates": [ -81.25, 41.0 ] } },
{ "type": "Feature", "properties": { "humidity@500m": 13.065796399139968, "lapserate": 0.0051884735, "timestamp": "20240716T12" }, "geometry": { "type": "Point", "coordinates": [ -81.25, 41.25 ] } },
{ "type": "Feature", "properties": { "humidity@500m": 13.132170467709523, "lapserate": 0.0050089248, "timestamp": "20240716T12" }, "geometry": { "type": "Point", "coordinates": [ -81.25, 41.5 ] } },
{ "type": "Feature", "properties": { "humidity@500m": 13.075055160055472, "lapserate": 0.0048330086, "timestamp": "20240716T12" }, "geometry": { "type": "Point", "coordinates": [ -81.25, 41.75 ] } },
{ "type": "Feature", "properties": { "humidity@500m": 13.386024933903323, "lapserate": 0.0047384957, "timestamp": "20240716T12" }, "geometry": { "type": "Point", "coordinates": [ -81.25, 42.0 ] } },
{ "type": "Feature", "properties": { "humidity@500m": 13.449108834320739, "lapserate": 0.0048216018, "timestamp": "20240716T12" }, "geometry": { "type": "Point", "coordinates": [ -81.25, 42.25 ] } },
{ "type": "Feature", "properties": { "humidity@500m": 13.210693027138765, "lapserate": 0.005035121, "timestamp": "20240716T12" }, "geometry": { "type": "Point", "coordinates": [ -81.25, 42.5 ] } },
{ "type": "Feature", "properties": { "humidity@500m": 13.625255255536421, "lapserate": 0.005280545, "timestamp": "20240716T12" }, "geometry": { "type": "Point", "coordinates": [ -81.25, 42.75 ] } },
{ "type": "Feature", "properties": { "humidity@500m": 13.955683915843032, "lapserate": 0.0054006595, "timestamp": "20240716T12" }, "geometry": { "type": "Point", "coordinates": [ -81.25, 43.0 ] } },
{ "type": "Feature", "properties": { "humidity@500m": 13.509636159289105, "lapserate": 0.0053085806, "timestamp": "20240716T12" }, "geometry": { "type": "Point", "coordinates": [ -81.25, 43.25 ] } },
{ "type": "Feature", "properties": { "humidity@500m": 12.919963095661501, "lapserate": 0.0051126741, "timestamp": "20240716T12" }, "geometry": { "type": "Point", "coordinates": [ -81.25, 43.5 ] } },
{ "type": "Feature", "properties": { "humidity@500m": 12.602622924504702, "lapserate": 0.0050664092, "timestamp": "20240716T12" }, "geometry": { "type": "Point", "coordinates": [ -81.25, 43.75 ] } },
{ "type": "Feature", "properties": { "humidity@500m": 12.414758156748206, "lapserate": 0.0051988107, "timestamp": "20240716T12" }, "geometry": { "type": "Point", "coordinates": [ -81.25, 44.0 ] } },
{ "type": "Feature", "properties": { "humidity@500m": 13.232204168665486, "lapserate": 0.0053047067, "timestamp": "20240716T12" }, "geometry": { "type": "Point", "coordinates": [ -81.25, 44.25 ] } },
{ "type": "Feature", "properties": { "humidity@500m": 13.894874383497166, "lapserate": 0.0054651997, "timestamp": "20240716T12" }, "geometry": { "type": "Point", "coordinates": [ -81.25, 44.5 ] } },
{ "type": "Feature", "properties": { "humidity@500m": 13.690793362598839, "lapserate": 0.0057765273, "timestamp": "20240716T12" }, "geometry": { "type": "Point", "coordinates": [ -81.25, 44.75 ] } },
{ "type": "Feature", "properties": { "humidity@500m": 13.43562072377407, "lapserate": 0.0060537327, "timestamp": "20240716T12" }, "geometry": { "type": "Point", "coordinates": [ -81.25, 45.0 ] } },
{ "type": "Feature", "properties": { "humidity@500m": 13.4910986985438, "lapserate": 0.0061463327, "timestamp": "20240716T12" }, "geometry": { "type": "Point", "coordinates": [ -81.25, 45.25 ] } },
{ "type": "Feature", "properties": { "humidity@500m": 13.732404143544509, "lapserate": 0.0060570487, "timestamp": "20240716T12" }, "geometry": { "type": "Point", "coordinates": [ -81.25, 45.5 ] } },
{ "type": "Feature", "properties": { "humidity@500m": 13.705226251155064, "lapserate": 0.0058749472, "timestamp": "20240716T12" }, "geometry": { "type": "Point", "coordinates": [ -81.25, 45.75 ] } },
{ "type": "Feature", "properties": { "humidity@500m": 13.264716708732388, "lapserate": 0.0056894128, "timestamp": "20240716T12" }, "geometry": { "type": "Point", "coordinates": [ -81.25, 46.0 ] } },
{ "type": "Feature", "properties": { "humidity@500m": 12.80421224138283, "lapserate": 0.0055948659, "timestamp": "20240716T12" }, "geometry": { "type": "Point", "coordinates": [ -81.0, 41.0 ] } },
{ "type": "Feature", "properties": { "humidity@500m": 12.943690177322361, "lapserate": 0.0053989491, "timestamp": "20240716T12" }, "geometry": { "type": "Point", "coordinates": [ -81.0, 41.25 ] } },
{ "type": "Feature", "properties": { "humidity@500m": 13.05508070113847, "lapserate": 0.0052316179, "timestamp": "20240716T12" }, "geometry": { "type": "Point", "coordinates": [ -81.0, 41.5 ] } },
{ "type": "Feature", "properties": { "humidity@500m": 13.012938312754526, "lapserate": 0.0050521079, "timestamp": "20240716T12" }, "geometry": { "type": "Point", "coordinates": [ -81.0, 41.75 ] } },
{ "type": "Feature", "properties": { "humidity@500m": 13.128724197109209, "lapserate": 0.0049230638, "timestamp": "20240716T12" }, "geometry": { "type": "Point", "coordinates": [ -81.0, 42.0 ] } },
{ "type": "Feature", "properties": { "humidity@500m": 13.099052211108052, "lapserate": 0.0049848179, "timestamp": "20240716T12" }, "geometry": { "type": "Point", "coordinates": [ -81.0, 42.25 ] } },
{ "type": "Feature", "properties": { "humidity@500m": 12.876899589017782, "lapserate": 0.0052362522, "timestamp": "20240716T12" }, "geometry": { "type": "Point", "coordinates": [ -81.0, 42.5 ] } },
{ "type": "Feature", "properties": { "humidity@500m": 13.472051124265978, "lapserate": 0.0055153463, "timestamp": "20240716T12" }, "geometry": { "type": "Point", "coordinates": [ -81.0, 42.75 ] } },
{ "type": "Feature", "properties": { "humidity@500m": 13.791884582819725, "lapserate": 0.0056440625, "timestamp": "20240716T12" }, "geometry": { "type": "Point", "coordinates": [ -81.0, 43.0 ] } },
{ "type": "Feature", "properties": { "humidity@500m": 13.279938568713375, "lapserate": 0.0055876216, "timestamp": "20240716T12" }, "geometry": { "type": "Point", "coordinates": [ -81.0, 43.25 ] } },
{ "type": "Feature", "properties": { "humidity@500m": 12.676435829727593, "lapserate": 0.0054492448, "timestamp": "20240716T12" }, "geometry": { "type": "Point", "coordinates": [ -81.0, 43.5 ] } },
{ "type": "Feature", "properties": { "humidity@500m": 12.595138559227701, "lapserate": 0.0053888098, "timestamp": "20240716T12" }, "geometry": { "type": "Point", "coordinates": [ -81.0, 43.75 ] } },
{ "type": "Feature", "properties": { "humidity@500m": 12.523587479392413, "lapserate": 0.0054257894, "timestamp": "20240716T12" }, "geometry": { "type": "Point", "coordinates": [ -81.0, 44.0 ] } },
{ "type": "Feature", "properties": { "humidity@500m": 13.0342440297302, "lapserate": 0.0054522827, "timestamp": "20240716T12" }, "geometry": { "type": "Point", "coordinates": [ -81.0, 44.25 ] } },
{ "type": "Feature", "properties": { "humidity@500m": 13.876579109642421, "lapserate": 0.005532667, "timestamp": "20240716T12" }, "geometry": { "type": "Point", "coordinates": [ -81.0, 44.5 ] } },
{ "type": "Feature", "properties": { "humidity@500m": 13.632683636076864, "lapserate": 0.0057662777, "timestamp": "20240716T12" }, "geometry": { "type": "Point", "coordinates": [ -81.0, 44.75 ] } },
{ "type": "Feature", "properties": { "humidity@500m": 13.344450722559284, "lapserate": 0.0060237874, "timestamp": "20240716T12" }, "geometry": { "type": "Point", "coordinates": [ -81.0, 45.0 ] } },
{ "type": "Feature", "properties": { "humidity@500m": 13.408530233895162, "lapserate": 0.0061159418, "timestamp": "20240716T12" }, "geometry": { "type": "Point", "coordinates": [ -81.0, 45.25 ] } },
{ "type": "Feature", "properties": { "humidity@500m": 13.68512863877802, "lapserate": 0.0060180156, "timestamp": "20240716T12" }, "geometry": { "type": "Point", "coordinates": [ -81.0, 45.5 ] } },
{ "type": "Feature", "properties": { "humidity@500m": 13.772771579572202, "lapserate": 0.0058432398, "timestamp": "20240716T12" }, "geometry": { "type": "Point", "coordinates": [ -81.0, 45.75 ] } },
{ "type": "Feature", "properties": { "humidity@500m": 13.343268289266339, "lapserate": 0.0056704218, "timestamp": "20240716T12" }, "geometry": { "type": "Point", "coordinates": [ -81.0, 46.0 ] } },
{ "type": "Feature", "properties": { "humidity@500m": 12.639798655630203, "lapserate": 0.0057789395, "timestamp": "20240716T12" }, "geometry": { "type": "Point", "coordinates": [ -80.75, 41.0 ] } },
{ "type": "Feature", "properties": { "humidity@500m": 12.805366328987038, "lapserate": 0.0055601127, "timestamp": "20240716T12" }, "geometry": { "type": "Point", "coordinates": [ -80.75, 41.25 ] } },
{ "type": "Feature", "properties": { "humidity@500m": 12.916453086115977, "lapserate": 0.005389668, "timestamp": "20240716T12" }, "geometry": { "type": "Point", "coordinates": [ -80.75, 41.5 ] } },
{ "type": "Feature", "properties": { "humidity@500m": 12.873946954495043, "lapserate": 0.005232078, "timestamp": "20240716T12" }, "geometry": { "type": "Point", "coordinates": [ -80.75, 41.75 ] } },
{ "type": "Feature", "properties": { "humidity@500m": 12.867952701379012, "lapserate": 0.0051053148, "timestamp": "20240716T12" }, "geometry": { "type": "Point", "coordinates": [ -80.75, 42.0 ] } },
{ "type": "Feature", "properties": { "humidity@500m": 12.698046645516694, "lapserate": 0.0051474962, "timestamp": "20240716T12" }, "geometry": { "type": "Point", "coordinates": [ -80.75, 42.25 ] } },
{ "type": "Feature", "properties": { "humidity@500m": 12.625275993702736, "lapserate": 0.0053963405, "timestamp": "20240716T12" }, "geometry": { "type": "Point", "coordinates": [ -80.75, 42.5 ] } },
{ "type": "Feature", "properties": { "humidity@500m": 13.212423621470913, "lapserate": 0.0056831241, "timestamp": "20240716T12" }, "geometry": { "type": "Point", "coordinates": [ -80.75, 42.75 ] } },
{ "type": "Feature", "properties": { "humidity@500m": 13.622169177934762, "lapserate": 0.0058078999, "timestamp": "20240716T12" }, "geometry": { "type": "Point", "coordinates": [ -80.75, 43.0 ] } },
{ "type": "Feature", "properties": { "humidity@500m": 13.162259323599251, "lapserate": 0.0057722996, "timestamp": "20240716T12" }, "geometry": { "type": "Point", "coordinates": [ -80.75, 43.25 ] } },
{ "type": "Feature", "properties": { "humidity@500m": 12.283221675217172, "lapserate": 0.0057287808, "timestamp": "20240716T12" }, "geometry": { "type": "Point", "coordinates": [ -80.75, 43.5 ] } },
{ "type": "Feature", "properties": { "humidity@500m": 12.166689447175719, "lapserate": 0.0057250368, "timestamp": "20240716T12" }, "geometry": { "type": "Point", "coordinates": [ -80.75, 43.75 ] } },
{ "type": "Feature", "properties": { "humidity@500m": 11.824358996010544, "lapserate": 0.0056886403, "timestamp": "20240716T12" }, "geometry": { "type": "Point", "coordinates": [ -80.75, 44.0 ] } },
{ "type": "Feature", "properties": { "humidity@500m": 12.40893650607654, "lapserate": 0.0056067314, "timestamp": "20240716T12" }, "geometry": { "type": "Point", "coordinates": [ -80.75, 44.25 ] } },
{ "type": "Feature", "properties": { "humidity@500m": 13.661862269656597, "lapserate": 0.0055882991, "timestamp": "20240716T12" }, "geometry": { "type": "Point", "coordinates": [ -80.75, 44.5 ] } },
{ "type": "Feature", "properties": { "humidity@500m": 13.71247926168566, "lapserate": 0.0057400446, "timestamp": "20240716T12" }, "geometry": { "type": "Point", "coordinates": [ -80.75, 44.75 ] } },
{ "type": "Feature", "properties": { "humidity@500m": 13.369865835151266, "lapserate": 0.0059705111, "timestamp": "20240716T12" }, "geometry": { "type": "Point", "coordinates": [ -80.75, 45.0 ] } },
{ "type": "Feature", "properties": { "humidity@500m": 13.440903024292108, "lapserate": 0.0060633817, "timestamp": "20240716T12" }, "geometry": { "type": "Point", "coordinates": [ -80.75, 45.25 ] } },
{ "type": "Feature", "properties": { "humidity@500m": 13.744042775778819, "lapserate": 0.0059730303, "timestamp": "20240716T12" }, "geometry": { "type": "Point", "coordinates": [ -80.75, 45.5 ] } },
{ "type": "Feature", "properties": { "humidity@500m": 13.854578998271041, "lapserate": 0.0058156271, "timestamp": "20240716T12" }, "geometry": { "type": "Point", "coordinates": [ -80.75, 45.75 ] } },
{ "type": "Feature", "properties": { "humidity@500m": 13.410734081654439, "lapserate": 0.0056605148, "timestamp": "20240716T12" }, "geometry": { "type": "Point", "coordinates": [ -80.75, 46.0 ] } },
{ "type": "Feature", "properties": { "humidity@500m": 12.455315715936107, "lapserate": 0.0059753451, "timestamp": "20240716T12" }, "geometry": { "type": "Point", "coordinates": [ -80.5, 41.0 ] } },
{ "type": "Feature", "properties": { "humidity@500m": 12.696916305424258, "lapserate": 0.0057255323, "timestamp": "20240716T12" }, "geometry": { "type": "Point", "coordinates": [ -80.5, 41.25 ] } },
{ "type": "Feature", "properties": { "humidity@500m": 12.819261503315474, "lapserate": 0.0055535347, "timestamp": "20240716T12" }, "geometry": { "type": "Point", "coordinates": [ -80.5, 41.5 ] } },
{ "type": "Feature", "properties": { "humidity@500m": 12.743148556168215, "lapserate": 0.0054221218, "timestamp": "20240716T12" }, "geometry": { "type": "Point", "coordinates": [ -80.5, 41.75 ] } },
{ "type": "Feature", "properties": { "humidity@500m": 12.637625894792134, "lapserate": 0.0053146202, "timestamp": "20240716T12" }, "geometry": { "type": "Point", "coordinates": [ -80.5, 42.0 ] } },
{ "type": "Feature", "properties": { "humidity@500m": 12.38718180473635, "lapserate": 0.0053523346, "timestamp": "20240716T12" }, "geometry": { "type": "Point", "coordinates": [ -80.5, 42.25 ] } },
{ "type": "Feature", "properties": { "humidity@500m": 12.448092714732187, "lapserate": 0.0055807019, "timestamp": "20240716T12" }, "geometry": { "type": "Point", "coordinates": [ -80.5, 42.5 ] } },
{ "type": "Feature", "properties": { "humidity@500m": 13.01334679814714, "lapserate": 0.005839909, "timestamp": "20240716T12" }, "geometry": { "type": "Point", "coordinates": [ -80.5, 42.75 ] } },
{ "type": "Feature", "properties": { "humidity@500m": 13.495082584544013, "lapserate": 0.0059412234, "timestamp": "20240716T12" }, "geometry": { "type": "Point", "coordinates": [ -80.5, 43.0 ] } },
{ "type": "Feature", "properties": { "humidity@500m": 12.930736195237156, "lapserate": 0.0058983732, "timestamp": "20240716T12" }, "geometry": { "type": "Point", "coordinates": [ -80.5, 43.25 ] } },
{ "type": "Feature", "properties": { "humidity@500m": 12.032688627884276, "lapserate": 0.0059039174, "timestamp": "20240716T12" }, "geometry": { "type": "Point", "coordinates": [ -80.5, 43.5 ] } },
{ "type": "Feature", "properties": { "humidity@500m": 11.976706661296099, "lapserate": 0.0059690904, "timestamp": "20240716T12" }, "geometry": { "type": "Point", "coordinates": [ -80.5, 43.75 ] } },
{ "type": "Feature", "properties": { "humidity@500m": 11.470630704017918, "lapserate": 0.0059189759, "timestamp": "20240716T12" }, "geometry": { "type": "Point", "coordinates": [ -80.5, 44.0 ] } },
{ "type": "Feature", "properties": { "humidity@500m": 12.047536105382452, "lapserate": 0.0057396255, "timestamp": "20240716T12" }, "geometry": { "type": "Point", "coordinates": [ -80.5, 44.25 ] } },
{ "type": "Feature", "properties": { "humidity@500m": 13.610916736745658, "lapserate": 0.0056113736, "timestamp": "20240716T12" }, "geometry": { "type": "Point", "coordinates": [ -80.5, 44.5 ] } },
{ "type": "Feature", "properties": { "humidity@500m": 13.722570365136994, "lapserate": 0.0056963791, "timestamp": "20240716T12" }, "geometry": { "type": "Point", "coordinates": [ -80.5, 44.75 ] } },
{ "type": "Feature", "properties": { "humidity@500m": 13.45721322370353, "lapserate": 0.0059101572, "timestamp": "20240716T12" }, "geometry": { "type": "Point", "coordinates": [ -80.5, 45.0 ] } },
{ "type": "Feature", "properties": { "humidity@500m": 13.525851602869221, "lapserate": 0.0060152165, "timestamp": "20240716T12" }, "geometry": { "type": "Point", "coordinates": [ -80.5, 45.25 ] } },
{ "type": "Feature", "properties": { "humidity@500m": 13.753383383996621, "lapserate": 0.0059440359, "timestamp": "20240716T12" }, "geometry": { "type": "Point", "coordinates": [ -80.5, 45.5 ] } },
{ "type": "Feature", "properties": { "humidity@500m": 13.870723973266282, "lapserate": 0.0057950541, "timestamp": "20240716T12" }, "geometry": { "type": "Point", "coordinates": [ -80.5, 45.75 ] } },
{ "type": "Feature", "properties": { "humidity@500m": 13.573813369155868, "lapserate": 0.0056488686, "timestamp": "20240716T12" }, "geometry": { "type": "Point", "coordinates": [ -80.5, 46.0 ] } },
{ "type": "Feature", "properties": { "humidity@500m": 12.322271005063003, "lapserate": 0.0062052067, "timestamp": "20240716T12" }, "geometry": { "type": "Point", "coordinates": [ -80.25, 41.0 ] } },
{ "type": "Feature", "properties": { "humidity@500m": 12.639119001332933, "lapserate": 0.0059593488, "timestamp": "20240716T12" }, "geometry": { "type": "Point", "coordinates": [ -80.25, 41.25 ] } },
{ "type": "Feature", "properties": { "humidity@500m": 12.739632632877667, "lapserate": 0.0057875551, "timestamp": "20240716T12" }, "geometry": { "type": "Point", "coordinates": [ -80.25, 41.5 ] } },
{ "type": "Feature", "properties": { "humidity@500m": 12.662598594023486, "lapserate": 0.0056620715, "timestamp": "20240716T12" }, "geometry": { "type": "Point", "coordinates": [ -80.25, 41.75 ] } },
{ "type": "Feature", "properties": { "humidity@500m": 12.483165660514748, "lapserate": 0.0055621094, "timestamp": "20240716T12" }, "geometry": { "type": "Point", "coordinates": [ -80.25, 42.0 ] } },
{ "type": "Feature", "properties": { "humidity@500m": 12.163291378544928, "lapserate": 0.0055959616, "timestamp": "20240716T12" }, "geometry": { "type": "Point", "coordinates": [ -80.25, 42.25 ] } },
{ "type": "Feature", "properties": { "humidity@500m": 12.214999915228379, "lapserate": 0.0057985713, "timestamp": "20240716T12" }, "geometry": { "type": "Point", "coordinates": [ -80.25, 42.5 ] } },
{ "type": "Feature", "properties": { "humidity@500m": 12.920314569775744, "lapserate": 0.006011188, "timestamp": "20240716T12" }, "geometry": { "type": "Point", "coordinates": [ -80.25, 42.75 ] } },
{ "type": "Feature", "properties": { "humidity@500m": 13.427828207240784, "lapserate": 0.006078382, "timestamp": "20240716T12" }, "geometry": { "type": "Point", "coordinates": [ -80.25, 43.0 ] } },
{ "type": "Feature", "properties": { "humidity@500m": 12.922890803804474, "lapserate": 0.0060223439, "timestamp": "20240716T12" }, "geometry": { "type": "Point", "coordinates": [ -80.25, 43.25 ] } },
{ "type": "Feature", "properties": { "humidity@500m": 11.837317480311981, "lapserate": 0.0060248571, "timestamp": "20240716T12" }, "geometry": { "type": "Point", "coordinates": [ -80.25, 43.5 ] } },
{ "type": "Feature", "properties": { "humidity@500m": 11.772857123616102, "lapserate": 0.0061087459, "timestamp": "20240716T12" }, "geometry": { "type": "Point", "coordinates": [ -80.25, 43.75 ] } },
{ "type": "Feature", "properties": { "humidity@500m": 11.728006859710442, "lapserate": 0.0060611661, "timestamp": "20240716T12" }, "geometry": { "type": "Point", "coordinates": [ -80.25, 44.0 ] } },
{ "type": "Feature", "properties": { "humidity@500m": 12.005316928613217, "lapserate": 0.0058167744, "timestamp": "20240716T12" }, "geometry": { "type": "Point", "coordinates": [ -80.25, 44.25 ] } },
{ "type": "Feature", "properties": { "humidity@500m": 13.633443677061615, "lapserate": 0.0056058127, "timestamp": "20240716T12" }, "geometry": { "type": "Point", "coordinates": [ -80.25, 44.5 ] } },
{ "type": "Feature", "properties": { "humidity@500m": 13.973467717162897, "lapserate": 0.0056451708, "timestamp": "20240716T12" }, "geometry": { "type": "Point", "coordinates": [ -80.25, 44.75 ] } },
{ "type": "Feature", "properties": { "humidity@500m": 13.69042799492397, "lapserate": 0.005841834, "timestamp": "20240716T12" }, "geometry": { "type": "Point", "coordinates": [ -80.25, 45.0 ] } },
{ "type": "Feature", "properties": { "humidity@500m": 13.675989838809089, "lapserate": 0.0059688906, "timestamp": "20240716T12" }, "geometry": { "type": "Point", "coordinates": [ -80.25, 45.25 ] } },
{ "type": "Feature", "properties": { "humidity@500m": 13.8756420971925, "lapserate": 0.0059316843, "timestamp": "20240716T12" }, "geometry": { "type": "Point", "coordinates": [ -80.25, 45.5 ] } },
{ "type": "Feature", "properties": { "humidity@500m": 13.826271220553044, "lapserate": 0.0057920981, "timestamp": "20240716T12" }, "geometry": { "type": "Point", "coordinates": [ -80.25, 45.75 ] } },
{ "type": "Feature", "properties": { "humidity@500m": 13.568890710653463, "lapserate": 0.0056482023, "timestamp": "20240716T12" }, "geometry": { "type": "Point", "coordinates": [ -80.25, 46.0 ] } },
{ "type": "Feature", "properties": { "humidity@500m": 12.289898465981004, "lapserate": 0.0064416984, "timestamp": "20240716T12" }, "geometry": { "type": "Point", "coordinates": [ -80.0, 41.0 ] } },
{ "type": "Feature", "properties": { "humidity@500m": 12.666083220178312, "lapserate": 0.0062400983, "timestamp": "20240716T12" }, "geometry": { "type": "Point", "coordinates": [ -80.0, 41.25 ] } },
{ "type": "Feature", "properties": { "humidity@500m": 12.734288040410403, "lapserate": 0.0060722809, "timestamp": "20240716T12" }, "geometry": { "type": "Point", "coordinates": [ -80.0, 41.5 ] } },
{ "type": "Feature", "properties": { "humidity@500m": 12.626513819413363, "lapserate": 0.0059502353, "timestamp": "20240716T12" }, "geometry": { "type": "Point", "coordinates": [ -80.0, 41.75 ] } },
{ "type": "Feature", "properties": { "humidity@500m": 12.460929362223359, "lapserate": 0.005859253, "timestamp": "20240716T12" }, "geometry": { "type": "Point", "coordinates": [ -80.0, 42.0 ] } },
{ "type": "Feature", "properties": { "humidity@500m": 11.978751968991606, "lapserate": 0.0058757202, "timestamp": "20240716T12" }, "geometry": { "type": "Point", "coordinates": [ -80.0, 42.25 ] } },
{ "type": "Feature", "properties": { "humidity@500m": 12.196071986374031, "lapserate": 0.0060296939, "timestamp": "20240716T12" }, "geometry": { "type": "Point", "coordinates": [ -80.0, 42.5 ] } },
{ "type": "Feature", "properties": { "humidity@500m": 12.926809685776647, "lapserate": 0.0061735264, "timestamp": "20240716T12" }, "geometry": { "type": "Point", "coordinates": [ -80.0, 42.75 ] } },
{ "type": "Feature", "properties": { "humidity@500m": 13.50813460784553, "lapserate": 0.0061887121, "timestamp": "20240716T12" }, "geometry": { "type": "Point", "coordinates": [ -80.0, 43.0 ] } },
{ "type": "Feature", "properties": { "humidity@500m": 13.0451862242729, "lapserate": 0.006109681, "timestamp": "20240716T12" }, "geometry": { "type": "Point", "coordinates": [ -80.0, 43.25 ] } },
{ "type": "Feature", "properties": { "humidity@500m": 11.775611992379048, "lapserate": 0.0060832589, "timestamp": "20240716T12" }, "geometry": { "type": "Point", "coordinates": [ -80.0, 43.5 ] } },
{ "type": "Feature", "properties": { "humidity@500m": 11.521411013219959, "lapserate": 0.006147943, "timestamp": "20240716T12" }, "geometry": { "type": "Point", "coordinates": [ -80.0, 43.75 ] } },
{ "type": "Feature", "properties": { "humidity@500m": 11.969996294891835, "lapserate": 0.0061020972, "timestamp": "20240716T12" }, "geometry": { "type": "Point", "coordinates": [ -80.0, 44.0 ] } },
{ "type": "Feature", "properties": { "humidity@500m": 12.275943562153889, "lapserate": 0.0058428501, "timestamp": "20240716T12" }, "geometry": { "type": "Point", "coordinates": [ -80.0, 44.25 ] } },
{ "type": "Feature", "properties": { "humidity@500m": 13.65706613483928, "lapserate": 0.0056055752, "timestamp": "20240716T12" }, "geometry": { "type": "Point", "coordinates": [ -80.0, 44.5 ] } },
{ "type": "Feature", "properties": { "humidity@500m": 14.063528404681863, "lapserate": 0.0056096134, "timestamp": "20240716T12" }, "geometry": { "type": "Point", "coordinates": [ -80.0, 44.75 ] } },
{ "type": "Feature", "properties": { "humidity@500m": 13.848166947320902, "lapserate": 0.0057744905, "timestamp": "20240716T12" }, "geometry": { "type": "Point", "coordinates": [ -80.0, 45.0 ] } },
{ "type": "Feature", "properties": { "humidity@500m": 13.740001573163022, "lapserate": 0.0059269438, "timestamp": "20240716T12" }, "geometry": { "type": "Point", "coordinates": [ -80.0, 45.25 ] } },
{ "type": "Feature", "properties": { "humidity@500m": 13.851325494469716, "lapserate": 0.0059414739, "timestamp": "20240716T12" }, "geometry": { "type": "Point", "coordinates": [ -80.0, 45.5 ] } },
{ "type": "Feature", "properties": { "humidity@500m": 13.711807865494068, "lapserate": 0.0058319573, "timestamp": "20240716T12" }, "geometry": { "type": "Point", "coordinates": [ -80.0, 45.75 ] } },
{ "type": "Feature", "properties": { "humidity@500m": 13.502112373445597, "lapserate": 0.005694041, "timestamp": "20240716T12" }, "geometry": { "type": "Point", "coordinates": [ -80.0, 46.0 ] } },
{ "type": "Feature", "properties": { "humidity@500m": 12.388932797240072, "lapserate": 0.0066248514, "timestamp": "20240716T12" }, "geometry": { "type": "Point", "coordinates": [ -79.75, 41.0 ] } },
{ "type": "Feature", "properties": { "humidity@500m": 12.64559471472049, "lapserate": 0.0064909859, "timestamp": "20240716T12" }, "geometry": { "type": "Point", "coordinates": [ -79.75, 41.25 ] } },
{ "type": "Feature", "properties": { "humidity@500m": 12.711389891547554, "lapserate": 0.0063418341, "timestamp": "20240716T12" }, "geometry": { "type": "Point", "coordinates": [ -79.75, 41.5 ] } },
{ "type": "Feature", "properties": { "humidity@500m": 12.541230478014972, "lapserate": 0.0062354575, "timestamp": "20240716T12" }, "geometry": { "type": "Point", "coordinates": [ -79.75, 41.75 ] } },
{ "type": "Feature", "properties": { "humidity@500m": 12.431359294452857, "lapserate": 0.0061653643, "timestamp": "20240716T12" }, "geometry": { "type": "Point", "coordinates": [ -79.75, 42.0 ] } },
{ "type": "Feature", "properties": { "humidity@500m": 12.131941042008664, "lapserate": 0.0061657662, "timestamp": "20240716T12" }, "geometry": { "type": "Point", "coordinates": [ -79.75, 42.25 ] } },
{ "type": "Feature", "properties": { "humidity@500m": 12.177073880466946, "lapserate": 0.0062485174, "timestamp": "20240716T12" }, "geometry": { "type": "Point", "coordinates": [ -79.75, 42.5 ] } },
{ "type": "Feature", "properties": { "humidity@500m": 12.923027067262096, "lapserate": 0.0062977709, "timestamp": "20240716T12" }, "geometry": { "type": "Point", "coordinates": [ -79.75, 42.75 ] } },
{ "type": "Feature", "properties": { "humidity@500m": 13.520720877885751, "lapserate": 0.0062394459, "timestamp": "20240716T12" }, "geometry": { "type": "Point", "coordinates": [ -79.75, 43.0 ] } },
{ "type": "Feature", "properties": { "humidity@500m": 13.103616566409247, "lapserate": 0.0061185742, "timestamp": "20240716T12" }, "geometry": { "type": "Point", "coordinates": [ -79.75, 43.25 ] } },
{ "type": "Feature", "properties": { "humidity@500m": 11.918472969844341, "lapserate": 0.0060636336, "timestamp": "20240716T12" }, "geometry": { "type": "Point", "coordinates": [ -79.75, 43.5 ] } },
{ "type": "Feature", "properties": { "humidity@500m": 11.256765463451599, "lapserate": 0.0061198915, "timestamp": "20240716T12" }, "geometry": { "type": "Point", "coordinates": [ -79.75, 43.75 ] } },
{ "type": "Feature", "properties": { "humidity@500m": 11.822926938719801, "lapserate": 0.0061006886, "timestamp": "20240716T12" }, "geometry": { "type": "Point", "coordinates": [ -79.75, 44.0 ] } },
{ "type": "Feature", "properties": { "humidity@500m": 12.472772959115337, "lapserate": 0.0058819898, "timestamp": "20240716T12" }, "geometry": { "type": "Point", "coordinates": [ -79.75, 44.25 ] } },
{ "type": "Feature", "properties": { "humidity@500m": 13.36268468466919, "lapserate": 0.0056631579, "timestamp": "20240716T12" }, "geometry": { "type": "Point", "coordinates": [ -79.75, 44.5 ] } },
{ "type": "Feature", "properties": { "humidity@500m": 13.792640786295818, "lapserate": 0.0056298366, "timestamp": "20240716T12" }, "geometry": { "type": "Point", "coordinates": [ -79.75, 44.75 ] } },
{ "type": "Feature", "properties": { "humidity@500m": 13.982566499948627, "lapserate": 0.0057470822, "timestamp": "20240716T12" }, "geometry": { "type": "Point", "coordinates": [ -79.75, 45.0 ] } },
{ "type": "Feature", "properties": { "humidity@500m": 13.863601149681651, "lapserate": 0.00591071, "timestamp": "20240716T12" }, "geometry": { "type": "Point", "coordinates": [ -79.75, 45.25 ] } },
{ "type": "Feature", "properties": { "humidity@500m": 13.671501043080474, "lapserate": 0.0059696692, "timestamp": "20240716T12" }, "geometry": { "type": "Point", "coordinates": [ -79.75, 45.5 ] } },
{ "type": "Feature", "properties": { "humidity@500m": 13.57166590452653, "lapserate": 0.0058963471, "timestamp": "20240716T12" }, "geometry": { "type": "Point", "coordinates": [ -79.75, 45.75 ] } },
{ "type": "Feature", "properties": { "humidity@500m": 13.380356957228491, "lapserate": 0.0057690181, "timestamp": "20240716T12" }, "geometry": { "type": "Point", "coordinates": [ -79.75, 46.0 ] } },
{ "type": "Feature", "properties": { "humidity@500m": 12.440777869557001, "lapserate": 0.0066899466, "timestamp": "20240716T12" }, "geometry": { "type": "Point", "coordinates": [ -79.5, 41.0 ] } },
{ "type": "Feature", "properties": { "humidity@500m": 12.724522619699243, "lapserate": 0.0066280561, "timestamp": "20240716T12" }, "geometry": { "type": "Point", "coordinates": [ -79.5, 41.25 ] } },
{ "type": "Feature", "properties": { "humidity@500m": 12.653715255596438, "lapserate": 0.0065164883, "timestamp": "20240716T12" }, "geometry": { "type": "Point", "coordinates": [ -79.5, 41.5 ] } },
{ "type": "Feature", "properties": { "humidity@500m": 12.435211856450383, "lapserate": 0.0064214994, "timestamp": "20240716T12" }, "geometry": { "type": "Point", "coordinates": [ -79.5, 41.75 ] } },
{ "type": "Feature", "properties": { "humidity@500m": 12.381115718013945, "lapserate": 0.006361831, "timestamp": "20240716T12" }, "geometry": { "type": "Point", "coordinates": [ -79.5, 42.0 ] } },
{ "type": "Feature", "properties": { "humidity@500m": 12.263980564062692, "lapserate": 0.006355023, "timestamp": "20240716T12" }, "geometry": { "type": "Point", "coordinates": [ -79.5, 42.25 ] } },
{ "type": "Feature", "properties": { "humidity@500m": 12.32074929002094, "lapserate": 0.006365506, "timestamp": "20240716T12" }, "geometry": { "type": "Point", "coordinates": [ -79.5, 42.5 ] } },
{ "type": "Feature", "properties": { "humidity@500m": 12.972397944595865, "lapserate": 0.00631731, "timestamp": "20240716T12" }, "geometry": { "type": "Point", "coordinates": [ -79.5, 42.75 ] } },
{ "type": "Feature", "properties": { "humidity@500m": 13.523089495009277, "lapserate": 0.0061990661, "timestamp": "20240716T12" }, "geometry": { "type": "Point", "coordinates": [ -79.5, 43.0 ] } },
{ "type": "Feature", "properties": { "humidity@500m": 13.145837355433612, "lapserate": 0.0060556452, "timestamp": "20240716T12" }, "geometry": { "type": "Point", "coordinates": [ -79.5, 43.25 ] } },
{ "type": "Feature", "properties": { "humidity@500m": 12.197187351978741, "lapserate": 0.0060010594, "timestamp": "20240716T12" }, "geometry": { "type": "Point", "coordinates": [ -79.5, 43.5 ] } },
{ "type": "Feature", "properties": { "humidity@500m": 11.355446431531981, "lapserate": 0.0060727671, "timestamp": "20240716T12" }, "geometry": { "type": "Point", "coordinates": [ -79.5, 43.75 ] } },
{ "type": "Feature", "properties": { "humidity@500m": 11.585778494568924, "lapserate": 0.0060934452, "timestamp": "20240716T12" }, "geometry": { "type": "Point", "coordinates": [ -79.5, 44.0 ] } },
{ "type": "Feature", "properties": { "humidity@500m": 12.404926960192574, "lapserate": 0.0059382548, "timestamp": "20240716T12" }, "geometry": { "type": "Point", "coordinates": [ -79.5, 44.25 ] } },
{ "type": "Feature", "properties": { "humidity@500m": 12.99718914057768, "lapserate": 0.0057548122, "timestamp": "20240716T12" }, "geometry": { "type": "Point", "coordinates": [ -79.5, 44.5 ] } },
{ "type": "Feature", "properties": { "humidity@500m": 13.551772876428366, "lapserate": 0.0056904163, "timestamp": "20240716T12" }, "geometry": { "type": "Point", "coordinates": [ -79.5, 44.75 ] } },
{ "type": "Feature", "properties": { "humidity@500m": 13.822328292880341, "lapserate": 0.0057638991, "timestamp": "20240716T12" }, "geometry": { "type": "Point", "coordinates": [ -79.5, 45.0 ] } },
{ "type": "Feature", "properties": { "humidity@500m": 13.786341376503318, "lapserate": 0.0059201806, "timestamp": "20240716T12" }, "geometry": { "type": "Point", "coordinates": [ -79.5, 45.25 ] } },
{ "type": "Feature", "properties": { "humidity@500m": 13.608536176610952, "lapserate": 0.0059937565, "timestamp": "20240716T12" }, "geometry": { "type": "Point", "coordinates": [ -79.5, 45.5 ] } },
{ "type": "Feature", "properties": { "humidity@500m": 13.412131667402386, "lapserate": 0.0059400764, "timestamp": "20240716T12" }, "geometry": { "type": "Point", "coordinates": [ -79.5, 45.75 ] } },
{ "type": "Feature", "properties": { "humidity@500m": 13.212857665983178, "lapserate": 0.0058231205, "timestamp": "20240716T12" }, "geometry": { "type": "Point", "coordinates": [ -79.5, 46.0 ] } },
{ "type": "Feature", "properties": { "humidity@500m": 12.603624627805592, "lapserate": 0.0066292943, "timestamp": "20240716T12" }, "geometry": { "type": "Point", "coordinates": [ -79.25, 41.0 ] } },
{ "type": "Feature", "properties": { "humidity@500m": 12.747578017066649, "lapserate": 0.0066167903, "timestamp": "20240716T12" }, "geometry": { "type": "Point", "coordinates": [ -79.25, 41.25 ] } },
{ "type": "Feature", "properties": { "humidity@500m": 12.556684346240543, "lapserate": 0.0065409918, "timestamp": "20240716T12" }, "geometry": { "type": "Point", "coordinates": [ -79.25, 41.5 ] } },
{ "type": "Feature", "properties": { "humidity@500m": 12.396096280545576, "lapserate": 0.0064510154, "timestamp": "20240716T12" }, "geometry": { "type": "Point", "coordinates": [ -79.25, 41.75 ] } },
{ "type": "Feature", "properties": { "humidity@500m": 12.461875599305253, "lapserate": 0.0063875364, "timestamp": "20240716T12" }, "geometry": { "type": "Point", "coordinates": [ -79.25, 42.0 ] } },
{ "type": "Feature", "properties": { "humidity@500m": 12.301967507093043, "lapserate": 0.0063689598, "timestamp": "20240716T12" }, "geometry": { "type": "Point", "coordinates": [ -79.25, 42.25 ] } },
{ "type": "Feature", "properties": { "humidity@500m": 12.609927189278686, "lapserate": 0.0063169426, "timestamp": "20240716T12" }, "geometry": { "type": "Point", "coordinates": [ -79.25, 42.5 ] } },
{ "type": "Feature", "properties": { "humidity@500m": 13.071801388597024, "lapserate": 0.0061998591, "timestamp": "20240716T12" }, "geometry": { "type": "Point", "coordinates": [ -79.25, 42.75 ] } },
{ "type": "Feature", "properties": { "humidity@500m": 13.523208752289046, "lapserate": 0.0060624979, "timestamp": "20240716T12" }, "geometry": { "type": "Point", "coordinates": [ -79.25, 43.0 ] } },
{ "type": "Feature", "properties": { "humidity@500m": 13.138024022145554, "lapserate": 0.005940035, "timestamp": "20240716T12" }, "geometry": { "type": "Point", "coordinates": [ -79.25, 43.25 ] } },
{ "type": "Feature", "properties": { "humidity@500m": 12.344912849699186, "lapserate": 0.0059174839, "timestamp": "20240716T12" }, "geometry": { "type": "Point", "coordinates": [ -79.25, 43.5 ] } },
{ "type": "Feature", "properties": { "humidity@500m": 11.585761302477307, "lapserate": 0.0060068448, "timestamp": "20240716T12" }, "geometry": { "type": "Point", "coordinates": [ -79.25, 43.75 ] } },
{ "type": "Feature", "properties": { "humidity@500m": 11.459498243616615, "lapserate": 0.0060500321, "timestamp": "20240716T12" }, "geometry": { "type": "Point", "coordinates": [ -79.25, 44.0 ] } },
{ "type": "Feature", "properties": { "humidity@500m": 12.121376943197891, "lapserate": 0.0059476276, "timestamp": "20240716T12" }, "geometry": { "type": "Point", "coordinates": [ -79.25, 44.25 ] } },
{ "type": "Feature", "properties": { "humidity@500m": 12.752441605376566, "lapserate": 0.0058043324, "timestamp": "20240716T12" }, "geometry": { "type": "Point", "coordinates": [ -79.25, 44.5 ] } },
{ "type": "Feature", "properties": { "humidity@500m": 13.322777743970224, "lapserate": 0.0057385927, "timestamp": "20240716T12" }, "geometry": { "type": "Point", "coordinates": [ -79.25, 44.75 ] } },
{ "type": "Feature", "properties": { "humidity@500m": 13.584929527131601, "lapserate": 0.0057995287, "timestamp": "20240716T12" }, "geometry": { "type": "Point", "coordinates": [ -79.25, 45.0 ] } },
{ "type": "Feature", "properties": { "humidity@500m": 13.51175348553746, "lapserate": 0.0059437435, "timestamp": "20240716T12" }, "geometry": { "type": "Point", "coordinates": [ -79.25, 45.25 ] } },
{ "type": "Feature", "properties": { "humidity@500m": 13.354064721739533, "lapserate": 0.006016179, "timestamp": "20240716T12" }, "geometry": { "type": "Point", "coordinates": [ -79.25, 45.5 ] } },
{ "type": "Feature", "properties": { "humidity@500m": 13.24236033767346, "lapserate": 0.0059674378, "timestamp": "20240716T12" }, "geometry": { "type": "Point", "coordinates": [ -79.25, 45.75 ] } },
{ "type": "Feature", "properties": { "humidity@500m": 13.013066068987332, "lapserate": 0.0058612959, "timestamp": "20240716T12" }, "geometry": { "type": "Point", "coordinates": [ -79.25, 46.0 ] } },
{ "type": "Feature", "properties": { "humidity@500m": 12.727142217256121, "lapserate": 0.0065144459, "timestamp": "20240716T12" }, "geometry": { "type": "Point", "coordinates": [ -79.0, 41.0 ] } },
{ "type": "Feature", "properties": { "humidity@500m": 12.672818910558961, "lapserate": 0.0065167975, "timestamp": "20240716T12" }, "geometry": { "type": "Point", "coordinates": [ -79.0, 41.25 ] } },
{ "type": "Feature", "properties": { "humidity@500m": 12.53316728087206, "lapserate": 0.0064597661, "timestamp": "20240716T12" }, "geometry": { "type": "Point", "coordinates": [ -79.0, 41.5 ] } },
{ "type": "Feature", "properties": { "humidity@500m": 12.494523868151562, "lapserate": 0.0063829403, "timestamp": "20240716T12" }, "geometry": { "type": "Point", "coordinates": [ -79.0, 41.75 ] } },
{ "type": "Feature", "properties": { "humidity@500m": 12.62828099740713, "lapserate": 0.0063206796, "timestamp": "20240716T12" }, "geometry": { "type": "Point", "coordinates": [ -79.0, 42.0 ] } },
{ "type": "Feature", "properties": { "humidity@500m": 12.631995255158698, "lapserate": 0.0062775817, "timestamp": "20240716T12" }, "geometry": { "type": "Point", "coordinates": [ -79.0, 42.25 ] } },
{ "type": "Feature", "properties": { "humidity@500m": 12.919526942310407, "lapserate": 0.0061785164, "timestamp": "20240716T12" }, "geometry": { "type": "Point", "coordinates": [ -79.0, 42.5 ] } },
{ "type": "Feature", "properties": { "humidity@500m": 13.208574952891309, "lapserate": 0.006033591, "timestamp": "20240716T12" }, "geometry": { "type": "Point", "coordinates": [ -79.0, 42.75 ] } },
{ "type": "Feature", "properties": { "humidity@500m": 13.572976306969942, "lapserate": 0.0058997334, "timestamp": "20240716T12" }, "geometry": { "type": "Point", "coordinates": [ -79.0, 43.0 ] } },
{ "type": "Feature", "properties": { "humidity@500m": 13.180017648376294, "lapserate": 0.0058032013, "timestamp": "20240716T12" }, "geometry": { "type": "Point", "coordinates": [ -79.0, 43.25 ] } },
{ "type": "Feature", "properties": { "humidity@500m": 12.381395750207465, "lapserate": 0.0058114012, "timestamp": "20240716T12" }, "geometry": { "type": "Point", "coordinates": [ -79.0, 43.5 ] } },
{ "type": "Feature", "properties": { "humidity@500m": 11.799234647612902, "lapserate": 0.0059115933, "timestamp": "20240716T12" }, "geometry": { "type": "Point", "coordinates": [ -79.0, 43.75 ] } },
{ "type": "Feature", "properties": { "humidity@500m": 11.453318309438071, "lapserate": 0.0059680366, "timestamp": "20240716T12" }, "geometry": { "type": "Point", "coordinates": [ -79.0, 44.0 ] } },
{ "type": "Feature", "properties": { "humidity@500m": 11.978292304450214, "lapserate": 0.0059103766, "timestamp": "20240716T12" }, "geometry": { "type": "Point", "coordinates": [ -79.0, 44.25 ] } },
{ "type": "Feature", "properties": { "humidity@500m": 12.63702240146289, "lapserate": 0.005815824, "timestamp": "20240716T12" }, "geometry": { "type": "Point", "coordinates": [ -79.0, 44.5 ] } },
{ "type": "Feature", "properties": { "humidity@500m": 13.182567744081691, "lapserate": 0.0057797777, "timestamp": "20240716T12" }, "geometry": { "type": "Point", "coordinates": [ -79.0, 44.75 ] } },
{ "type": "Feature", "properties": { "humidity@500m": 13.374472601522566, "lapserate": 0.0058448343, "timestamp": "20240716T12" }, "geometry": { "type": "Point", "coordinates": [ -79.0, 45.0 ] } },
{ "type": "Feature", "properties": { "humidity@500m": 13.354097263622178, "lapserate": 0.0059710154, "timestamp": "20240716T12" }, "geometry": { "type": "Point", "coordinates": [ -79.0, 45.25 ] } },
{ "type": "Feature", "properties": { "humidity@500m": 13.206830809994232, "lapserate": 0.0060394201, "timestamp": "20240716T12" }, "geometry": { "type": "Point", "coordinates": [ -79.0, 45.5 ] } },
{ "type": "Feature", "properties": { "humidity@500m": 13.124433614299225, "lapserate": 0.0060017603, "timestamp": "20240716T12" }, "geometry": { "type": "Point", "coordinates": [ -79.0, 45.75 ] } },
{ "type": "Feature", "properties": { "humidity@500m": 12.957618319049685, "lapserate": 0.0059101069, "timestamp": "20240716T12" }, "geometry": { "type": "Point", "coordinates": [ -79.0, 46.0 ] } },
{ "type": "Feature", "properties": { "humidity@500m": 12.627565607221335, "lapserate": 0.0064018886, "timestamp": "20240716T12" }, "geometry": { "type": "Point", "coordinates": [ -78.75, 41.0 ] } },
{ "type": "Feature", "properties": { "humidity@500m": 12.579760547107808, "lapserate": 0.0064101866, "timestamp": "20240716T12" }, "geometry": { "type": "Point", "coordinates": [ -78.75, 41.25 ] } },
{ "type": "Feature", "properties": { "humidity@500m": 12.578911612617134, "lapserate": 0.0063735223, "timestamp": "20240716T12" }, "geometry": { "type": "Point", "coordinates": [ -78.75, 41.5 ] } },
{ "type": "Feature", "properties": { "humidity@500m": 12.583558302733037, "lapserate": 0.0063172025, "timestamp": "20240716T12" }, "geometry": { "type": "Point", "coordinates": [ -78.75, 41.75 ] } },
{ "type": "Feature", "properties": { "humidity@500m": 12.760114837766571, "lapserate": 0.0062568574, "timestamp": "20240716T12" }, "geometry": { "type": "Point", "coordinates": [ -78.75, 42.0 ] } },
{ "type": "Feature", "properties": { "humidity@500m": 12.873577437385485, "lapserate": 0.0061830916, "timestamp": "20240716T12" }, "geometry": { "type": "Point", "coordinates": [ -78.75, 42.25 ] } },
{ "type": "Feature", "properties": { "humidity@500m": 13.210309202397942, "lapserate": 0.0060564056, "timestamp": "20240716T12" }, "geometry": { "type": "Point", "coordinates": [ -78.75, 42.5 ] } },
{ "type": "Feature", "properties": { "humidity@500m": 13.445343501120487, "lapserate": 0.00590839, "timestamp": "20240716T12" }, "geometry": { "type": "Point", "coordinates": [ -78.75, 42.75 ] } },
{ "type": "Feature", "properties": { "humidity@500m": 13.511095871438423, "lapserate": 0.0057725869, "timestamp": "20240716T12" }, "geometry": { "type": "Point", "coordinates": [ -78.75, 43.0 ] } },
{ "type": "Feature", "properties": { "humidity@500m": 13.099890725657907, "lapserate": 0.0056828116, "timestamp": "20240716T12" }, "geometry": { "type": "Point", "coordinates": [ -78.75, 43.25 ] } },
{ "type": "Feature", "properties": { "humidity@500m": 12.45807932096786, "lapserate": 0.0057009347, "timestamp": "20240716T12" }, "geometry": { "type": "Point", "coordinates": [ -78.75, 43.5 ] } },
{ "type": "Feature", "properties": { "humidity@500m": 12.04116988744005, "lapserate": 0.0058031962, "timestamp": "20240716T12" }, "geometry": { "type": "Point", "coordinates": [ -78.75, 43.75 ] } },
{ "type": "Feature", "properties": { "humidity@500m": 11.633365011322006, "lapserate": 0.0058784904, "timestamp": "20240716T12" }, "geometry": { "type": "Point", "coordinates": [ -78.75, 44.0 ] } },
{ "type": "Feature", "properties": { "humidity@500m": 11.926301872920547, "lapserate": 0.005864826, "timestamp": "20240716T12" }, "geometry": { "type": "Point", "coordinates": [ -78.75, 44.25 ] } },
{ "type": "Feature", "properties": { "humidity@500m": 12.62635257043943, "lapserate": 0.0058232322, "timestamp": "20240716T12" }, "geometry": { "type": "Point", "coordinates": [ -78.75, 44.5 ] } },
{ "type": "Feature", "properties": { "humidity@500m": 12.998640065894154, "lapserate": 0.0058199675, "timestamp": "20240716T12" }, "geometry": { "type": "Point", "coordinates": [ -78.75, 44.75 ] } },
{ "type": "Feature", "properties": { "humidity@500m": 13.196982194080606, "lapserate": 0.0058697052, "timestamp": "20240716T12" }, "geometry": { "type": "Point", "coordinates": [ -78.75, 45.0 ] } },
{ "type": "Feature", "properties": { "humidity@500m": 13.288041283690479, "lapserate": 0.0059560966, "timestamp": "20240716T12" }, "geometry": { "type": "Point", "coordinates": [ -78.75, 45.25 ] } },
{ "type": "Feature", "properties": { "humidity@500m": 13.186179069062662, "lapserate": 0.0060228435, "timestamp": "20240716T12" }, "geometry": { "type": "Point", "coordinates": [ -78.75, 45.5 ] } },
{ "type": "Feature", "properties": { "humidity@500m": 13.030462580139201, "lapserate": 0.0060182367, "timestamp": "20240716T12" }, "geometry": { "type": "Point", "coordinates": [ -78.75, 45.75 ] } },
{ "type": "Feature", "properties": { "humidity@500m": 12.918030867525282, "lapserate": 0.0059549962, "timestamp": "20240716T12" }, "geometry": { "type": "Point", "coordinates": [ -78.75, 46.0 ] } },
{ "type": "Feature", "properties": { "humidity@500m": 12.456333761369221, "lapserate": 0.0062994119, "timestamp": "20240716T12" }, "geometry": { "type": "Point", "coordinates": [ -78.5, 41.0 ] } },
{ "type": "Feature", "properties": { "humidity@500m": 12.478143708646297, "lapserate": 0.0063276449, "timestamp": "20240716T12" }, "geometry": { "type": "Point", "coordinates": [ -78.5, 41.25 ] } },
{ "type": "Feature", "properties": { "humidity@500m": 12.542030621882514, "lapserate": 0.006326118, "timestamp": "20240716T12" }, "geometry": { "type": "Point", "coordinates": [ -78.5, 41.5 ] } },
{ "type": "Feature", "properties": { "humidity@500m": 12.628493000637611, "lapserate": 0.0062906798, "timestamp": "20240716T12" }, "geometry": { "type": "Point", "coordinates": [ -78.5, 41.75 ] } },
{ "type": "Feature", "properties": { "humidity@500m": 12.824871059543632, "lapserate": 0.0062292987, "timestamp": "20240716T12" }, "geometry": { "type": "Point", "coordinates": [ -78.5, 42.0 ] } },
{ "type": "Feature", "properties": { "humidity@500m": 13.015527762923211, "lapserate": 0.0061283163, "timestamp": "20240716T12" }, "geometry": { "type": "Point", "coordinates": [ -78.5, 42.25 ] } },
{ "type": "Feature", "properties": { "humidity@500m": 13.236548038953968, "lapserate": 0.005979897, "timestamp": "20240716T12" }, "geometry": { "type": "Point", "coordinates": [ -78.5, 42.5 ] } },
{ "type": "Feature", "properties": { "humidity@500m": 13.549262653157617, "lapserate": 0.0058208988, "timestamp": "20240716T12" }, "geometry": { "type": "Point", "coordinates": [ -78.5, 42.75 ] } },
{ "type": "Feature", "properties": { "humidity@500m": 13.45729025996331, "lapserate": 0.0056743957, "timestamp": "20240716T12" }, "geometry": { "type": "Point", "coordinates": [ -78.5, 43.0 ] } },
{ "type": "Feature", "properties": { "humidity@500m": 13.023516892694069, "lapserate": 0.0055858539, "timestamp": "20240716T12" }, "geometry": { "type": "Point", "coordinates": [ -78.5, 43.25 ] } },
{ "type": "Feature", "properties": { "humidity@500m": 12.619755216348413, "lapserate": 0.0056001376, "timestamp": "20240716T12" }, "geometry": { "type": "Point", "coordinates": [ -78.5, 43.5 ] } },
{ "type": "Feature", "properties": { "humidity@500m": 12.360220900196641, "lapserate": 0.0056950608, "timestamp": "20240716T12" }, "geometry": { "type": "Point", "coordinates": [ -78.5, 43.75 ] } },
{ "type": "Feature", "properties": { "humidity@500m": 12.170501039274841, "lapserate": 0.0057790028, "timestamp": "20240716T12" }, "geometry": { "type": "Point", "coordinates": [ -78.5, 44.0 ] } },
{ "type": "Feature", "properties": { "humidity@500m": 12.310597533257795, "lapserate": 0.0057961373, "timestamp": "20240716T12" }, "geometry": { "type": "Point", "coordinates": [ -78.5, 44.25 ] } },
{ "type": "Feature", "properties": { "humidity@500m": 12.89075294363359, "lapserate": 0.0057985224, "timestamp": "20240716T12" }, "geometry": { "type": "Point", "coordinates": [ -78.5, 44.5 ] } },
{ "type": "Feature", "properties": { "humidity@500m": 13.097978406809288, "lapserate": 0.0058132429, "timestamp": "20240716T12" }, "geometry": { "type": "Point", "coordinates": [ -78.5, 44.75 ] } },
{ "type": "Feature", "properties": { "humidity@500m": 13.278762783183595, "lapserate": 0.0058281333, "timestamp": "20240716T12" }, "geometry": { "type": "Point", "coordinates": [ -78.5, 45.0 ] } },
{ "type": "Feature", "properties": { "humidity@500m": 13.063505829135341, "lapserate": 0.0058681844, "timestamp": "20240716T12" }, "geometry": { "type": "Point", "coordinates": [ -78.5, 45.25 ] } },
{ "type": "Feature", "properties": { "humidity@500m": 12.87569774393801, "lapserate": 0.0059487992, "timestamp": "20240716T12" }, "geometry": { "type": "Point", "coordinates": [ -78.5, 45.5 ] } },
{ "type": "Feature", "properties": { "humidity@500m": 13.302520931082391, "lapserate": 0.0060021621, "timestamp": "20240716T12" }, "geometry": { "type": "Point", "coordinates": [ -78.5, 45.75 ] } },
{ "type": "Feature", "properties": { "humidity@500m": 13.20721970663331, "lapserate": 0.0059772674, "timestamp": "20240716T12" }, "geometry": { "type": "Point", "coordinates": [ -78.5, 46.0 ] } },
{ "type": "Feature", "properties": { "humidity@500m": 12.249981874989864, "lapserate": 0.0062227016, "timestamp": "20240716T12" }, "geometry": { "type": "Point", "coordinates": [ -78.25, 41.0 ] } },
{ "type": "Feature", "properties": { "humidity@500m": 12.374567868230599, "lapserate": 0.0062756953, "timestamp": "20240716T12" }, "geometry": { "type": "Point", "coordinates": [ -78.25, 41.25 ] } },
{ "type": "Feature", "properties": { "humidity@500m": 12.465655873321436, "lapserate": 0.0063046925, "timestamp": "20240716T12" }, "geometry": { "type": "Point", "coordinates": [ -78.25, 41.5 ] } },
{ "type": "Feature", "properties": { "humidity@500m": 12.456280966744059, "lapserate": 0.0062977392, "timestamp": "20240716T12" }, "geometry": { "type": "Point", "coordinates": [ -78.25, 41.75 ] } },
{ "type": "Feature", "properties": { "humidity@500m": 12.65259540709997, "lapserate": 0.0062477831, "timestamp": "20240716T12" }, "geometry": { "type": "Point", "coordinates": [ -78.25, 42.0 ] } },
{ "type": "Feature", "properties": { "humidity@500m": 13.043513008180781, "lapserate": 0.006124022, "timestamp": "20240716T12" }, "geometry": { "type": "Point", "coordinates": [ -78.25, 42.25 ] } },
{ "type": "Feature", "properties": { "humidity@500m": 13.324001223460559, "lapserate": 0.0059392275, "timestamp": "20240716T12" }, "geometry": { "type": "Point", "coordinates": [ -78.25, 42.5 ] } },
{ "type": "Feature", "properties": { "humidity@500m": 13.607598230958223, "lapserate": 0.0057521719, "timestamp": "20240716T12" }, "geometry": { "type": "Point", "coordinates": [ -78.25, 42.75 ] } },
{ "type": "Feature", "properties": { "humidity@500m": 13.509234997813452, "lapserate": 0.0055962941, "timestamp": "20240716T12" }, "geometry": { "type": "Point", "coordinates": [ -78.25, 43.0 ] } },
{ "type": "Feature", "properties": { "humidity@500m": 13.138438697531456, "lapserate": 0.0055072056, "timestamp": "20240716T12" }, "geometry": { "type": "Point", "coordinates": [ -78.25, 43.25 ] } },
{ "type": "Feature", "properties": { "humidity@500m": 12.686113836440539, "lapserate": 0.0055069462, "timestamp": "20240716T12" }, "geometry": { "type": "Point", "coordinates": [ -78.25, 43.5 ] } },
{ "type": "Feature", "properties": { "humidity@500m": 12.72283316458889, "lapserate": 0.0055852337, "timestamp": "20240716T12" }, "geometry": { "type": "Point", "coordinates": [ -78.25, 43.75 ] } },
{ "type": "Feature", "properties": { "humidity@500m": 12.708171169760819, "lapserate": 0.0056684935, "timestamp": "20240716T12" }, "geometry": { "type": "Point", "coordinates": [ -78.25, 44.0 ] } },
{ "type": "Feature", "properties": { "humidity@500m": 12.773075732839629, "lapserate": 0.0057097562, "timestamp": "20240716T12" }, "geometry": { "type": "Point", "coordinates": [ -78.25, 44.25 ] } },
{ "type": "Feature", "properties": { "humidity@500m": 13.12427581675605, "lapserate": 0.0057450361, "timestamp": "20240716T12" }, "geometry": { "type": "Point", "coordinates": [ -78.25, 44.5 ] } },
{ "type": "Feature", "properties": { "humidity@500m": 13.316697239581222, "lapserate": 0.005767683, "timestamp": "20240716T12" }, "geometry": { "type": "Point", "coordinates": [ -78.25, 44.75 ] } },
{ "type": "Feature", "properties": { "humidity@500m": 13.369239612854937, "lapserate": 0.0057634772, "timestamp": "20240716T12" }, "geometry": { "type": "Point", "coordinates": [ -78.25, 45.0 ] } },
{ "type": "Feature", "properties": { "humidity@500m": 13.134793290670506, "lapserate": 0.0057857772, "timestamp": "20240716T12" }, "geometry": { "type": "Point", "coordinates": [ -78.25, 45.25 ] } },
{ "type": "Feature", "properties": { "humidity@500m": 13.166658262901592, "lapserate": 0.0058871186, "timestamp": "20240716T12" }, "geometry": { "type": "Point", "coordinates": [ -78.25, 45.5 ] } },
{ "type": "Feature", "properties": { "humidity@500m": 13.498170437278947, "lapserate": 0.0059858877, "timestamp": "20240716T12" }, "geometry": { "type": "Point", "coordinates": [ -78.25, 45.75 ] } },
{ "type": "Feature", "properties": { "humidity@500m": 13.403959195402305, "lapserate": 0.0059844125, "timestamp": "20240716T12" }, "geometry": { "type": "Point", "coordinates": [ -78.25, 46.0 ] } },
{ "type": "Feature", "properties": { "humidity@500m": 12.111415508289088, "lapserate": 0.0061619123, "timestamp": "20240716T12" }, "geometry": { "type": "Point", "coordinates": [ -78.0, 41.0 ] } },
{ "type": "Feature", "properties": { "humidity@500m": 12.261877648179144, "lapserate": 0.0062371348, "timestamp": "20240716T12" }, "geometry": { "type": "Point", "coordinates": [ -78.0, 41.25 ] } },
{ "type": "Feature", "properties": { "humidity@500m": 12.405905440454649, "lapserate": 0.0062888414, "timestamp": "20240716T12" }, "geometry": { "type": "Point", "coordinates": [ -78.0, 41.5 ] } },
{ "type": "Feature", "properties": { "humidity@500m": 12.308261795416117, "lapserate": 0.0063244407, "timestamp": "20240716T12" }, "geometry": { "type": "Point", "coordinates": [ -78.0, 41.75 ] } },
{ "type": "Feature", "properties": { "humidity@500m": 12.502676467816647, "lapserate": 0.0062984177, "timestamp": "20240716T12" }, "geometry": { "type": "Point", "coordinates": [ -78.0, 42.0 ] } },
{ "type": "Feature", "properties": { "humidity@500m": 13.038834430631965, "lapserate": 0.0061477232, "timestamp": "20240716T12" }, "geometry": { "type": "Point", "coordinates": [ -78.0, 42.25 ] } },
{ "type": "Feature", "properties": { "humidity@500m": 13.374990036483247, "lapserate": 0.0059194723, "timestamp": "20240716T12" }, "geometry": { "type": "Point", "coordinates": [ -78.0, 42.5 ] } },
{ "type": "Feature", "properties": { "humidity@500m": 13.639083244897318, "lapserate": 0.0057122838, "timestamp": "20240716T12" }, "geometry": { "type": "Point", "coordinates": [ -78.0, 42.75 ] } },
{ "type": "Feature", "properties": { "humidity@500m": 13.486134114468504, "lapserate": 0.0055550672, "timestamp": "20240716T12" }, "geometry": { "type": "Point", "coordinates": [ -78.0, 43.0 ] } },
{ "type": "Feature", "properties": { "humidity@500m": 13.123230827870071, "lapserate": 0.0054496275, "timestamp": "20240716T12" }, "geometry": { "type": "Point", "coordinates": [ -78.0, 43.25 ] } },
{ "type": "Feature", "properties": { "humidity@500m": 12.841238209178609, "lapserate": 0.0054220282, "timestamp": "20240716T12" }, "geometry": { "type": "Point", "coordinates": [ -78.0, 43.5 ] } },
{ "type": "Feature", "properties": { "humidity@500m": 13.00080731933687, "lapserate": 0.0054836348, "timestamp": "20240716T12" }, "geometry": { "type": "Point", "coordinates": [ -78.0, 43.75 ] } },
{ "type": "Feature", "properties": { "humidity@500m": 13.213786747583928, "lapserate": 0.0055733155, "timestamp": "20240716T12" }, "geometry": { "type": "Point", "coordinates": [ -78.0, 44.0 ] } },
{ "type": "Feature", "properties": { "humidity@500m": 13.324297787081639, "lapserate": 0.0056538256, "timestamp": "20240716T12" }, "geometry": { "type": "Point", "coordinates": [ -78.0, 44.25 ] } },
{ "type": "Feature", "properties": { "humidity@500m": 13.42378007005955, "lapserate": 0.0057227751, "timestamp": "20240716T12" }, "geometry": { "type": "Point", "coordinates": [ -78.0, 44.5 ] } },
{ "type": "Feature", "properties": { "humidity@500m": 13.578192256139818, "lapserate": 0.0057554753, "timestamp": "20240716T12" }, "geometry": { "type": "Point", "coordinates": [ -78.0, 44.75 ] } },
{ "type": "Feature", "properties": { "humidity@500m": 13.631909761382559, "lapserate": 0.005765948, "timestamp": "20240716T12" }, "geometry": { "type": "Point", "coordinates": [ -78.0, 45.0 ] } },
{ "type": "Feature", "properties": { "humidity@500m": 13.463488741482287, "lapserate": 0.0058027511, "timestamp": "20240716T12" }, "geometry": { "type": "Point", "coordinates": [ -78.0, 45.25 ] } },
{ "type": "Feature", "properties": { "humidity@500m": 13.509776997507025, "lapserate": 0.0059035532, "timestamp": "20240716T12" }, "geometry": { "type": "Point", "coordinates": [ -78.0, 45.5 ] } },
{ "type": "Feature", "properties": { "humidity@500m": 13.68794160927756, "lapserate": 0.0059887664, "timestamp": "20240716T12" }, "geometry": { "type": "Point", "coordinates": [ -78.0, 45.75 ] } },
{ "type": "Feature", "properties": { "humidity@500m": 13.460374008204139, "lapserate": 0.0059750853, "timestamp": "20240716T12" }, "geometry": { "type": "Point", "coordinates": [ -78.0, 46.0 ] } },
{ "type": "Feature", "properties": { "humidity@500m": 11.925760360323411, "lapserate": 0.0060804938, "timestamp": "20240716T12" }, "geometry": { "type": "Point", "coordinates": [ -77.75, 41.0 ] } },
{ "type": "Feature", "properties": { "humidity@500m": 12.198746578887702, "lapserate": 0.0061740186, "timestamp": "20240716T12" }, "geometry": { "type": "Point", "coordinates": [ -77.75, 41.25 ] } },
{ "type": "Feature", "properties": { "humidity@500m": 12.333383372564885, "lapserate": 0.0062549957, "timestamp": "20240716T12" }, "geometry": { "type": "Point", "coordinates": [ -77.75, 41.5 ] } },
{ "type": "Feature", "properties": { "humidity@500m": 12.237447441400375, "lapserate": 0.0063275094, "timestamp": "20240716T12" }, "geometry": { "type": "Point", "coordinates": [ -77.75, 41.75 ] } },
{ "type": "Feature", "properties": { "humidity@500m": 12.487228102908322, "lapserate": 0.0063102352, "timestamp": "20240716T12" }, "geometry": { "type": "Point", "coordinates": [ -77.75, 42.0 ] } },
{ "type": "Feature", "properties": { "humidity@500m": 13.077776701197818, "lapserate": 0.0061437502, "timestamp": "20240716T12" }, "geometry": { "type": "Point", "coordinates": [ -77.75, 42.25 ] } },
{ "type": "Feature", "properties": { "humidity@500m": 13.485442199900238, "lapserate": 0.0059054745, "timestamp": "20240716T12" }, "geometry": { "type": "Point", "coordinates": [ -77.75, 42.5 ] } },
{ "type": "Feature", "properties": { "humidity@500m": 13.695775003780652, "lapserate": 0.0057035005, "timestamp": "20240716T12" }, "geometry": { "type": "Point", "coordinates": [ -77.75, 42.75 ] } },
{ "type": "Feature", "properties": { "humidity@500m": 13.408535645888625, "lapserate": 0.0055451263, "timestamp": "20240716T12" }, "geometry": { "type": "Point", "coordinates": [ -77.75, 43.0 ] } },
{ "type": "Feature", "properties": { "humidity@500m": 13.000379912971411, "lapserate": 0.0054133977, "timestamp": "20240716T12" }, "geometry": { "type": "Point", "coordinates": [ -77.75, 43.25 ] } },
{ "type": "Feature", "properties": { "humidity@500m": 12.84257578122474, "lapserate": 0.0053572753, "timestamp": "20240716T12" }, "geometry": { "type": "Point", "coordinates": [ -77.75, 43.5 ] } },
{ "type": "Feature", "properties": { "humidity@500m": 13.100572706399358, "lapserate": 0.00539613, "timestamp": "20240716T12" }, "geometry": { "type": "Point", "coordinates": [ -77.75, 43.75 ] } },
{ "type": "Feature", "properties": { "humidity@500m": 13.484460776863312, "lapserate": 0.0054933312, "timestamp": "20240716T12" }, "geometry": { "type": "Point", "coordinates": [ -77.75, 44.0 ] } },
{ "type": "Feature", "properties": { "humidity@500m": 13.699365948741438, "lapserate": 0.0056217555, "timestamp": "20240716T12" }, "geometry": { "type": "Point", "coordinates": [ -77.75, 44.25 ] } },
{ "type": "Feature", "properties": { "humidity@500m": 13.650295126270658, "lapserate": 0.0057267686, "timestamp": "20240716T12" }, "geometry": { "type": "Point", "coordinates": [ -77.75, 44.5 ] } },
{ "type": "Feature", "properties": { "humidity@500m": 13.64362020563728, "lapserate": 0.0057801306, "timestamp": "20240716T12" }, "geometry": { "type": "Point", "coordinates": [ -77.75, 44.75 ] } },
{ "type": "Feature", "properties": { "humidity@500m": 13.713591459201295, "lapserate": 0.0058262264, "timestamp": "20240716T12" }, "geometry": { "type": "Point", "coordinates": [ -77.75, 45.0 ] } },
{ "type": "Feature", "properties": { "humidity@500m": 13.809236306097867, "lapserate": 0.0058881841, "timestamp": "20240716T12" }, "geometry": { "type": "Point", "coordinates": [ -77.75, 45.25 ] } },
{ "type": "Feature", "properties": { "humidity@500m": 13.819504745207382, "lapserate": 0.005965556, "timestamp": "20240716T12" }, "geometry": { "type": "Point", "coordinates": [ -77.75, 45.5 ] } },
{ "type": "Feature", "properties": { "humidity@500m": 13.700364142239513, "lapserate": 0.005992284, "timestamp": "20240716T12" }, "geometry": { "type": "Point", "coordinates": [ -77.75, 45.75 ] } },
{ "type": "Feature", "properties": { "humidity@500m": 13.623547974929819, "lapserate": 0.0059492509, "timestamp": "20240716T12" }, "geometry": { "type": "Point", "coordinates": [ -77.75, 46.0 ] } },
{ "type": "Feature", "properties": { "humidity@500m": 12.1671176441022, "lapserate": 0.0060013202, "timestamp": "20240716T12" }, "geometry": { "type": "Point", "coordinates": [ -77.5, 41.0 ] } },
{ "type": "Feature", "properties": { "humidity@500m": 12.322896980584554, "lapserate": 0.0060840775, "timestamp": "20240716T12" }, "geometry": { "type": "Point", "coordinates": [ -77.5, 41.25 ] } },
{ "type": "Feature", "properties": { "humidity@500m": 12.419762587995889, "lapserate": 0.0061792238, "timestamp": "20240716T12" }, "geometry": { "type": "Point", "coordinates": [ -77.5, 41.5 ] } },
{ "type": "Feature", "properties": { "humidity@500m": 12.491062298085486, "lapserate": 0.0062577017, "timestamp": "20240716T12" }, "geometry": { "type": "Point", "coordinates": [ -77.5, 41.75 ] } },
{ "type": "Feature", "properties": { "humidity@500m": 12.802289137055965, "lapserate": 0.006229456, "timestamp": "20240716T12" }, "geometry": { "type": "Point", "coordinates": [ -77.5, 42.0 ] } },
{ "type": "Feature", "properties": { "humidity@500m": 13.277416933431036, "lapserate": 0.0060814777, "timestamp": "20240716T12" }, "geometry": { "type": "Point", "coordinates": [ -77.5, 42.25 ] } },
{ "type": "Feature", "properties": { "humidity@500m": 13.677846712237235, "lapserate": 0.0058882912, "timestamp": "20240716T12" }, "geometry": { "type": "Point", "coordinates": [ -77.5, 42.5 ] } },
{ "type": "Feature", "properties": { "humidity@500m": 13.776864842050438, "lapserate": 0.0057099843, "timestamp": "20240716T12" }, "geometry": { "type": "Point", "coordinates": [ -77.5, 42.75 ] } },
{ "type": "Feature", "properties": { "humidity@500m": 13.352982089219879, "lapserate": 0.0055426145, "timestamp": "20240716T12" }, "geometry": { "type": "Point", "coordinates": [ -77.5, 43.0 ] } },
{ "type": "Feature", "properties": { "humidity@500m": 12.877404121200085, "lapserate": 0.0053919237, "timestamp": "20240716T12" }, "geometry": { "type": "Point", "coordinates": [ -77.5, 43.25 ] } },
{ "type": "Feature", "properties": { "humidity@500m": 12.683810595355904, "lapserate": 0.0053138193, "timestamp": "20240716T12" }, "geometry": { "type": "Point", "coordinates": [ -77.5, 43.5 ] } },
{ "type": "Feature", "properties": { "humidity@500m": 13.15725527654129, "lapserate": 0.0053203232, "timestamp": "20240716T12" }, "geometry": { "type": "Point", "coordinates": [ -77.5, 43.75 ] } },
{ "type": "Feature", "properties": { "humidity@500m": 13.615486986523706, "lapserate": 0.0054091848, "timestamp": "20240716T12" }, "geometry": { "type": "Point", "coordinates": [ -77.5, 44.0 ] } },
{ "type": "Feature", "properties": { "humidity@500m": 13.891529619067077, "lapserate": 0.0055641886, "timestamp": "20240716T12" }, "geometry": { "type": "Point", "coordinates": [ -77.5, 44.25 ] } },
{ "type": "Feature", "properties": { "humidity@500m": 13.846388041718052, "lapserate": 0.0056978562, "timestamp": "20240716T12" }, "geometry": { "type": "Point", "coordinates": [ -77.5, 44.5 ] } },
{ "type": "Feature", "properties": { "humidity@500m": 13.804491173356228, "lapserate": 0.0057821521, "timestamp": "20240716T12" }, "geometry": { "type": "Point", "coordinates": [ -77.5, 44.75 ] } },
{ "type": "Feature", "properties": { "humidity@500m": 13.738612733400071, "lapserate": 0.0058654314, "timestamp": "20240716T12" }, "geometry": { "type": "Point", "coordinates": [ -77.5, 45.0 ] } },
{ "type": "Feature", "properties": { "humidity@500m": 13.803809314251557, "lapserate": 0.0059477747, "timestamp": "20240716T12" }, "geometry": { "type": "Point", "coordinates": [ -77.5, 45.25 ] } },
{ "type": "Feature", "properties": { "humidity@500m": 13.98224896095061, "lapserate": 0.0060022571, "timestamp": "20240716T12" }, "geometry": { "type": "Point", "coordinates": [ -77.5, 45.5 ] } },
{ "type": "Feature", "properties": { "humidity@500m": 13.933491303191689, "lapserate": 0.0059806053, "timestamp": "20240716T12" }, "geometry": { "type": "Point", "coordinates": [ -77.5, 45.75 ] } },
{ "type": "Feature", "properties": { "humidity@500m": 13.915795862913351, "lapserate": 0.0059251753, "timestamp": "20240716T12" }, "geometry": { "type": "Point", "coordinates": [ -77.5, 46.0 ] } },
{ "type": "Feature", "properties": { "humidity@500m": 12.63751646934262, "lapserate": 0.0059614484, "timestamp": "20240716T12" }, "geometry": { "type": "Point", "coordinates": [ -77.25, 41.0 ] } },
{ "type": "Feature", "properties": { "humidity@500m": 12.754840704854676, "lapserate": 0.0059871245, "timestamp": "20240716T12" }, "geometry": { "type": "Point", "coordinates": [ -77.25, 41.25 ] } },
{ "type": "Feature", "properties": { "humidity@500m": 12.609033058062147, "lapserate": 0.0060517159, "timestamp": "20240716T12" }, "geometry": { "type": "Point", "coordinates": [ -77.25, 41.5 ] } },
{ "type": "Feature", "properties": { "humidity@500m": 12.78536262008323, "lapserate": 0.0061131655, "timestamp": "20240716T12" }, "geometry": { "type": "Point", "coordinates": [ -77.25, 41.75 ] } },
{ "type": "Feature", "properties": { "humidity@500m": 13.088824433411286, "lapserate": 0.006078931, "timestamp": "20240716T12" }, "geometry": { "type": "Point", "coordinates": [ -77.25, 42.0 ] } },
{ "type": "Feature", "properties": { "humidity@500m": 13.509161141082817, "lapserate": 0.0059729172, "timestamp": "20240716T12" }, "geometry": { "type": "Point", "coordinates": [ -77.25, 42.25 ] } },
{ "type": "Feature", "properties": { "humidity@500m": 13.903879237917524, "lapserate": 0.005843034, "timestamp": "20240716T12" }, "geometry": { "type": "Point", "coordinates": [ -77.25, 42.5 ] } },
{ "type": "Feature", "properties": { "humidity@500m": 13.708875560135423, "lapserate": 0.0056966767, "timestamp": "20240716T12" }, "geometry": { "type": "Point", "coordinates": [ -77.25, 42.75 ] } },
{ "type": "Feature", "properties": { "humidity@500m": 13.017883945799559, "lapserate": 0.0055299229, "timestamp": "20240716T12" }, "geometry": { "type": "Point", "coordinates": [ -77.25, 43.0 ] } },
{ "type": "Feature", "properties": { "humidity@500m": 12.465667171636781, "lapserate": 0.0053738221, "timestamp": "20240716T12" }, "geometry": { "type": "Point", "coordinates": [ -77.25, 43.25 ] } },
{ "type": "Feature", "properties": { "humidity@500m": 12.51505378203421, "lapserate": 0.0052793012, "timestamp": "20240716T12" }, "geometry": { "type": "Point", "coordinates": [ -77.25, 43.5 ] } },
{ "type": "Feature", "properties": { "humidity@500m": 13.099951810066891, "lapserate": 0.0052574142, "timestamp": "20240716T12" }, "geometry": { "type": "Point", "coordinates": [ -77.25, 43.75 ] } },
{ "type": "Feature", "properties": { "humidity@500m": 13.638821118005445, "lapserate": 0.0053293272, "timestamp": "20240716T12" }, "geometry": { "type": "Point", "coordinates": [ -77.25, 44.0 ] } },
{ "type": "Feature", "properties": { "humidity@500m": 13.973364999632695, "lapserate": 0.005478905, "timestamp": "20240716T12" }, "geometry": { "type": "Point", "coordinates": [ -77.25, 44.25 ] } },
{ "type": "Feature", "properties": { "humidity@500m": 14.062884075832049, "lapserate": 0.0056259236, "timestamp": "20240716T12" }, "geometry": { "type": "Point", "coordinates": [ -77.25, 44.5 ] } },
{ "type": "Feature", "properties": { "humidity@500m": 13.904532482276421, "lapserate": 0.0057450337, "timestamp": "20240716T12" }, "geometry": { "type": "Point", "coordinates": [ -77.25, 44.75 ] } },
{ "type": "Feature", "properties": { "humidity@500m": 13.699529141168453, "lapserate": 0.0058557005, "timestamp": "20240716T12" }, "geometry": { "type": "Point", "coordinates": [ -77.25, 45.0 ] } },
{ "type": "Feature", "properties": { "humidity@500m": 13.711629687727386, "lapserate": 0.0059470749, "timestamp": "20240716T12" }, "geometry": { "type": "Point", "coordinates": [ -77.25, 45.25 ] } },
{ "type": "Feature", "properties": { "humidity@500m": 14.027557796132553, "lapserate": 0.0059853564, "timestamp": "20240716T12" }, "geometry": { "type": "Point", "coordinates": [ -77.25, 45.5 ] } },
{ "type": "Feature", "properties": { "humidity@500m": 14.215370433382919, "lapserate": 0.0059451666, "timestamp": "20240716T12" }, "geometry": { "type": "Point", "coordinates": [ -77.25, 45.75 ] } },
{ "type": "Feature", "properties": { "humidity@500m": 14.176453671171929, "lapserate": 0.0059043276, "timestamp": "20240716T12" }, "geometry": { "type": "Point", "coordinates": [ -77.25, 46.0 ] } }
]
}
