{
"type": "FeatureCollection",
"name": "geojson_lapse_rate_20240805T00",
"crs": { "type": "name", "properties": { "name": "urn:ogc:def:crs:OGC:1.3:CRS84" } },
"features": [
{ "type": "Feature", "properties": { "level": 7.0, "color": "red", "line_style": "solid", "line_width": 1.0 }, "geometry": { "type": "LineString", "coordinates": [ [ -117.75, 52.660974315579736 ], [ -117.5, 52.544304241541276 ], [ -117.449587696807654, 52.5 ], [ -117.291433779954389, 52.25 ], [ -117.25, 52.196686390227157 ], [ -117.0, 52.072629198309969 ], [ -116.768307319713017, 52.0 ], [ -116.75, 51.984862480838586 ], [ -116.608494771473005, 51.75 ], [ -116.586140377653066, 51.5 ], [ -116.5, 51.411168075878102 ], [ -116.308996881020093, 51.25 ], [ -116.25, 51.043269436824964 ], [ -116.235894867733265, 51.0 ], [ -116.25, 50.985751912329228 ], [ -116.5, 50.792175545932643 ], [ -116.665482331773205, 50.75 ], [ -116.75, 50.689701993346034 ], [ -117.0, 50.664418157227033 ], [ -117.138300944972869, 50.5 ], [ -117.0, 50.335244136264549 ], [ -116.824738092666593, 50.25 ], [ -116.75, 50.22616800865115 ], [ -116.5, 50.095132457346836 ], [ -116.408351265516245, 50.0 ], [ -114.25, 52.565494578170693 ], [ -114.0, 52.579024499819646 ], [ -113.874060713289936, 52.5 ], [ -113.75, 52.388681864792076 ], [ -113.552098208776286, 52.25 ], [ -113.5, 52.192168724803317 ], [ -113.25, 52.034861969741776 ], [ -113.17692004920049, 52.0 ], [ -113.18470282360957, 51.75 ], [ -113.25, 51.705955291954979 ], [ -113.5, 51.540764423775613 ], [ -113.600687810469992, 51.5 ], [ -113.75, 51.333911873051861 ], [ -113.820951317795689, 51.25 ], [ -114.0, 51.089416183164353 ], [ -114.157328988669434, 51.25 ], [ -114.25, 51.319124711794473 ], [ -114.5, 51.487602501344888 ], [ -114.75, 51.493328923443343 ], [ -115.0, 51.426990058968634 ], [ -115.25, 51.385663624607616 ], [ -115.436331000362003, 51.5 ], [ -115.274873879131334, 51.75 ], [ -115.25, 51.761183156442328 ], [ -115.021692131398012, 52.0 ], [ -115.0, 52.032574591550912 ], [ -114.787977958176086, 52.25 ], [ -114.75, 52.288477195235984 ], [ -114.5, 52.426670829188446 ], [ -114.374629089066872, 52.5 ], [ -114.25, 52.565494578170693 ] ] } },
{ "type": "Feature", "properties": { "level": 6.5, "color": "red", "line_style": "dashed", "line_width": 1.0 }, "geometry": { "type": "LineString", "coordinates": [ [ -117.75, 52.898198408843079 ], [ -117.5, 52.78581530921663 ], [ -117.444236548462129, 52.75 ], [ -117.25, 52.592871246104991 ], [ -117.159318589014987, 52.5 ], [ -117.0, 52.326387420580119 ], [ -116.855223742734935, 52.25 ], [ -116.75, 52.218338014052421 ], [ -116.5, 52.15229289383285 ], [ -116.25, 52.06743378591262 ], [ -116.078761602140645, 52.0 ], [ -116.0, 51.954690160764279 ], [ -115.75, 51.903863204170904 ], [ -115.5, 51.934332196528587 ], [ -115.388842606716253, 52.0 ], [ -115.25, 52.165212951198647 ], [ -115.194341624942382, 52.25 ], [ -115.111758621821878, 52.5 ], [ -115.095220338862674, 52.75 ], [ -115.073213110902259, 53.0 ], [ -115.0, 53.079037282047892 ], [ -114.75, 53.134264897911919 ], [ -114.5, 53.150747889888194 ], [ -114.25, 53.207282813282212 ], [ -114.0, 53.226766256145154 ], [ -113.75, 53.154583554298512 ], [ -113.516664517219297, 53.0 ], [ -113.5, 52.967131980808531 ], [ -113.25, 52.772766171389449 ], [ -113.0, 52.971369811992943 ], [ -112.75, 52.993259129908701 ], [ -112.75, 50.108538475002057 ], [ -112.9884639415463, 50.25 ], [ -113.0, 50.261781166086195 ], [ -113.25, 50.376494349996875 ], [ -113.415554995431478, 50.25 ], [ -113.5, 50.200246336510155 ], [ -113.75, 50.059733339710334 ], [ -114.0, 50.022392674582868 ], [ -114.25, 50.119040792643091 ], [ -114.391727949712717, 50.25 ], [ -114.5, 50.465764401539531 ], [ -114.516572965642496, 50.5 ], [ -114.606250763861539, 50.75 ], [ -114.75, 50.889661741927483 ], [ -115.0, 50.898715624289757 ], [ -115.25, 50.845244131412116 ], [ -115.5, 50.78946093122314 ], [ -115.6783155326751, 50.75 ], [ -115.75, 50.726824163608022 ], [ -116.0, 50.544606512051203 ], [ -116.0292720055308, 50.5 ], [ -116.0, 50.445613040567842 ], [ -115.937771461788159, 50.25 ], [ -115.90026513406977, 50.0 ] ] } },
{ "type": "Feature", "properties": { "level": 6.0, "color": "red", "line_style": "dotted", "line_width": 0.5 }, "geometry": { "type": "LineString", "coordinates": [ [ -117.75, 53.420946165283354 ], [ -117.622073529793255, 53.5 ], [ -117.5, 53.646410376074357 ], [ -117.372537947667638, 53.75 ], [ -117.25, 53.892126880168732 ], [ -117.060170534458507, 54.0 ], [ -117.25, 54.038741911949387 ], [ -117.5, 54.092242348817429 ], [ -117.642225384587675, 54.25 ], [ -117.75, 54.420997297098666 ], [ -114.626064435043929, 50.0 ], [ -114.75, 50.11804312136168 ], [ -114.952995032122146, 50.25 ], [ -115.0, 50.307562022824783 ], [ -115.25, 50.356199194712453 ], [ -115.369448821319807, 50.25 ], [ -115.492251905526018, 50.0 ], [ -115.75, 54.594557107782492 ], [ -115.828905468290898, 54.5 ], [ -115.75, 54.415458474785375 ], [ -115.5, 54.444728395875927 ], [ -115.427560624249693, 54.5 ], [ -115.5, 54.616196043996673 ], [ -115.75, 54.594557107782492 ] ] } }
]
}
