{
"type": "FeatureCollection",
"name": "geojson_q500m_points_20240805T00",
"crs": { "type": "name", "properties": { "name": "urn:ogc:def:crs:OGC:1.3:CRS84" } },
"features": [
{ "type": "Feature", "properties": { "humidity@500m": 7.8491117014738903, "lapserate": 0.0079384055, "timestamp": "20240805T00" }, "geometry": { "type": "Point", "coordinates": [ -117.75, 50.0 ] } },
{ "type": "Feature", "properties": { "humidity@500m": 8.621954225767043, "lapserate": 0.0076763411, "timestamp": "20240805T00" }, "geometry": { "type": "Point", "coordinates": [ -117.75, 50.25 ] } },
{ "type": "Feature", "properties": { "humidity@500m": 8.7165240825955159, "lapserate": 0.0074378056, "timestamp": "20240805T00" }, "geometry": { "type": "Point", "coordinates": [ -117.75, 50.5 ] } },
{ "type": "Feature", "properties": { "humidity@500m": 7.7897603121106549, "lapserate": 0.007443049, "timestamp": "20240805T00" }, "geometry": { "type": "Point", "coordinates": [ -117.75, 50.75 ] } },
{ "type": "Feature", "properties": { "humidity@500m": 6.4873596124356778, "lapserate": 0.0075405627, "timestamp": "20240805T00" }, "geometry": { "type": "Point", "coordinates": [ -117.75, 51.0 ] } },
{ "type": "Feature", "properties": { "humidity@500m": 6.7396623691078581, "lapserate": 0.0074843564, "timestamp": "20240805T00" }, "geometry": { "type": "Point", "coordinates": [ -117.75, 51.25 ] } },
{ "type": "Feature", "properties": { "humidity@500m": 6.2462641873595262, "lapserate": 0.0075190966, "timestamp": "20240805T00" }, "geometry": { "type": "Point", "coordinates": [ -117.75, 51.5 ] } },
{ "type": "Feature", "properties": { "humidity@500m": 5.6402266114664377, "lapserate": 0.0077092107, "timestamp": "20240805T00" }, "geometry": { "type": "Point", "coordinates": [ -117.75, 51.75 ] } },
{ "type": "Feature", "properties": { "humidity@500m": 5.1197610683742258, "lapserate": 0.0078691589, "timestamp": "20240805T00" }, "geometry": { "type": "Point", "coordinates": [ -117.75, 52.0 ] } },
{ "type": "Feature", "properties": { "humidity@500m": 5.1545361410003201, "lapserate": 0.0078262994, "timestamp": "20240805T00" }, "geometry": { "type": "Point", "coordinates": [ -117.75, 52.25 ] } },
{ "type": "Feature", "properties": { "humidity@500m": 6.0878919232632462, "lapserate": 0.0073969481, "timestamp": "20240805T00" }, "geometry": { "type": "Point", "coordinates": [ -117.75, 52.5 ] } },
{ "type": "Feature", "properties": { "humidity@500m": 7.7636446461895874, "lapserate": 0.0067804707, "timestamp": "20240805T00" }, "geometry": { "type": "Point", "coordinates": [ -117.75, 52.75 ] } },
{ "type": "Feature", "properties": { "humidity@500m": 8.9833936258334806, "lapserate": 0.006307337, "timestamp": "20240805T00" }, "geometry": { "type": "Point", "coordinates": [ -117.75, 53.0 ] } },
{ "type": "Feature", "properties": { "humidity@500m": 9.611338029948854, "lapserate": 0.0060813581, "timestamp": "20240805T00" }, "geometry": { "type": "Point", "coordinates": [ -117.75, 53.25 ] } },
{ "type": "Feature", "properties": { "humidity@500m": 9.1811612853570672, "lapserate": 0.005962376, "timestamp": "20240805T00" }, "geometry": { "type": "Point", "coordinates": [ -117.75, 53.5 ] } },
{ "type": "Feature", "properties": { "humidity@500m": 9.2269129756880286, "lapserate": 0.0058992379, "timestamp": "20240805T00" }, "geometry": { "type": "Point", "coordinates": [ -117.75, 53.75 ] } },
{ "type": "Feature", "properties": { "humidity@500m": 8.8039884917903386, "lapserate": 0.0059158937, "timestamp": "20240805T00" }, "geometry": { "type": "Point", "coordinates": [ -117.75, 54.0 ] } },
{ "type": "Feature", "properties": { "humidity@500m": 8.3265377486448671, "lapserate": 0.0059600594, "timestamp": "20240805T00" }, "geometry": { "type": "Point", "coordinates": [ -117.75, 54.25 ] } },
{ "type": "Feature", "properties": { "humidity@500m": 9.0155581357877015, "lapserate": 0.0060184533, "timestamp": "20240805T00" }, "geometry": { "type": "Point", "coordinates": [ -117.75, 54.5 ] } },
{ "type": "Feature", "properties": { "humidity@500m": 9.8455017846024688, "lapserate": 0.0060849055, "timestamp": "20240805T00" }, "geometry": { "type": "Point", "coordinates": [ -117.75, 54.75 ] } },
{ "type": "Feature", "properties": { "humidity@500m": 9.718129129510908, "lapserate": 0.006244089, "timestamp": "20240805T00" }, "geometry": { "type": "Point", "coordinates": [ -117.75, 55.0 ] } },
{ "type": "Feature", "properties": { "humidity@500m": 8.2929204566676571, "lapserate": 0.0076995129, "timestamp": "20240805T00" }, "geometry": { "type": "Point", "coordinates": [ -117.5, 50.0 ] } },
{ "type": "Feature", "properties": { "humidity@500m": 9.2755414113178958, "lapserate": 0.0074155633, "timestamp": "20240805T00" }, "geometry": { "type": "Point", "coordinates": [ -117.5, 50.25 ] } },
{ "type": "Feature", "properties": { "humidity@500m": 9.303575300172886, "lapserate": 0.0072645592, "timestamp": "20240805T00" }, "geometry": { "type": "Point", "coordinates": [ -117.5, 50.5 ] } },
{ "type": "Feature", "properties": { "humidity@500m": 7.9182652786146406, "lapserate": 0.0073299217, "timestamp": "20240805T00" }, "geometry": { "type": "Point", "coordinates": [ -117.5, 50.75 ] } },
{ "type": "Feature", "properties": { "humidity@500m": 6.4716372571981724, "lapserate": 0.0074029528, "timestamp": "20240805T00" }, "geometry": { "type": "Point", "coordinates": [ -117.5, 51.0 ] } },
{ "type": "Feature", "properties": { "humidity@500m": 6.7058787888881222, "lapserate": 0.0073680114, "timestamp": "20240805T00" }, "geometry": { "type": "Point", "coordinates": [ -117.5, 51.25 ] } },
{ "type": "Feature", "properties": { "humidity@500m": 6.2493292286414457, "lapserate": 0.0074228691, "timestamp": "20240805T00" }, "geometry": { "type": "Point", "coordinates": [ -117.5, 51.5 ] } },
{ "type": "Feature", "properties": { "humidity@500m": 5.8082787805542955, "lapserate": 0.0075293495, "timestamp": "20240805T00" }, "geometry": { "type": "Point", "coordinates": [ -117.5, 51.75 ] } },
{ "type": "Feature", "properties": { "humidity@500m": 5.2345135334853499, "lapserate": 0.0075084339, "timestamp": "20240805T00" }, "geometry": { "type": "Point", "coordinates": [ -117.5, 52.0 ] } },
{ "type": "Feature", "properties": { "humidity@500m": 5.4131953060170739, "lapserate": 0.0073967208, "timestamp": "20240805T00" }, "geometry": { "type": "Point", "coordinates": [ -117.5, 52.25 ] } },
{ "type": "Feature", "properties": { "humidity@500m": 6.3125114101218811, "lapserate": 0.0070945439, "timestamp": "20240805T00" }, "geometry": { "type": "Point", "coordinates": [ -117.5, 52.5 ] } },
{ "type": "Feature", "properties": { "humidity@500m": 7.930246652509588, "lapserate": 0.0065610516, "timestamp": "20240805T00" }, "geometry": { "type": "Point", "coordinates": [ -117.5, 52.75 ] } },
{ "type": "Feature", "properties": { "humidity@500m": 8.9647235358585693, "lapserate": 0.006134897, "timestamp": "20240805T00" }, "geometry": { "type": "Point", "coordinates": [ -117.5, 53.0 ] } },
{ "type": "Feature", "properties": { "humidity@500m": 9.4937489208239914, "lapserate": 0.0060450328, "timestamp": "20240805T00" }, "geometry": { "type": "Point", "coordinates": [ -117.5, 53.25 ] } },
{ "type": "Feature", "properties": { "humidity@500m": 9.529168906700777, "lapserate": 0.0060359025, "timestamp": "20240805T00" }, "geometry": { "type": "Point", "coordinates": [ -117.5, 53.5 ] } },
{ "type": "Feature", "properties": { "humidity@500m": 9.3010513751187887, "lapserate": 0.0059745978, "timestamp": "20240805T00" }, "geometry": { "type": "Point", "coordinates": [ -117.5, 53.75 ] } },
{ "type": "Feature", "properties": { "humidity@500m": 8.6810232721786242, "lapserate": 0.0059691812, "timestamp": "20240805T00" }, "geometry": { "type": "Point", "coordinates": [ -117.5, 54.0 ] } },
{ "type": "Feature", "properties": { "humidity@500m": 8.4778376847758139, "lapserate": 0.0060527083, "timestamp": "20240805T00" }, "geometry": { "type": "Point", "coordinates": [ -117.5, 54.25 ] } },
{ "type": "Feature", "properties": { "humidity@500m": 8.8662934306953574, "lapserate": 0.0061200084, "timestamp": "20240805T00" }, "geometry": { "type": "Point", "coordinates": [ -117.5, 54.5 ] } },
{ "type": "Feature", "properties": { "humidity@500m": 9.6192773822629363, "lapserate": 0.0061183581, "timestamp": "20240805T00" }, "geometry": { "type": "Point", "coordinates": [ -117.5, 54.75 ] } },
{ "type": "Feature", "properties": { "humidity@500m": 9.7506429700667834, "lapserate": 0.0062210211, "timestamp": "20240805T00" }, "geometry": { "type": "Point", "coordinates": [ -117.5, 55.0 ] } },
{ "type": "Feature", "properties": { "humidity@500m": 8.2169683396027917, "lapserate": 0.0074531762, "timestamp": "20240805T00" }, "geometry": { "type": "Point", "coordinates": [ -117.25, 50.0 ] } },
{ "type": "Feature", "properties": { "humidity@500m": 8.6556593815173901, "lapserate": 0.0071661291, "timestamp": "20240805T00" }, "geometry": { "type": "Point", "coordinates": [ -117.25, 50.25 ] } },
{ "type": "Feature", "properties": { "humidity@500m": 8.469691208807907, "lapserate": 0.0070483149, "timestamp": "20240805T00" }, "geometry": { "type": "Point", "coordinates": [ -117.25, 50.5 ] } },
{ "type": "Feature", "properties": { "humidity@500m": 7.9737058090199007, "lapserate": 0.0071328771, "timestamp": "20240805T00" }, "geometry": { "type": "Point", "coordinates": [ -117.25, 50.75 ] } },
{ "type": "Feature", "properties": { "humidity@500m": 7.2620838467279665, "lapserate": 0.0072736717, "timestamp": "20240805T00" }, "geometry": { "type": "Point", "coordinates": [ -117.25, 51.0 ] } },
{ "type": "Feature", "properties": { "humidity@500m": 6.9408457315993077, "lapserate": 0.0073947525, "timestamp": "20240805T00" }, "geometry": { "type": "Point", "coordinates": [ -117.25, 51.25 ] } },
{ "type": "Feature", "properties": { "humidity@500m": 6.5550484356718091, "lapserate": 0.0075118532, "timestamp": "20240805T00" }, "geometry": { "type": "Point", "coordinates": [ -117.25, 51.5 ] } },
{ "type": "Feature", "properties": { "humidity@500m": 5.847405082962041, "lapserate": 0.0075432858, "timestamp": "20240805T00" }, "geometry": { "type": "Point", "coordinates": [ -117.25, 51.75 ] } },
{ "type": "Feature", "properties": { "humidity@500m": 5.3059547965470619, "lapserate": 0.0072907582, "timestamp": "20240805T00" }, "geometry": { "type": "Point", "coordinates": [ -117.25, 52.0 ] } },
{ "type": "Feature", "properties": { "humidity@500m": 5.7378011747985358, "lapserate": 0.0069211875, "timestamp": "20240805T00" }, "geometry": { "type": "Point", "coordinates": [ -117.25, 52.25 ] } },
{ "type": "Feature", "properties": { "humidity@500m": 6.6453345118640552, "lapserate": 0.0066256905, "timestamp": "20240805T00" }, "geometry": { "type": "Point", "coordinates": [ -117.25, 52.5 ] } },
{ "type": "Feature", "properties": { "humidity@500m": 8.2226651267974251, "lapserate": 0.0062873443, "timestamp": "20240805T00" }, "geometry": { "type": "Point", "coordinates": [ -117.25, 52.75 ] } },
{ "type": "Feature", "properties": { "humidity@500m": 9.0218631358662638, "lapserate": 0.00604806, "timestamp": "20240805T00" }, "geometry": { "type": "Point", "coordinates": [ -117.25, 53.0 ] } },
{ "type": "Feature", "properties": { "humidity@500m": 9.4360157617348683, "lapserate": 0.0060873711, "timestamp": "20240805T00" }, "geometry": { "type": "Point", "coordinates": [ -117.25, 53.25 ] } },
{ "type": "Feature", "properties": { "humidity@500m": 9.6283353116318597, "lapserate": 0.0061230953, "timestamp": "20240805T00" }, "geometry": { "type": "Point", "coordinates": [ -117.25, 53.5 ] } },
{ "type": "Feature", "properties": { "humidity@500m": 9.3144666514729586, "lapserate": 0.0060244207, "timestamp": "20240805T00" }, "geometry": { "type": "Point", "coordinates": [ -117.25, 53.75 ] } },
{ "type": "Feature", "properties": { "humidity@500m": 8.8087320470559884, "lapserate": 0.0059814649, "timestamp": "20240805T00" }, "geometry": { "type": "Point", "coordinates": [ -117.25, 54.0 ] } },
{ "type": "Feature", "properties": { "humidity@500m": 8.1505110437095531, "lapserate": 0.0061010714, "timestamp": "20240805T00" }, "geometry": { "type": "Point", "coordinates": [ -117.25, 54.25 ] } },
{ "type": "Feature", "properties": { "humidity@500m": 8.6428248755804802, "lapserate": 0.0061933375, "timestamp": "20240805T00" }, "geometry": { "type": "Point", "coordinates": [ -117.25, 54.5 ] } },
{ "type": "Feature", "properties": { "humidity@500m": 9.3675107696973861, "lapserate": 0.0061624846, "timestamp": "20240805T00" }, "geometry": { "type": "Point", "coordinates": [ -117.25, 54.75 ] } },
{ "type": "Feature", "properties": { "humidity@500m": 9.650329832408497, "lapserate": 0.0062075974, "timestamp": "20240805T00" }, "geometry": { "type": "Point", "coordinates": [ -117.25, 55.0 ] } },
{ "type": "Feature", "properties": { "humidity@500m": 7.6326499691694183, "lapserate": 0.0072505726, "timestamp": "20240805T00" }, "geometry": { "type": "Point", "coordinates": [ -117.0, 50.0 ] } },
{ "type": "Feature", "properties": { "humidity@500m": 7.8221440000305495, "lapserate": 0.0070309513, "timestamp": "20240805T00" }, "geometry": { "type": "Point", "coordinates": [ -117.0, 50.25 ] } },
{ "type": "Feature", "properties": { "humidity@500m": 7.9315696420142068, "lapserate": 0.0069401786, "timestamp": "20240805T00" }, "geometry": { "type": "Point", "coordinates": [ -117.0, 50.5 ] } },
{ "type": "Feature", "properties": { "humidity@500m": 8.0812466661904807, "lapserate": 0.0070311381, "timestamp": "20240805T00" }, "geometry": { "type": "Point", "coordinates": [ -117.0, 50.75 ] } },
{ "type": "Feature", "properties": { "humidity@500m": 7.7671933237807114, "lapserate": 0.0072668055, "timestamp": "20240805T00" }, "geometry": { "type": "Point", "coordinates": [ -117.0, 51.0 ] } },
{ "type": "Feature", "properties": { "humidity@500m": 7.2089098614586939, "lapserate": 0.0074726986, "timestamp": "20240805T00" }, "geometry": { "type": "Point", "coordinates": [ -117.0, 51.25 ] } },
{ "type": "Feature", "properties": { "humidity@500m": 6.7155816078213633, "lapserate": 0.0075182803, "timestamp": "20240805T00" }, "geometry": { "type": "Point", "coordinates": [ -117.0, 51.5 ] } },
{ "type": "Feature", "properties": { "humidity@500m": 5.8847202485680157, "lapserate": 0.0074977968, "timestamp": "20240805T00" }, "geometry": { "type": "Point", "coordinates": [ -117.0, 51.75 ] } },
{ "type": "Feature", "properties": { "humidity@500m": 5.9829119794918704, "lapserate": 0.0071649533, "timestamp": "20240805T00" }, "geometry": { "type": "Point", "coordinates": [ -117.0, 52.0 ] } },
{ "type": "Feature", "properties": { "humidity@500m": 6.6148293458945178, "lapserate": 0.0065971608, "timestamp": "20240805T00" }, "geometry": { "type": "Point", "coordinates": [ -117.0, 52.25 ] } },
{ "type": "Feature", "properties": { "humidity@500m": 7.8441273198493411, "lapserate": 0.0062791738, "timestamp": "20240805T00" }, "geometry": { "type": "Point", "coordinates": [ -117.0, 52.5 ] } },
{ "type": "Feature", "properties": { "humidity@500m": 8.7094373670298229, "lapserate": 0.0061558727, "timestamp": "20240805T00" }, "geometry": { "type": "Point", "coordinates": [ -117.0, 52.75 ] } },
{ "type": "Feature", "properties": { "humidity@500m": 9.2315262226416781, "lapserate": 0.0061034174, "timestamp": "20240805T00" }, "geometry": { "type": "Point", "coordinates": [ -117.0, 53.0 ] } },
{ "type": "Feature", "properties": { "humidity@500m": 9.590892725117012, "lapserate": 0.0061686514, "timestamp": "20240805T00" }, "geometry": { "type": "Point", "coordinates": [ -117.0, 53.25 ] } },
{ "type": "Feature", "properties": { "humidity@500m": 9.5993224487605566, "lapserate": 0.0061774636, "timestamp": "20240805T00" }, "geometry": { "type": "Point", "coordinates": [ -117.0, 53.5 ] } },
{ "type": "Feature", "properties": { "humidity@500m": 9.1993795567939323, "lapserate": 0.0060673491, "timestamp": "20240805T00" }, "geometry": { "type": "Point", "coordinates": [ -117.0, 53.75 ] } },
{ "type": "Feature", "properties": { "humidity@500m": 8.9091701152234908, "lapserate": 0.0060058753, "timestamp": "20240805T00" }, "geometry": { "type": "Point", "coordinates": [ -117.0, 54.0 ] } },
{ "type": "Feature", "properties": { "humidity@500m": 8.2251784821580483, "lapserate": 0.0061250664, "timestamp": "20240805T00" }, "geometry": { "type": "Point", "coordinates": [ -117.0, 54.25 ] } },
{ "type": "Feature", "properties": { "humidity@500m": 8.6695707838415235, "lapserate": 0.0062271305, "timestamp": "20240805T00" }, "geometry": { "type": "Point", "coordinates": [ -117.0, 54.5 ] } },
{ "type": "Feature", "properties": { "humidity@500m": 9.1067092113502301, "lapserate": 0.006202009, "timestamp": "20240805T00" }, "geometry": { "type": "Point", "coordinates": [ -117.0, 54.75 ] } },
{ "type": "Feature", "properties": { "humidity@500m": 9.4724553433746141, "lapserate": 0.0061978712, "timestamp": "20240805T00" }, "geometry": { "type": "Point", "coordinates": [ -117.0, 55.0 ] } },
{ "type": "Feature", "properties": { "humidity@500m": 7.3907427290218548, "lapserate": 0.0071252584, "timestamp": "20240805T00" }, "geometry": { "type": "Point", "coordinates": [ -116.75, 50.0 ] } },
{ "type": "Feature", "properties": { "humidity@500m": 7.4313931537967548, "lapserate": 0.006986801, "timestamp": "20240805T00" }, "geometry": { "type": "Point", "coordinates": [ -116.75, 50.25 ] } },
{ "type": "Feature", "properties": { "humidity@500m": 7.5538175065384738, "lapserate": 0.006910929, "timestamp": "20240805T00" }, "geometry": { "type": "Point", "coordinates": [ -116.75, 50.5 ] } },
{ "type": "Feature", "properties": { "humidity@500m": 7.8811858414291507, "lapserate": 0.007028312, "timestamp": "20240805T00" }, "geometry": { "type": "Point", "coordinates": [ -116.75, 50.75 ] } },
{ "type": "Feature", "properties": { "humidity@500m": 7.7402688036531737, "lapserate": 0.0073341425, "timestamp": "20240805T00" }, "geometry": { "type": "Point", "coordinates": [ -116.75, 51.0 ] } },
{ "type": "Feature", "properties": { "humidity@500m": 7.2279880946115291, "lapserate": 0.0074437321, "timestamp": "20240805T00" }, "geometry": { "type": "Point", "coordinates": [ -116.75, 51.25 ] } },
{ "type": "Feature", "properties": { "humidity@500m": 6.7333135990568422, "lapserate": 0.0072498294, "timestamp": "20240805T00" }, "geometry": { "type": "Point", "coordinates": [ -116.75, 51.5 ] } },
{ "type": "Feature", "properties": { "humidity@500m": 6.0840114586949117, "lapserate": 0.0072022239, "timestamp": "20240805T00" }, "geometry": { "type": "Point", "coordinates": [ -116.75, 51.75 ] } },
{ "type": "Feature", "properties": { "humidity@500m": 6.3412826422291015, "lapserate": 0.0069869664, "timestamp": "20240805T00" }, "geometry": { "type": "Point", "coordinates": [ -116.75, 52.0 ] } },
{ "type": "Feature", "properties": { "humidity@500m": 7.574472489086495, "lapserate": 0.0064293831, "timestamp": "20240805T00" }, "geometry": { "type": "Point", "coordinates": [ -116.75, 52.25 ] } },
{ "type": "Feature", "properties": { "humidity@500m": 8.7425404942485159, "lapserate": 0.0061301258, "timestamp": "20240805T00" }, "geometry": { "type": "Point", "coordinates": [ -116.75, 52.5 ] } },
{ "type": "Feature", "properties": { "humidity@500m": 9.1754332201378244, "lapserate": 0.0061440589, "timestamp": "20240805T00" }, "geometry": { "type": "Point", "coordinates": [ -116.75, 52.75 ] } },
{ "type": "Feature", "properties": { "humidity@500m": 9.4329940057675987, "lapserate": 0.0061947918, "timestamp": "20240805T00" }, "geometry": { "type": "Point", "coordinates": [ -116.75, 53.0 ] } },
{ "type": "Feature", "properties": { "humidity@500m": 9.6003664203108858, "lapserate": 0.0062223906, "timestamp": "20240805T00" }, "geometry": { "type": "Point", "coordinates": [ -116.75, 53.25 ] } },
{ "type": "Feature", "properties": { "humidity@500m": 9.5359472929251279, "lapserate": 0.0061978321, "timestamp": "20240805T00" }, "geometry": { "type": "Point", "coordinates": [ -116.75, 53.5 ] } },
{ "type": "Feature", "properties": { "humidity@500m": 9.2794747063827021, "lapserate": 0.0061211819, "timestamp": "20240805T00" }, "geometry": { "type": "Point", "coordinates": [ -116.75, 53.75 ] } },
{ "type": "Feature", "properties": { "humidity@500m": 9.2021532983956487, "lapserate": 0.0060595311, "timestamp": "20240805T00" }, "geometry": { "type": "Point", "coordinates": [ -116.75, 54.0 ] } },
{ "type": "Feature", "properties": { "humidity@500m": 8.2899121935407187, "lapserate": 0.0061431937, "timestamp": "20240805T00" }, "geometry": { "type": "Point", "coordinates": [ -116.75, 54.25 ] } },
{ "type": "Feature", "properties": { "humidity@500m": 8.3383847922468757, "lapserate": 0.0062344833, "timestamp": "20240805T00" }, "geometry": { "type": "Point", "coordinates": [ -116.75, 54.5 ] } },
{ "type": "Feature", "properties": { "humidity@500m": 8.6725315309079996, "lapserate": 0.0062286207, "timestamp": "20240805T00" }, "geometry": { "type": "Point", "coordinates": [ -116.75, 54.75 ] } },
{ "type": "Feature", "properties": { "humidity@500m": 9.3371094598537407, "lapserate": 0.0061846697, "timestamp": "20240805T00" }, "geometry": { "type": "Point", "coordinates": [ -116.75, 55.0 ] } },
{ "type": "Feature", "properties": { "humidity@500m": 7.730022746294801, "lapserate": 0.0070505282, "timestamp": "20240805T00" }, "geometry": { "type": "Point", "coordinates": [ -116.5, 50.0 ] } },
{ "type": "Feature", "properties": { "humidity@500m": 8.1407108269062576, "lapserate": 0.0069177444, "timestamp": "20240805T00" }, "geometry": { "type": "Point", "coordinates": [ -116.5, 50.25 ] } },
{ "type": "Feature", "properties": { "humidity@500m": 8.3561652899589749, "lapserate": 0.0068079336, "timestamp": "20240805T00" }, "geometry": { "type": "Point", "coordinates": [ -116.5, 50.5 ] } },
{ "type": "Feature", "properties": { "humidity@500m": 8.1870766452120645, "lapserate": 0.0069445665, "timestamp": "20240805T00" }, "geometry": { "type": "Point", "coordinates": [ -116.5, 50.75 ] } },
{ "type": "Feature", "properties": { "humidity@500m": 7.9398877536504937, "lapserate": 0.0072731534, "timestamp": "20240805T00" }, "geometry": { "type": "Point", "coordinates": [ -116.5, 51.0 ] } },
{ "type": "Feature", "properties": { "humidity@500m": 7.2267117051804588, "lapserate": 0.0072382805, "timestamp": "20240805T00" }, "geometry": { "type": "Point", "coordinates": [ -116.5, 51.25 ] } },
{ "type": "Feature", "properties": { "humidity@500m": 7.037654907040614, "lapserate": 0.0068686656, "timestamp": "20240805T00" }, "geometry": { "type": "Point", "coordinates": [ -116.5, 51.5 ] } },
{ "type": "Feature", "properties": { "humidity@500m": 6.2913331589431971, "lapserate": 0.0068449513, "timestamp": "20240805T00" }, "geometry": { "type": "Point", "coordinates": [ -116.5, 51.75 ] } },
{ "type": "Feature", "properties": { "humidity@500m": 7.2320988159582749, "lapserate": 0.0067697442, "timestamp": "20240805T00" }, "geometry": { "type": "Point", "coordinates": [ -116.5, 52.0 ] } },
{ "type": "Feature", "properties": { "humidity@500m": 8.6266571458968606, "lapserate": 0.006326939, "timestamp": "20240805T00" }, "geometry": { "type": "Point", "coordinates": [ -116.5, 52.25 ] } },
{ "type": "Feature", "properties": { "humidity@500m": 9.3698417575444388, "lapserate": 0.0060782535, "timestamp": "20240805T00" }, "geometry": { "type": "Point", "coordinates": [ -116.5, 52.5 ] } },
{ "type": "Feature", "properties": { "humidity@500m": 9.5140007841721737, "lapserate": 0.0061337617, "timestamp": "20240805T00" }, "geometry": { "type": "Point", "coordinates": [ -116.5, 52.75 ] } },
{ "type": "Feature", "properties": { "humidity@500m": 9.6243037849927386, "lapserate": 0.0062350496, "timestamp": "20240805T00" }, "geometry": { "type": "Point", "coordinates": [ -116.5, 53.0 ] } },
{ "type": "Feature", "properties": { "humidity@500m": 9.652467449333594, "lapserate": 0.006254755, "timestamp": "20240805T00" }, "geometry": { "type": "Point", "coordinates": [ -116.5, 53.25 ] } },
{ "type": "Feature", "properties": { "humidity@500m": 9.4029137437851524, "lapserate": 0.0062200692, "timestamp": "20240805T00" }, "geometry": { "type": "Point", "coordinates": [ -116.5, 53.5 ] } },
{ "type": "Feature", "properties": { "humidity@500m": 9.3480510065902838, "lapserate": 0.0061642695, "timestamp": "20240805T00" }, "geometry": { "type": "Point", "coordinates": [ -116.5, 53.75 ] } },
{ "type": "Feature", "properties": { "humidity@500m": 9.3110647298985771, "lapserate": 0.0060927132, "timestamp": "20240805T00" }, "geometry": { "type": "Point", "coordinates": [ -116.5, 54.0 ] } },
{ "type": "Feature", "properties": { "humidity@500m": 8.533192743153954, "lapserate": 0.0061347629, "timestamp": "20240805T00" }, "geometry": { "type": "Point", "coordinates": [ -116.5, 54.25 ] } },
{ "type": "Feature", "properties": { "humidity@500m": 8.087255774655624, "lapserate": 0.0062081818, "timestamp": "20240805T00" }, "geometry": { "type": "Point", "coordinates": [ -116.5, 54.5 ] } },
{ "type": "Feature", "properties": { "humidity@500m": 8.7274612452355846, "lapserate": 0.0062277573, "timestamp": "20240805T00" }, "geometry": { "type": "Point", "coordinates": [ -116.5, 54.75 ] } },
{ "type": "Feature", "properties": { "humidity@500m": 9.0682333150926553, "lapserate": 0.006172081, "timestamp": "20240805T00" }, "geometry": { "type": "Point", "coordinates": [ -116.5, 55.0 ] } },
{ "type": "Feature", "properties": { "humidity@500m": 8.3168745940073094, "lapserate": 0.0069126971, "timestamp": "20240805T00" }, "geometry": { "type": "Point", "coordinates": [ -116.25, 50.0 ] } },
{ "type": "Feature", "properties": { "humidity@500m": 8.6994491454668275, "lapserate": 0.0067704916, "timestamp": "20240805T00" }, "geometry": { "type": "Point", "coordinates": [ -116.25, 50.25 ] } },
{ "type": "Feature", "properties": { "humidity@500m": 9.3578888165968159, "lapserate": 0.0066297087, "timestamp": "20240805T00" }, "geometry": { "type": "Point", "coordinates": [ -116.25, 50.5 ] } },
{ "type": "Feature", "properties": { "humidity@500m": 9.5890216203875145, "lapserate": 0.0067451107, "timestamp": "20240805T00" }, "geometry": { "type": "Point", "coordinates": [ -116.25, 50.75 ] } },
{ "type": "Feature", "properties": { "humidity@500m": 8.2839257708671656, "lapserate": 0.0070154048, "timestamp": "20240805T00" }, "geometry": { "type": "Point", "coordinates": [ -116.25, 51.0 ] } },
{ "type": "Feature", "properties": { "humidity@500m": 6.9792449059396287, "lapserate": 0.0069264001, "timestamp": "20240805T00" }, "geometry": { "type": "Point", "coordinates": [ -116.25, 51.25 ] } },
{ "type": "Feature", "properties": { "humidity@500m": 6.9637063533634791, "lapserate": 0.006639645, "timestamp": "20240805T00" }, "geometry": { "type": "Point", "coordinates": [ -116.25, 51.5 ] } },
{ "type": "Feature", "properties": { "humidity@500m": 6.3045802227279335, "lapserate": 0.0066841077, "timestamp": "20240805T00" }, "geometry": { "type": "Point", "coordinates": [ -116.25, 51.75 ] } },
{ "type": "Feature", "properties": { "humidity@500m": 7.5155514177410705, "lapserate": 0.0065976488, "timestamp": "20240805T00" }, "geometry": { "type": "Point", "coordinates": [ -116.25, 52.0 ] } },
{ "type": "Feature", "properties": { "humidity@500m": 9.1050568895993997, "lapserate": 0.0062356321, "timestamp": "20240805T00" }, "geometry": { "type": "Point", "coordinates": [ -116.25, 52.25 ] } },
{ "type": "Feature", "properties": { "humidity@500m": 9.9281869408014032, "lapserate": 0.0060577439, "timestamp": "20240805T00" }, "geometry": { "type": "Point", "coordinates": [ -116.25, 52.5 ] } },
{ "type": "Feature", "properties": { "humidity@500m": 9.8778552192921971, "lapserate": 0.0061078696, "timestamp": "20240805T00" }, "geometry": { "type": "Point", "coordinates": [ -116.25, 52.75 ] } },
{ "type": "Feature", "properties": { "humidity@500m": 9.7696813741915633, "lapserate": 0.0062358589, "timestamp": "20240805T00" }, "geometry": { "type": "Point", "coordinates": [ -116.25, 53.0 ] } },
{ "type": "Feature", "properties": { "humidity@500m": 9.4615099664168838, "lapserate": 0.006291728, "timestamp": "20240805T00" }, "geometry": { "type": "Point", "coordinates": [ -116.25, 53.25 ] } },
{ "type": "Feature", "properties": { "humidity@500m": 9.3601577411742962, "lapserate": 0.0062599378, "timestamp": "20240805T00" }, "geometry": { "type": "Point", "coordinates": [ -116.25, 53.5 ] } },
{ "type": "Feature", "properties": { "humidity@500m": 9.1880354380025437, "lapserate": 0.0061776037, "timestamp": "20240805T00" }, "geometry": { "type": "Point", "coordinates": [ -116.25, 53.75 ] } },
{ "type": "Feature", "properties": { "humidity@500m": 9.1891550873296115, "lapserate": 0.0060802619, "timestamp": "20240805T00" }, "geometry": { "type": "Point", "coordinates": [ -116.25, 54.0 ] } },
{ "type": "Feature", "properties": { "humidity@500m": 8.6777097505441443, "lapserate": 0.0060897525, "timestamp": "20240805T00" }, "geometry": { "type": "Point", "coordinates": [ -116.25, 54.25 ] } },
{ "type": "Feature", "properties": { "humidity@500m": 8.3106452553444754, "lapserate": 0.0061351936, "timestamp": "20240805T00" }, "geometry": { "type": "Point", "coordinates": [ -116.25, 54.5 ] } },
{ "type": "Feature", "properties": { "humidity@500m": 8.5021379791187712, "lapserate": 0.0061818114, "timestamp": "20240805T00" }, "geometry": { "type": "Point", "coordinates": [ -116.25, 54.75 ] } },
{ "type": "Feature", "properties": { "humidity@500m": 8.6042361948576005, "lapserate": 0.0061649056, "timestamp": "20240805T00" }, "geometry": { "type": "Point", "coordinates": [ -116.25, 55.0 ] } },
{ "type": "Feature", "properties": { "humidity@500m": 8.5246930293082386, "lapserate": 0.0066367164, "timestamp": "20240805T00" }, "geometry": { "type": "Point", "coordinates": [ -116.0, 50.0 ] } },
{ "type": "Feature", "properties": { "humidity@500m": 9.0111223814690504, "lapserate": 0.0065618684, "timestamp": "20240805T00" }, "geometry": { "type": "Point", "coordinates": [ -116.0, 50.25 ] } },
{ "type": "Feature", "properties": { "humidity@500m": 9.0331337918943575, "lapserate": 0.0064827986, "timestamp": "20240805T00" }, "geometry": { "type": "Point", "coordinates": [ -116.0, 50.5 ] } },
{ "type": "Feature", "properties": { "humidity@500m": 8.9157297464518575, "lapserate": 0.0065792049, "timestamp": "20240805T00" }, "geometry": { "type": "Point", "coordinates": [ -116.0, 50.75 ] } },
{ "type": "Feature", "properties": { "humidity@500m": 8.1699697641183704, "lapserate": 0.0067423712, "timestamp": "20240805T00" }, "geometry": { "type": "Point", "coordinates": [ -116.0, 51.0 ] } },
{ "type": "Feature", "properties": { "humidity@500m": 7.3305417011795324, "lapserate": 0.0066883522, "timestamp": "20240805T00" }, "geometry": { "type": "Point", "coordinates": [ -116.0, 51.25 ] } },
{ "type": "Feature", "properties": { "humidity@500m": 6.7359159483380431, "lapserate": 0.0066379276, "timestamp": "20240805T00" }, "geometry": { "type": "Point", "coordinates": [ -116.0, 51.5 ] } },
{ "type": "Feature", "properties": { "humidity@500m": 7.614339556470525, "lapserate": 0.0067029009, "timestamp": "20240805T00" }, "geometry": { "type": "Point", "coordinates": [ -116.0, 51.75 ] } },
{ "type": "Feature", "properties": { "humidity@500m": 8.5160832548545322, "lapserate": 0.0064550862, "timestamp": "20240805T00" }, "geometry": { "type": "Point", "coordinates": [ -116.0, 52.0 ] } },
{ "type": "Feature", "properties": { "humidity@500m": 9.5647331069277097, "lapserate": 0.006135778, "timestamp": "20240805T00" }, "geometry": { "type": "Point", "coordinates": [ -116.0, 52.25 ] } },
{ "type": "Feature", "properties": { "humidity@500m": 10.177862005971825, "lapserate": 0.0060643326, "timestamp": "20240805T00" }, "geometry": { "type": "Point", "coordinates": [ -116.0, 52.5 ] } },
{ "type": "Feature", "properties": { "humidity@500m": 10.203051891961625, "lapserate": 0.0061132191, "timestamp": "20240805T00" }, "geometry": { "type": "Point", "coordinates": [ -116.0, 52.75 ] } },
{ "type": "Feature", "properties": { "humidity@500m": 9.8749688428589266, "lapserate": 0.0062323906, "timestamp": "20240805T00" }, "geometry": { "type": "Point", "coordinates": [ -116.0, 53.0 ] } },
{ "type": "Feature", "properties": { "humidity@500m": 9.4230592335901466, "lapserate": 0.0063151647, "timestamp": "20240805T00" }, "geometry": { "type": "Point", "coordinates": [ -116.0, 53.25 ] } },
{ "type": "Feature", "properties": { "humidity@500m": 9.3501581794288366, "lapserate": 0.006293857, "timestamp": "20240805T00" }, "geometry": { "type": "Point", "coordinates": [ -116.0, 53.5 ] } },
{ "type": "Feature", "properties": { "humidity@500m": 9.1809799506459271, "lapserate": 0.0061783101, "timestamp": "20240805T00" }, "geometry": { "type": "Point", "coordinates": [ -116.0, 53.75 ] } },
{ "type": "Feature", "properties": { "humidity@500m": 9.2514817804748013, "lapserate": 0.0060653668, "timestamp": "20240805T00" }, "geometry": { "type": "Point", "coordinates": [ -116.0, 54.0 ] } },
{ "type": "Feature", "properties": { "humidity@500m": 8.907809394864568, "lapserate": 0.0060461103, "timestamp": "20240805T00" }, "geometry": { "type": "Point", "coordinates": [ -116.0, 54.25 ] } },
{ "type": "Feature", "properties": { "humidity@500m": 8.6935430577825059, "lapserate": 0.0060410942, "timestamp": "20240805T00" }, "geometry": { "type": "Point", "coordinates": [ -116.0, 54.5 ] } },
{ "type": "Feature", "properties": { "humidity@500m": 8.4571747899707272, "lapserate": 0.006100351, "timestamp": "20240805T00" }, "geometry": { "type": "Point", "coordinates": [ -116.0, 54.75 ] } },
{ "type": "Feature", "properties": { "humidity@500m": 8.4927940039342147, "lapserate": 0.0061582099, "timestamp": "20240805T00" }, "geometry": { "type": "Point", "coordinates": [ -116.0, 55.0 ] } },
{ "type": "Feature", "properties": { "humidity@500m": 9.1379223588573009, "lapserate": 0.0062940167, "timestamp": "20240805T00" }, "geometry": { "type": "Point", "coordinates": [ -115.75, 50.0 ] } },
{ "type": "Feature", "properties": { "humidity@500m": 9.0904455754272995, "lapserate": 0.0063133161, "timestamp": "20240805T00" }, "geometry": { "type": "Point", "coordinates": [ -115.75, 50.25 ] } },
{ "type": "Feature", "properties": { "humidity@500m": 8.9108976006821674, "lapserate": 0.0063606757, "timestamp": "20240805T00" }, "geometry": { "type": "Point", "coordinates": [ -115.75, 50.5 ] } },
{ "type": "Feature", "properties": { "humidity@500m": 8.4502933976989034, "lapserate": 0.0065142354, "timestamp": "20240805T00" }, "geometry": { "type": "Point", "coordinates": [ -115.75, 50.75 ] } },
{ "type": "Feature", "properties": { "humidity@500m": 8.2089381256132636, "lapserate": 0.006646926, "timestamp": "20240805T00" }, "geometry": { "type": "Point", "coordinates": [ -115.75, 51.0 ] } },
{ "type": "Feature", "properties": { "humidity@500m": 7.5517862747978484, "lapserate": 0.0066705677, "timestamp": "20240805T00" }, "geometry": { "type": "Point", "coordinates": [ -115.75, 51.25 ] } },
{ "type": "Feature", "properties": { "humidity@500m": 6.9112758252703435, "lapserate": 0.0067853755, "timestamp": "20240805T00" }, "geometry": { "type": "Point", "coordinates": [ -115.75, 51.5 ] } },
{ "type": "Feature", "properties": { "humidity@500m": 8.1072220804685582, "lapserate": 0.0067628147, "timestamp": "20240805T00" }, "geometry": { "type": "Point", "coordinates": [ -115.75, 51.75 ] } },
{ "type": "Feature", "properties": { "humidity@500m": 8.9109775107574496, "lapserate": 0.0063357884, "timestamp": "20240805T00" }, "geometry": { "type": "Point", "coordinates": [ -115.75, 52.0 ] } },
{ "type": "Feature", "properties": { "humidity@500m": 9.775211893231587, "lapserate": 0.0060642431, "timestamp": "20240805T00" }, "geometry": { "type": "Point", "coordinates": [ -115.75, 52.25 ] } },
{ "type": "Feature", "properties": { "humidity@500m": 10.23628780855532, "lapserate": 0.0061026202, "timestamp": "20240805T00" }, "geometry": { "type": "Point", "coordinates": [ -115.75, 52.5 ] } },
{ "type": "Feature", "properties": { "humidity@500m": 10.363123414639634, "lapserate": 0.0061673587, "timestamp": "20240805T00" }, "geometry": { "type": "Point", "coordinates": [ -115.75, 52.75 ] } },
{ "type": "Feature", "properties": { "humidity@500m": 9.9844226672635266, "lapserate": 0.006245093, "timestamp": "20240805T00" }, "geometry": { "type": "Point", "coordinates": [ -115.75, 53.0 ] } },
{ "type": "Feature", "properties": { "humidity@500m": 9.6152956108730816, "lapserate": 0.0063111265, "timestamp": "20240805T00" }, "geometry": { "type": "Point", "coordinates": [ -115.75, 53.25 ] } },
{ "type": "Feature", "properties": { "humidity@500m": 9.5236281007438688, "lapserate": 0.0063047013, "timestamp": "20240805T00" }, "geometry": { "type": "Point", "coordinates": [ -115.75, 53.5 ] } },
{ "type": "Feature", "properties": { "humidity@500m": 9.3809881439449274, "lapserate": 0.0061882194, "timestamp": "20240805T00" }, "geometry": { "type": "Point", "coordinates": [ -115.75, 53.75 ] } },
{ "type": "Feature", "properties": { "humidity@500m": 9.4832706104001083, "lapserate": 0.0060783033, "timestamp": "20240805T00" }, "geometry": { "type": "Point", "coordinates": [ -115.75, 54.0 ] } },
{ "type": "Feature", "properties": { "humidity@500m": 9.1355803681186352, "lapserate": 0.0060370914, "timestamp": "20240805T00" }, "geometry": { "type": "Point", "coordinates": [ -115.75, 54.25 ] } },
{ "type": "Feature", "properties": { "humidity@500m": 8.6015696880645365, "lapserate": 0.0059810481, "timestamp": "20240805T00" }, "geometry": { "type": "Point", "coordinates": [ -115.75, 54.5 ] } },
{ "type": "Feature", "properties": { "humidity@500m": 8.2091708871035607, "lapserate": 0.0060311551, "timestamp": "20240805T00" }, "geometry": { "type": "Point", "coordinates": [ -115.75, 54.75 ] } },
{ "type": "Feature", "properties": { "humidity@500m": 8.3439581838333776, "lapserate": 0.0061465157, "timestamp": "20240805T00" }, "geometry": { "type": "Point", "coordinates": [ -115.75, 55.0 ] } },
{ "type": "Feature", "properties": { "humidity@500m": 8.7374039840192665, "lapserate": 0.0060058944, "timestamp": "20240805T00" }, "geometry": { "type": "Point", "coordinates": [ -115.5, 50.0 ] } },
{ "type": "Feature", "properties": { "humidity@500m": 8.6308559071638467, "lapserate": 0.0060728528, "timestamp": "20240805T00" }, "geometry": { "type": "Point", "coordinates": [ -115.5, 50.25 ] } },
{ "type": "Feature", "properties": { "humidity@500m": 8.3102521830264671, "lapserate": 0.0062087611, "timestamp": "20240805T00" }, "geometry": { "type": "Point", "coordinates": [ -115.5, 50.5 ] } },
{ "type": "Feature", "properties": { "humidity@500m": 8.4642150409318315, "lapserate": 0.0064645889, "timestamp": "20240805T00" }, "geometry": { "type": "Point", "coordinates": [ -115.5, 50.75 ] } },
{ "type": "Feature", "properties": { "humidity@500m": 8.1250868611041156, "lapserate": 0.0066889306, "timestamp": "20240805T00" }, "geometry": { "type": "Point", "coordinates": [ -115.5, 51.0 ] } },
{ "type": "Feature", "properties": { "humidity@500m": 8.3381197996219854, "lapserate": 0.0068147834, "timestamp": "20240805T00" }, "geometry": { "type": "Point", "coordinates": [ -115.5, 51.25 ] } },
{ "type": "Feature", "properties": { "humidity@500m": 8.8505394915514835, "lapserate": 0.0069718217, "timestamp": "20240805T00" }, "geometry": { "type": "Point", "coordinates": [ -115.5, 51.5 ] } },
{ "type": "Feature", "properties": { "humidity@500m": 8.8477032466655974, "lapserate": 0.0068550482, "timestamp": "20240805T00" }, "geometry": { "type": "Point", "coordinates": [ -115.5, 51.75 ] } },
{ "type": "Feature", "properties": { "humidity@500m": 9.141876307768209, "lapserate": 0.0063735154, "timestamp": "20240805T00" }, "geometry": { "type": "Point", "coordinates": [ -115.5, 52.0 ] } },
{ "type": "Feature", "properties": { "humidity@500m": 9.6789302600866058, "lapserate": 0.0061377557, "timestamp": "20240805T00" }, "geometry": { "type": "Point", "coordinates": [ -115.5, 52.25 ] } },
{ "type": "Feature", "properties": { "humidity@500m": 10.213061476543256, "lapserate": 0.0062001133, "timestamp": "20240805T00" }, "geometry": { "type": "Point", "coordinates": [ -115.5, 52.5 ] } },
{ "type": "Feature", "properties": { "humidity@500m": 10.223313205367974, "lapserate": 0.0062722056, "timestamp": "20240805T00" }, "geometry": { "type": "Point", "coordinates": [ -115.5, 52.75 ] } },
{ "type": "Feature", "properties": { "humidity@500m": 9.9497311783764211, "lapserate": 0.0063096592, "timestamp": "20240805T00" }, "geometry": { "type": "Point", "coordinates": [ -115.5, 53.0 ] } },
{ "type": "Feature", "properties": { "humidity@500m": 9.5878430157831893, "lapserate": 0.0063236328, "timestamp": "20240805T00" }, "geometry": { "type": "Point", "coordinates": [ -115.5, 53.25 ] } },
{ "type": "Feature", "properties": { "humidity@500m": 9.6426428285176176, "lapserate": 0.0063076713, "timestamp": "20240805T00" }, "geometry": { "type": "Point", "coordinates": [ -115.5, 53.5 ] } },
{ "type": "Feature", "properties": { "humidity@500m": 9.5235575580059919, "lapserate": 0.0061970893, "timestamp": "20240805T00" }, "geometry": { "type": "Point", "coordinates": [ -115.5, 53.75 ] } },
{ "type": "Feature", "properties": { "humidity@500m": 9.722886736560767, "lapserate": 0.0060975514, "timestamp": "20240805T00" }, "geometry": { "type": "Point", "coordinates": [ -115.5, 54.0 ] } },
{ "type": "Feature", "properties": { "humidity@500m": 9.4439852680149876, "lapserate": 0.0060506859, "timestamp": "20240805T00" }, "geometry": { "type": "Point", "coordinates": [ -115.5, 54.25 ] } },
{ "type": "Feature", "properties": { "humidity@500m": 8.5927552917514038, "lapserate": 0.0059856134, "timestamp": "20240805T00" }, "geometry": { "type": "Point", "coordinates": [ -115.5, 54.5 ] } },
{ "type": "Feature", "properties": { "humidity@500m": 8.2328693980206022, "lapserate": 0.0060165669, "timestamp": "20240805T00" }, "geometry": { "type": "Point", "coordinates": [ -115.5, 54.75 ] } },
{ "type": "Feature", "properties": { "humidity@500m": 8.574301072031739, "lapserate": 0.0061289305, "timestamp": "20240805T00" }, "geometry": { "type": "Point", "coordinates": [ -115.5, 55.0 ] } },
{ "type": "Feature", "properties": { "humidity@500m": 8.1655246162652269, "lapserate": 0.0058157123, "timestamp": "20240805T00" }, "geometry": { "type": "Point", "coordinates": [ -115.25, 50.0 ] } },
{ "type": "Feature", "properties": { "humidity@500m": 8.2511724030203499, "lapserate": 0.005933343, "timestamp": "20240805T00" }, "geometry": { "type": "Point", "coordinates": [ -115.25, 50.25 ] } },
{ "type": "Feature", "properties": { "humidity@500m": 8.2929847025957493, "lapserate": 0.0060902582, "timestamp": "20240805T00" }, "geometry": { "type": "Point", "coordinates": [ -115.25, 50.5 ] } },
{ "type": "Feature", "properties": { "humidity@500m": 8.2194806349958078, "lapserate": 0.0063817664, "timestamp": "20240805T00" }, "geometry": { "type": "Point", "coordinates": [ -115.25, 50.75 ] } },
{ "type": "Feature", "properties": { "humidity@500m": 7.9007301656282278, "lapserate": 0.0066921101, "timestamp": "20240805T00" }, "geometry": { "type": "Point", "coordinates": [ -115.25, 51.0 ] } },
{ "type": "Feature", "properties": { "humidity@500m": 8.2432766613130823, "lapserate": 0.0069021527, "timestamp": "20240805T00" }, "geometry": { "type": "Point", "coordinates": [ -115.25, 51.25 ] } },
{ "type": "Feature", "properties": { "humidity@500m": 8.8062076797923599, "lapserate": 0.0070824651, "timestamp": "20240805T00" }, "geometry": { "type": "Point", "coordinates": [ -115.25, 51.5 ] } },
{ "type": "Feature", "properties": { "humidity@500m": 8.9408808141502352, "lapserate": 0.0070160157, "timestamp": "20240805T00" }, "geometry": { "type": "Point", "coordinates": [ -115.25, 51.75 ] } },
{ "type": "Feature", "properties": { "humidity@500m": 9.2900732768924499, "lapserate": 0.0066579878, "timestamp": "20240805T00" }, "geometry": { "type": "Point", "coordinates": [ -115.25, 52.0 ] } },
{ "type": "Feature", "properties": { "humidity@500m": 9.6490312880613303, "lapserate": 0.0064189211, "timestamp": "20240805T00" }, "geometry": { "type": "Point", "coordinates": [ -115.25, 52.25 ] } },
{ "type": "Feature", "properties": { "humidity@500m": 9.8748965110938247, "lapserate": 0.0063795443, "timestamp": "20240805T00" }, "geometry": { "type": "Point", "coordinates": [ -115.25, 52.5 ] } },
{ "type": "Feature", "properties": { "humidity@500m": 10.04113585171498, "lapserate": 0.0064168698, "timestamp": "20240805T00" }, "geometry": { "type": "Point", "coordinates": [ -115.25, 52.75 ] } },
{ "type": "Feature", "properties": { "humidity@500m": 9.7636922825767076, "lapserate": 0.006428245, "timestamp": "20240805T00" }, "geometry": { "type": "Point", "coordinates": [ -115.25, 53.0 ] } },
{ "type": "Feature", "properties": { "humidity@500m": 9.5219959220004142, "lapserate": 0.006380965, "timestamp": "20240805T00" }, "geometry": { "type": "Point", "coordinates": [ -115.25, 53.25 ] } },
{ "type": "Feature", "properties": { "humidity@500m": 9.7171653145778816, "lapserate": 0.0063125049, "timestamp": "20240805T00" }, "geometry": { "type": "Point", "coordinates": [ -115.25, 53.5 ] } },
{ "type": "Feature", "properties": { "humidity@500m": 9.800340258858304, "lapserate": 0.0061950451, "timestamp": "20240805T00" }, "geometry": { "type": "Point", "coordinates": [ -115.25, 53.75 ] } },
{ "type": "Feature", "properties": { "humidity@500m": 9.8778183318335184, "lapserate": 0.0061096302, "timestamp": "20240805T00" }, "geometry": { "type": "Point", "coordinates": [ -115.25, 54.0 ] } },
{ "type": "Feature", "properties": { "humidity@500m": 9.7428283468188344, "lapserate": 0.0060728267, "timestamp": "20240805T00" }, "geometry": { "type": "Point", "coordinates": [ -115.25, 54.25 ] } },
{ "type": "Feature", "properties": { "humidity@500m": 8.8865259726139101, "lapserate": 0.0060352641, "timestamp": "20240805T00" }, "geometry": { "type": "Point", "coordinates": [ -115.25, 54.5 ] } },
{ "type": "Feature", "properties": { "humidity@500m": 8.4887712176911609, "lapserate": 0.0060480004, "timestamp": "20240805T00" }, "geometry": { "type": "Point", "coordinates": [ -115.25, 54.75 ] } },
{ "type": "Feature", "properties": { "humidity@500m": 8.9526116832376541, "lapserate": 0.0061068828, "timestamp": "20240805T00" }, "geometry": { "type": "Point", "coordinates": [ -115.25, 55.0 ] } },
{ "type": "Feature", "properties": { "humidity@500m": 8.0901881837186664, "lapserate": 0.0057495548, "timestamp": "20240805T00" }, "geometry": { "type": "Point", "coordinates": [ -115.0, 50.0 ] } },
{ "type": "Feature", "properties": { "humidity@500m": 8.0951691636092793, "lapserate": 0.0059655304, "timestamp": "20240805T00" }, "geometry": { "type": "Point", "coordinates": [ -115.0, 50.25 ] } },
{ "type": "Feature", "properties": { "humidity@500m": 7.7410283534874811, "lapserate": 0.0061152368, "timestamp": "20240805T00" }, "geometry": { "type": "Point", "coordinates": [ -115.0, 50.5 ] } },
{ "type": "Feature", "properties": { "humidity@500m": 7.883806718806972, "lapserate": 0.006335258, "timestamp": "20240805T00" }, "geometry": { "type": "Point", "coordinates": [ -115.0, 50.75 ] } },
{ "type": "Feature", "properties": { "humidity@500m": 8.4276859897797287, "lapserate": 0.0066121994, "timestamp": "20240805T00" }, "geometry": { "type": "Point", "coordinates": [ -115.0, 51.0 ] } },
{ "type": "Feature", "properties": { "humidity@500m": 9.1835319506956381, "lapserate": 0.0068405652, "timestamp": "20240805T00" }, "geometry": { "type": "Point", "coordinates": [ -115.0, 51.25 ] } },
{ "type": "Feature", "properties": { "humidity@500m": 9.1996765192880368, "lapserate": 0.0070657684, "timestamp": "20240805T00" }, "geometry": { "type": "Point", "coordinates": [ -115.0, 51.5 ] } },
{ "type": "Feature", "properties": { "humidity@500m": 8.9218259437173106, "lapserate": 0.0071729757, "timestamp": "20240805T00" }, "geometry": { "type": "Point", "coordinates": [ -115.0, 51.75 ] } },
{ "type": "Feature", "properties": { "humidity@500m": 9.0284985990096711, "lapserate": 0.0070324955, "timestamp": "20240805T00" }, "geometry": { "type": "Point", "coordinates": [ -115.0, 52.0 ] } },
{ "type": "Feature", "properties": { "humidity@500m": 9.4468510116776283, "lapserate": 0.0067831026, "timestamp": "20240805T00" }, "geometry": { "type": "Point", "coordinates": [ -115.0, 52.25 ] } },
{ "type": "Feature", "properties": { "humidity@500m": 9.5548596949251223, "lapserate": 0.0065973802, "timestamp": "20240805T00" }, "geometry": { "type": "Point", "coordinates": [ -115.0, 52.5 ] } },
{ "type": "Feature", "properties": { "humidity@500m": 9.7225646513098809, "lapserate": 0.0065511419, "timestamp": "20240805T00" }, "geometry": { "type": "Point", "coordinates": [ -115.0, 52.75 ] } },
{ "type": "Feature", "properties": { "humidity@500m": 9.5242824076072417, "lapserate": 0.0065297158, "timestamp": "20240805T00" }, "geometry": { "type": "Point", "coordinates": [ -115.0, 53.0 ] } },
{ "type": "Feature", "properties": { "humidity@500m": 9.4121771223159776, "lapserate": 0.0064357226, "timestamp": "20240805T00" }, "geometry": { "type": "Point", "coordinates": [ -115.0, 53.25 ] } },
{ "type": "Feature", "properties": { "humidity@500m": 9.5751533180310027, "lapserate": 0.006312219, "timestamp": "20240805T00" }, "geometry": { "type": "Point", "coordinates": [ -115.0, 53.5 ] } },
{ "type": "Feature", "properties": { "humidity@500m": 9.9661629834286867, "lapserate": 0.0062067774, "timestamp": "20240805T00" }, "geometry": { "type": "Point", "coordinates": [ -115.0, 53.75 ] } },
{ "type": "Feature", "properties": { "humidity@500m": 10.029756474799552, "lapserate": 0.0061549325, "timestamp": "20240805T00" }, "geometry": { "type": "Point", "coordinates": [ -115.0, 54.0 ] } },
{ "type": "Feature", "properties": { "humidity@500m": 9.9301446016832777, "lapserate": 0.0061137401, "timestamp": "20240805T00" }, "geometry": { "type": "Point", "coordinates": [ -115.0, 54.25 ] } },
{ "type": "Feature", "properties": { "humidity@500m": 9.5533985477585031, "lapserate": 0.0060839793, "timestamp": "20240805T00" }, "geometry": { "type": "Point", "coordinates": [ -115.0, 54.5 ] } },
{ "type": "Feature", "properties": { "humidity@500m": 9.1586352402539184, "lapserate": 0.0060805352, "timestamp": "20240805T00" }, "geometry": { "type": "Point", "coordinates": [ -115.0, 54.75 ] } },
{ "type": "Feature", "properties": { "humidity@500m": 9.2309706838521581, "lapserate": 0.0060901176, "timestamp": "20240805T00" }, "geometry": { "type": "Point", "coordinates": [ -115.0, 55.0 ] } },
{ "type": "Feature", "properties": { "humidity@500m": 8.0776088732663549, "lapserate": 0.0058668363, "timestamp": "20240805T00" }, "geometry": { "type": "Point", "coordinates": [ -114.75, 50.0 ] } },
{ "type": "Feature", "properties": { "humidity@500m": 8.3404284287601858, "lapserate": 0.0061488599, "timestamp": "20240805T00" }, "geometry": { "type": "Point", "coordinates": [ -114.75, 50.25 ] } },
{ "type": "Feature", "properties": { "humidity@500m": 8.495010792738011, "lapserate": 0.0062813489, "timestamp": "20240805T00" }, "geometry": { "type": "Point", "coordinates": [ -114.75, 50.5 ] } },
{ "type": "Feature", "properties": { "humidity@500m": 8.8595907440086954, "lapserate": 0.0063990485, "timestamp": "20240805T00" }, "geometry": { "type": "Point", "coordinates": [ -114.75, 50.75 ] } },
{ "type": "Feature", "properties": { "humidity@500m": 9.0225695854174148, "lapserate": 0.0065797558, "timestamp": "20240805T00" }, "geometry": { "type": "Point", "coordinates": [ -114.75, 51.0 ] } },
{ "type": "Feature", "properties": { "humidity@500m": 9.1617210101726396, "lapserate": 0.0067751291, "timestamp": "20240805T00" }, "geometry": { "type": "Point", "coordinates": [ -114.75, 51.25 ] } },
{ "type": "Feature", "properties": { "humidity@500m": 9.1976407511227904, "lapserate": 0.0070061651, "timestamp": "20240805T00" }, "geometry": { "type": "Point", "coordinates": [ -114.75, 51.5 ] } },
{ "type": "Feature", "properties": { "humidity@500m": 8.9534268096664356, "lapserate": 0.0072264848, "timestamp": "20240805T00" }, "geometry": { "type": "Point", "coordinates": [ -114.75, 51.75 ] } },
{ "type": "Feature", "properties": { "humidity@500m": 8.8088749075451975, "lapserate": 0.007250546, "timestamp": "20240805T00" }, "geometry": { "type": "Point", "coordinates": [ -114.75, 52.0 ] } },
{ "type": "Feature", "properties": { "humidity@500m": 9.1378699740623794, "lapserate": 0.0070388513, "timestamp": "20240805T00" }, "geometry": { "type": "Point", "coordinates": [ -114.75, 52.25 ] } },
{ "type": "Feature", "properties": { "humidity@500m": 9.3362998498158429, "lapserate": 0.0067864209, "timestamp": "20240805T00" }, "geometry": { "type": "Point", "coordinates": [ -114.75, 52.5 ] } },
{ "type": "Feature", "properties": { "humidity@500m": 9.3693041094967064, "lapserate": 0.0066437344, "timestamp": "20240805T00" }, "geometry": { "type": "Point", "coordinates": [ -114.75, 52.75 ] } },
{ "type": "Feature", "properties": { "humidity@500m": 9.1736894881193862, "lapserate": 0.0065641301, "timestamp": "20240805T00" }, "geometry": { "type": "Point", "coordinates": [ -114.75, 53.0 ] } },
{ "type": "Feature", "properties": { "humidity@500m": 9.2670817829435812, "lapserate": 0.0064447201, "timestamp": "20240805T00" }, "geometry": { "type": "Point", "coordinates": [ -114.75, 53.25 ] } },
{ "type": "Feature", "properties": { "humidity@500m": 9.3507253242129877, "lapserate": 0.0063112583, "timestamp": "20240805T00" }, "geometry": { "type": "Point", "coordinates": [ -114.75, 53.5 ] } },
{ "type": "Feature", "properties": { "humidity@500m": 9.9565897029604304, "lapserate": 0.0062658563, "timestamp": "20240805T00" }, "geometry": { "type": "Point", "coordinates": [ -114.75, 53.75 ] } },
{ "type": "Feature", "properties": { "humidity@500m": 10.097390683201857, "lapserate": 0.0062564942, "timestamp": "20240805T00" }, "geometry": { "type": "Point", "coordinates": [ -114.75, 54.0 ] } },
{ "type": "Feature", "properties": { "humidity@500m": 9.9497023466894436, "lapserate": 0.0061749318, "timestamp": "20240805T00" }, "geometry": { "type": "Point", "coordinates": [ -114.75, 54.25 ] } },
{ "type": "Feature", "properties": { "humidity@500m": 9.8513711568395053, "lapserate": 0.0061039939, "timestamp": "20240805T00" }, "geometry": { "type": "Point", "coordinates": [ -114.75, 54.5 ] } },
{ "type": "Feature", "properties": { "humidity@500m": 9.6473794799126651, "lapserate": 0.0060899602, "timestamp": "20240805T00" }, "geometry": { "type": "Point", "coordinates": [ -114.75, 54.75 ] } },
{ "type": "Feature", "properties": { "humidity@500m": 9.1666589422920861, "lapserate": 0.0060911472, "timestamp": "20240805T00" }, "geometry": { "type": "Point", "coordinates": [ -114.75, 55.0 ] } },
{ "type": "Feature", "properties": { "humidity@500m": 8.4600183015598986, "lapserate": 0.0061354511, "timestamp": "20240805T00" }, "geometry": { "type": "Point", "coordinates": [ -114.5, 50.0 ] } },
{ "type": "Feature", "properties": { "humidity@500m": 8.7614158781170826, "lapserate": 0.0064021628, "timestamp": "20240805T00" }, "geometry": { "type": "Point", "coordinates": [ -114.5, 50.25 ] } },
{ "type": "Feature", "properties": { "humidity@500m": 8.8094714334473796, "lapserate": 0.0065155239, "timestamp": "20240805T00" }, "geometry": { "type": "Point", "coordinates": [ -114.5, 50.5 ] } },
{ "type": "Feature", "properties": { "humidity@500m": 9.1451380250785945, "lapserate": 0.0065746172, "timestamp": "20240805T00" }, "geometry": { "type": "Point", "coordinates": [ -114.5, 50.75 ] } },
{ "type": "Feature", "properties": { "humidity@500m": 9.0213759183626703, "lapserate": 0.0066914544, "timestamp": "20240805T00" }, "geometry": { "type": "Point", "coordinates": [ -114.5, 51.0 ] } },
{ "type": "Feature", "properties": { "humidity@500m": 9.0595195255554373, "lapserate": 0.0068475199, "timestamp": "20240805T00" }, "geometry": { "type": "Point", "coordinates": [ -114.5, 51.25 ] } },
{ "type": "Feature", "properties": { "humidity@500m": 9.034516109688159, "lapserate": 0.007007956, "timestamp": "20240805T00" }, "geometry": { "type": "Point", "coordinates": [ -114.5, 51.5 ] } },
{ "type": "Feature", "properties": { "humidity@500m": 8.9104302459497404, "lapserate": 0.0071866149, "timestamp": "20240805T00" }, "geometry": { "type": "Point", "coordinates": [ -114.5, 51.75 ] } },
{ "type": "Feature", "properties": { "humidity@500m": 8.7428953343759446, "lapserate": 0.0072587524, "timestamp": "20240805T00" }, "geometry": { "type": "Point", "coordinates": [ -114.5, 52.0 ] } },
{ "type": "Feature", "properties": { "humidity@500m": 8.943175496376309, "lapserate": 0.0071432884, "timestamp": "20240805T00" }, "geometry": { "type": "Point", "coordinates": [ -114.5, 52.25 ] } },
{ "type": "Feature", "properties": { "humidity@500m": 9.1720229827284374, "lapserate": 0.0069405264, "timestamp": "20240805T00" }, "geometry": { "type": "Point", "coordinates": [ -114.5, 52.5 ] } },
{ "type": "Feature", "properties": { "humidity@500m": 9.2312467446125375, "lapserate": 0.0067334464, "timestamp": "20240805T00" }, "geometry": { "type": "Point", "coordinates": [ -114.5, 52.75 ] } },
{ "type": "Feature", "properties": { "humidity@500m": 9.0299712127005449, "lapserate": 0.0065841759, "timestamp": "20240805T00" }, "geometry": { "type": "Point", "coordinates": [ -114.5, 53.0 ] } },
{ "type": "Feature", "properties": { "humidity@500m": 9.255573710099835, "lapserate": 0.0064445785, "timestamp": "20240805T00" }, "geometry": { "type": "Point", "coordinates": [ -114.5, 53.25 ] } },
{ "type": "Feature", "properties": { "humidity@500m": 9.6333262922642575, "lapserate": 0.0063329078, "timestamp": "20240805T00" }, "geometry": { "type": "Point", "coordinates": [ -114.5, 53.5 ] } },
{ "type": "Feature", "properties": { "humidity@500m": 10.053139546560237, "lapserate": 0.0063572139, "timestamp": "20240805T00" }, "geometry": { "type": "Point", "coordinates": [ -114.5, 53.75 ] } },
{ "type": "Feature", "properties": { "humidity@500m": 9.9494480602262918, "lapserate": 0.0063652927, "timestamp": "20240805T00" }, "geometry": { "type": "Point", "coordinates": [ -114.5, 54.0 ] } },
{ "type": "Feature", "properties": { "humidity@500m": 9.7215886568231049, "lapserate": 0.0062288432, "timestamp": "20240805T00" }, "geometry": { "type": "Point", "coordinates": [ -114.5, 54.25 ] } },
{ "type": "Feature", "properties": { "humidity@500m": 9.6601474493218209, "lapserate": 0.0061045922, "timestamp": "20240805T00" }, "geometry": { "type": "Point", "coordinates": [ -114.5, 54.5 ] } },
{ "type": "Feature", "properties": { "humidity@500m": 9.5247912479874017, "lapserate": 0.0060930727, "timestamp": "20240805T00" }, "geometry": { "type": "Point", "coordinates": [ -114.5, 54.75 ] } },
{ "type": "Feature", "properties": { "humidity@500m": 9.1654585066919765, "lapserate": 0.0061175185, "timestamp": "20240805T00" }, "geometry": { "type": "Point", "coordinates": [ -114.5, 55.0 ] } },
{ "type": "Feature", "properties": { "humidity@500m": 9.0521792353865784, "lapserate": 0.0063835867, "timestamp": "20240805T00" }, "geometry": { "type": "Point", "coordinates": [ -114.25, 50.0 ] } },
{ "type": "Feature", "properties": { "humidity@500m": 9.2290468622318684, "lapserate": 0.0066280686, "timestamp": "20240805T00" }, "geometry": { "type": "Point", "coordinates": [ -114.25, 50.25 ] } },
{ "type": "Feature", "properties": { "humidity@500m": 9.0764785892765385, "lapserate": 0.0067541283, "timestamp": "20240805T00" }, "geometry": { "type": "Point", "coordinates": [ -114.25, 50.5 ] } },
{ "type": "Feature", "properties": { "humidity@500m": 9.4641804159458705, "lapserate": 0.0067953966, "timestamp": "20240805T00" }, "geometry": { "type": "Point", "coordinates": [ -114.25, 50.75 ] } },
{ "type": "Feature", "properties": { "humidity@500m": 9.1653983573281597, "lapserate": 0.0068731164, "timestamp": "20240805T00" }, "geometry": { "type": "Point", "coordinates": [ -114.25, 51.0 ] } },
{ "type": "Feature", "properties": { "humidity@500m": 8.6052072371628725, "lapserate": 0.0069815298, "timestamp": "20240805T00" }, "geometry": { "type": "Point", "coordinates": [ -114.25, 51.25 ] } },
{ "type": "Feature", "properties": { "humidity@500m": 8.6466926149030847, "lapserate": 0.0070483303, "timestamp": "20240805T00" }, "geometry": { "type": "Point", "coordinates": [ -114.25, 51.5 ] } },
{ "type": "Feature", "properties": { "humidity@500m": 8.8216223966828196, "lapserate": 0.0071298303, "timestamp": "20240805T00" }, "geometry": { "type": "Point", "coordinates": [ -114.25, 51.75 ] } },
{ "type": "Feature", "properties": { "humidity@500m": 8.7295622033777747, "lapserate": 0.0071897367, "timestamp": "20240805T00" }, "geometry": { "type": "Point", "coordinates": [ -114.25, 52.0 ] } },
{ "type": "Feature", "properties": { "humidity@500m": 8.834440406264541, "lapserate": 0.007174368, "timestamp": "20240805T00" }, "geometry": { "type": "Point", "coordinates": [ -114.25, 52.25 ] } },
{ "type": "Feature", "properties": { "humidity@500m": 9.03912568142559, "lapserate": 0.0070591215, "timestamp": "20240805T00" }, "geometry": { "type": "Point", "coordinates": [ -114.25, 52.5 ] } },
{ "type": "Feature", "properties": { "humidity@500m": 9.1191837982218988, "lapserate": 0.0068334481, "timestamp": "20240805T00" }, "geometry": { "type": "Point", "coordinates": [ -114.25, 52.75 ] } },
{ "type": "Feature", "properties": { "humidity@500m": 8.9643456205135124, "lapserate": 0.0066413656, "timestamp": "20240805T00" }, "geometry": { "type": "Point", "coordinates": [ -114.25, 53.0 ] } },
{ "type": "Feature", "properties": { "humidity@500m": 9.2657059213210839, "lapserate": 0.006470867, "timestamp": "20240805T00" }, "geometry": { "type": "Point", "coordinates": [ -114.25, 53.25 ] } },
{ "type": "Feature", "properties": { "humidity@500m": 9.8022085046455079, "lapserate": 0.0063685039, "timestamp": "20240805T00" }, "geometry": { "type": "Point", "coordinates": [ -114.25, 53.5 ] } },
{ "type": "Feature", "properties": { "humidity@500m": 9.9505054630389935, "lapserate": 0.0064246329, "timestamp": "20240805T00" }, "geometry": { "type": "Point", "coordinates": [ -114.25, 53.75 ] } },
{ "type": "Feature", "properties": { "humidity@500m": 9.8446263705761776, "lapserate": 0.006417586, "timestamp": "20240805T00" }, "geometry": { "type": "Point", "coordinates": [ -114.25, 54.0 ] } },
{ "type": "Feature", "properties": { "humidity@500m": 9.6081358175196652, "lapserate": 0.0062572006, "timestamp": "20240805T00" }, "geometry": { "type": "Point", "coordinates": [ -114.25, 54.25 ] } },
{ "type": "Feature", "properties": { "humidity@500m": 9.4918458504313126, "lapserate": 0.0061187563, "timestamp": "20240805T00" }, "geometry": { "type": "Point", "coordinates": [ -114.25, 54.5 ] } },
{ "type": "Feature", "properties": { "humidity@500m": 9.397187439070704, "lapserate": 0.0061150729, "timestamp": "20240805T00" }, "geometry": { "type": "Point", "coordinates": [ -114.25, 54.75 ] } },
{ "type": "Feature", "properties": { "humidity@500m": 9.0665679573546285, "lapserate": 0.0061541828, "timestamp": "20240805T00" }, "geometry": { "type": "Point", "coordinates": [ -114.25, 55.0 ] } },
{ "type": "Feature", "properties": { "humidity@500m": 9.2339618106942005, "lapserate": 0.0064774151, "timestamp": "20240805T00" }, "geometry": { "type": "Point", "coordinates": [ -114.0, 50.0 ] } },
{ "type": "Feature", "properties": { "humidity@500m": 9.2405002090428052, "lapserate": 0.0067295614, "timestamp": "20240805T00" }, "geometry": { "type": "Point", "coordinates": [ -114.0, 50.25 ] } },
{ "type": "Feature", "properties": { "humidity@500m": 8.8935786573174909, "lapserate": 0.0069013499, "timestamp": "20240805T00" }, "geometry": { "type": "Point", "coordinates": [ -114.0, 50.5 ] } },
{ "type": "Feature", "properties": { "humidity@500m": 9.0393952934885533, "lapserate": 0.0069468897, "timestamp": "20240805T00" }, "geometry": { "type": "Point", "coordinates": [ -114.0, 50.75 ] } },
{ "type": "Feature", "properties": { "humidity@500m": 8.8250243944439433, "lapserate": 0.0069825398, "timestamp": "20240805T00" }, "geometry": { "type": "Point", "coordinates": [ -114.0, 51.0 ] } },
{ "type": "Feature", "properties": { "humidity@500m": 8.469429753794115, "lapserate": 0.0070313574, "timestamp": "20240805T00" }, "geometry": { "type": "Point", "coordinates": [ -114.0, 51.25 ] } },
{ "type": "Feature", "properties": { "humidity@500m": 8.6535692867291569, "lapserate": 0.0070534125, "timestamp": "20240805T00" }, "geometry": { "type": "Point", "coordinates": [ -114.0, 51.5 ] } },
{ "type": "Feature", "properties": { "humidity@500m": 8.8036712177911962, "lapserate": 0.0071026101, "timestamp": "20240805T00" }, "geometry": { "type": "Point", "coordinates": [ -114.0, 51.75 ] } },
{ "type": "Feature", "properties": { "humidity@500m": 8.7643698204124245, "lapserate": 0.0071461042, "timestamp": "20240805T00" }, "geometry": { "type": "Point", "coordinates": [ -114.0, 52.0 ] } },
{ "type": "Feature", "properties": { "humidity@500m": 8.8562896757997898, "lapserate": 0.0071635195, "timestamp": "20240805T00" }, "geometry": { "type": "Point", "coordinates": [ -114.0, 52.25 ] } },
{ "type": "Feature", "properties": { "humidity@500m": 9.0242776055603535, "lapserate": 0.0070697842, "timestamp": "20240805T00" }, "geometry": { "type": "Point", "coordinates": [ -114.0, 52.5 ] } },
{ "type": "Feature", "properties": { "humidity@500m": 9.0833611368407023, "lapserate": 0.0068490165, "timestamp": "20240805T00" }, "geometry": { "type": "Point", "coordinates": [ -114.0, 52.75 ] } },
{ "type": "Feature", "properties": { "humidity@500m": 8.9153862040602103, "lapserate": 0.0066706818, "timestamp": "20240805T00" }, "geometry": { "type": "Point", "coordinates": [ -114.0, 53.0 ] } },
{ "type": "Feature", "properties": { "humidity@500m": 9.3493147246095756, "lapserate": 0.0064825127, "timestamp": "20240805T00" }, "geometry": { "type": "Point", "coordinates": [ -114.0, 53.25 ] } },
{ "type": "Feature", "properties": { "humidity@500m": 9.7408103252215756, "lapserate": 0.0063769547, "timestamp": "20240805T00" }, "geometry": { "type": "Point", "coordinates": [ -114.0, 53.5 ] } },
{ "type": "Feature", "properties": { "humidity@500m": 9.5798984554175792, "lapserate": 0.0064365687, "timestamp": "20240805T00" }, "geometry": { "type": "Point", "coordinates": [ -114.0, 53.75 ] } },
{ "type": "Feature", "properties": { "humidity@500m": 9.5320749583010294, "lapserate": 0.0064117145, "timestamp": "20240805T00" }, "geometry": { "type": "Point", "coordinates": [ -114.0, 54.0 ] } },
{ "type": "Feature", "properties": { "humidity@500m": 9.4555235740883603, "lapserate": 0.0062771253, "timestamp": "20240805T00" }, "geometry": { "type": "Point", "coordinates": [ -114.0, 54.25 ] } },
{ "type": "Feature", "properties": { "humidity@500m": 9.3408385461774035, "lapserate": 0.0061610481, "timestamp": "20240805T00" }, "geometry": { "type": "Point", "coordinates": [ -114.0, 54.5 ] } },
{ "type": "Feature", "properties": { "humidity@500m": 9.1635446384043249, "lapserate": 0.0061523113, "timestamp": "20240805T00" }, "geometry": { "type": "Point", "coordinates": [ -114.0, 54.75 ] } },
{ "type": "Feature", "properties": { "humidity@500m": 8.8373326414764044, "lapserate": 0.0061798482, "timestamp": "20240805T00" }, "geometry": { "type": "Point", "coordinates": [ -114.0, 55.0 ] } },
{ "type": "Feature", "properties": { "humidity@500m": 9.4508062096402146, "lapserate": 0.0064475928, "timestamp": "20240805T00" }, "geometry": { "type": "Point", "coordinates": [ -113.75, 50.0 ] } },
{ "type": "Feature", "properties": { "humidity@500m": 9.1026950698266855, "lapserate": 0.0066669313, "timestamp": "20240805T00" }, "geometry": { "type": "Point", "coordinates": [ -113.75, 50.25 ] } },
{ "type": "Feature", "properties": { "humidity@500m": 8.6342336010709264, "lapserate": 0.0068575791, "timestamp": "20240805T00" }, "geometry": { "type": "Point", "coordinates": [ -113.75, 50.5 ] } },
{ "type": "Feature", "properties": { "humidity@500m": 8.5617766796489754, "lapserate": 0.0069322921, "timestamp": "20240805T00" }, "geometry": { "type": "Point", "coordinates": [ -113.75, 50.75 ] } },
{ "type": "Feature", "properties": { "humidity@500m": 8.5057276955778445, "lapserate": 0.0069683557, "timestamp": "20240805T00" }, "geometry": { "type": "Point", "coordinates": [ -113.75, 51.0 ] } },
{ "type": "Feature", "properties": { "humidity@500m": 8.7168946572681385, "lapserate": 0.006987574, "timestamp": "20240805T00" }, "geometry": { "type": "Point", "coordinates": [ -113.75, 51.25 ] } },
{ "type": "Feature", "properties": { "humidity@500m": 8.8633559059468521, "lapserate": 0.0070245946, "timestamp": "20240805T00" }, "geometry": { "type": "Point", "coordinates": [ -113.75, 51.5 ] } },
{ "type": "Feature", "properties": { "humidity@500m": 8.7432508410484342, "lapserate": 0.0071013789, "timestamp": "20240805T00" }, "geometry": { "type": "Point", "coordinates": [ -113.75, 51.75 ] } },
{ "type": "Feature", "properties": { "humidity@500m": 8.733072234411722, "lapserate": 0.0071202409, "timestamp": "20240805T00" }, "geometry": { "type": "Point", "coordinates": [ -113.75, 52.0 ] } },
{ "type": "Feature", "properties": { "humidity@500m": 8.9039067636761153, "lapserate": 0.0070856414, "timestamp": "20240805T00" }, "geometry": { "type": "Point", "coordinates": [ -113.75, 52.25 ] } },
{ "type": "Feature", "properties": { "humidity@500m": 9.0371238424471159, "lapserate": 0.006931257, "timestamp": "20240805T00" }, "geometry": { "type": "Point", "coordinates": [ -113.75, 52.5 ] } },
{ "type": "Feature", "properties": { "humidity@500m": 9.1039037423172591, "lapserate": 0.006716569, "timestamp": "20240805T00" }, "geometry": { "type": "Point", "coordinates": [ -113.75, 52.75 ] } },
{ "type": "Feature", "properties": { "humidity@500m": 8.9609577838144148, "lapserate": 0.0066000763, "timestamp": "20240805T00" }, "geometry": { "type": "Point", "coordinates": [ -113.75, 53.0 ] } },
{ "type": "Feature", "properties": { "humidity@500m": 9.4058426572278488, "lapserate": 0.0064382283, "timestamp": "20240805T00" }, "geometry": { "type": "Point", "coordinates": [ -113.75, 53.25 ] } },
{ "type": "Feature", "properties": { "humidity@500m": 9.6480977162927068, "lapserate": 0.0063463277, "timestamp": "20240805T00" }, "geometry": { "type": "Point", "coordinates": [ -113.75, 53.5 ] } },
{ "type": "Feature", "properties": { "humidity@500m": 9.4558885841769822, "lapserate": 0.0064093918, "timestamp": "20240805T00" }, "geometry": { "type": "Point", "coordinates": [ -113.75, 53.75 ] } },
{ "type": "Feature", "properties": { "humidity@500m": 9.2824916190963567, "lapserate": 0.0063895308, "timestamp": "20240805T00" }, "geometry": { "type": "Point", "coordinates": [ -113.75, 54.0 ] } },
{ "type": "Feature", "properties": { "humidity@500m": 9.1811956950904801, "lapserate": 0.0063037616, "timestamp": "20240805T00" }, "geometry": { "type": "Point", "coordinates": [ -113.75, 54.25 ] } },
{ "type": "Feature", "properties": { "humidity@500m": 9.0921291534103972, "lapserate": 0.0062139384, "timestamp": "20240805T00" }, "geometry": { "type": "Point", "coordinates": [ -113.75, 54.5 ] } },
{ "type": "Feature", "properties": { "humidity@500m": 8.9198101042841831, "lapserate": 0.0061851875, "timestamp": "20240805T00" }, "geometry": { "type": "Point", "coordinates": [ -113.75, 54.75 ] } },
{ "type": "Feature", "properties": { "humidity@500m": 8.6111511725268652, "lapserate": 0.0061912658, "timestamp": "20240805T00" }, "geometry": { "type": "Point", "coordinates": [ -113.75, 55.0 ] } },
{ "type": "Feature", "properties": { "humidity@500m": 9.5030651373714932, "lapserate": 0.0063971258, "timestamp": "20240805T00" }, "geometry": { "type": "Point", "coordinates": [ -113.5, 50.0 ] } },
{ "type": "Feature", "properties": { "humidity@500m": 9.0778030346403629, "lapserate": 0.0065255603, "timestamp": "20240805T00" }, "geometry": { "type": "Point", "coordinates": [ -113.5, 50.25 ] } },
{ "type": "Feature", "properties": { "humidity@500m": 9.0029249726526395, "lapserate": 0.0066735377, "timestamp": "20240805T00" }, "geometry": { "type": "Point", "coordinates": [ -113.5, 50.5 ] } },
{ "type": "Feature", "properties": { "humidity@500m": 8.9434509193296083, "lapserate": 0.0067852335, "timestamp": "20240805T00" }, "geometry": { "type": "Point", "coordinates": [ -113.5, 50.75 ] } },
{ "type": "Feature", "properties": { "humidity@500m": 8.8207726649271301, "lapserate": 0.0068840925, "timestamp": "20240805T00" }, "geometry": { "type": "Point", "coordinates": [ -113.5, 51.0 ] } },
{ "type": "Feature", "properties": { "humidity@500m": 8.6767858705243288, "lapserate": 0.0069187232, "timestamp": "20240805T00" }, "geometry": { "type": "Point", "coordinates": [ -113.5, 51.25 ] } },
{ "type": "Feature", "properties": { "humidity@500m": 8.7252583273649105, "lapserate": 0.0069834148, "timestamp": "20240805T00" }, "geometry": { "type": "Point", "coordinates": [ -113.5, 51.5 ] } },
{ "type": "Feature", "properties": { "humidity@500m": 8.655275995003743, "lapserate": 0.0070851292, "timestamp": "20240805T00" }, "geometry": { "type": "Point", "coordinates": [ -113.5, 51.75 ] } },
{ "type": "Feature", "properties": { "humidity@500m": 8.8195097837337251, "lapserate": 0.0070749163, "timestamp": "20240805T00" }, "geometry": { "type": "Point", "coordinates": [ -113.5, 52.0 ] } },
{ "type": "Feature", "properties": { "humidity@500m": 9.0095811970800881, "lapserate": 0.0069774548, "timestamp": "20240805T00" }, "geometry": { "type": "Point", "coordinates": [ -113.5, 52.25 ] } },
{ "type": "Feature", "properties": { "humidity@500m": 9.0529569585788039, "lapserate": 0.0067557562, "timestamp": "20240805T00" }, "geometry": { "type": "Point", "coordinates": [ -113.5, 52.5 ] } },
{ "type": "Feature", "properties": { "humidity@500m": 9.0218018193243061, "lapserate": 0.0065472163, "timestamp": "20240805T00" }, "geometry": { "type": "Point", "coordinates": [ -113.5, 52.75 ] } },
{ "type": "Feature", "properties": { "humidity@500m": 9.1799345052842973, "lapserate": 0.0064928527, "timestamp": "20240805T00" }, "geometry": { "type": "Point", "coordinates": [ -113.5, 53.0 ] } },
{ "type": "Feature", "properties": { "humidity@500m": 9.4353952006250665, "lapserate": 0.0063804435, "timestamp": "20240805T00" }, "geometry": { "type": "Point", "coordinates": [ -113.5, 53.25 ] } },
{ "type": "Feature", "properties": { "humidity@500m": 9.5142543170348706, "lapserate": 0.0063118841, "timestamp": "20240805T00" }, "geometry": { "type": "Point", "coordinates": [ -113.5, 53.5 ] } },
{ "type": "Feature", "properties": { "humidity@500m": 9.242666536394033, "lapserate": 0.0063732974, "timestamp": "20240805T00" }, "geometry": { "type": "Point", "coordinates": [ -113.5, 53.75 ] } },
{ "type": "Feature", "properties": { "humidity@500m": 9.1256702982776687, "lapserate": 0.0063698194, "timestamp": "20240805T00" }, "geometry": { "type": "Point", "coordinates": [ -113.5, 54.0 ] } },
{ "type": "Feature", "properties": { "humidity@500m": 8.9679179775120428, "lapserate": 0.00632247, "timestamp": "20240805T00" }, "geometry": { "type": "Point", "coordinates": [ -113.5, 54.25 ] } },
{ "type": "Feature", "properties": { "humidity@500m": 8.8267882460906275, "lapserate": 0.0062499568, "timestamp": "20240805T00" }, "geometry": { "type": "Point", "coordinates": [ -113.5, 54.5 ] } },
{ "type": "Feature", "properties": { "humidity@500m": 8.6694997768088555, "lapserate": 0.0062108161, "timestamp": "20240805T00" }, "geometry": { "type": "Point", "coordinates": [ -113.5, 54.75 ] } },
{ "type": "Feature", "properties": { "humidity@500m": 8.360771786533558, "lapserate": 0.0061985175, "timestamp": "20240805T00" }, "geometry": { "type": "Point", "coordinates": [ -113.5, 55.0 ] } },
{ "type": "Feature", "properties": { "humidity@500m": 9.4873327078728948, "lapserate": 0.0063715954, "timestamp": "20240805T00" }, "geometry": { "type": "Point", "coordinates": [ -113.25, 50.0 ] } },
{ "type": "Feature", "properties": { "humidity@500m": 9.1677307002340864, "lapserate": 0.0064498889, "timestamp": "20240805T00" }, "geometry": { "type": "Point", "coordinates": [ -113.25, 50.25 ] } },
{ "type": "Feature", "properties": { "humidity@500m": 9.157913331746439, "lapserate": 0.0065489272, "timestamp": "20240805T00" }, "geometry": { "type": "Point", "coordinates": [ -113.25, 50.5 ] } },
{ "type": "Feature", "properties": { "humidity@500m": 9.083270513079599, "lapserate": 0.0066696582, "timestamp": "20240805T00" }, "geometry": { "type": "Point", "coordinates": [ -113.25, 50.75 ] } },
{ "type": "Feature", "properties": { "humidity@500m": 8.9097934433392378, "lapserate": 0.0068147811, "timestamp": "20240805T00" }, "geometry": { "type": "Point", "coordinates": [ -113.25, 51.0 ] } },
{ "type": "Feature", "properties": { "humidity@500m": 8.6158652407165501, "lapserate": 0.0068516671, "timestamp": "20240805T00" }, "geometry": { "type": "Point", "coordinates": [ -113.25, 51.25 ] } },
{ "type": "Feature", "properties": { "humidity@500m": 8.5683191709253013, "lapserate": 0.0069093932, "timestamp": "20240805T00" }, "geometry": { "type": "Point", "coordinates": [ -113.25, 51.5 ] } },
{ "type": "Feature", "properties": { "humidity@500m": 8.5066721950212134, "lapserate": 0.0070193768, "timestamp": "20240805T00" }, "geometry": { "type": "Point", "coordinates": [ -113.25, 51.75 ] } },
{ "type": "Feature", "properties": { "humidity@500m": 8.7803848588533508, "lapserate": 0.0070141656, "timestamp": "20240805T00" }, "geometry": { "type": "Point", "coordinates": [ -113.25, 52.0 ] } },
{ "type": "Feature", "properties": { "humidity@500m": 9.0610435867651891, "lapserate": 0.0069125835, "timestamp": "20240805T00" }, "geometry": { "type": "Point", "coordinates": [ -113.25, 52.25 ] } },
{ "type": "Feature", "properties": { "humidity@500m": 9.1063603974023746, "lapserate": 0.0066925595, "timestamp": "20240805T00" }, "geometry": { "type": "Point", "coordinates": [ -113.25, 52.5 ] } },
{ "type": "Feature", "properties": { "humidity@500m": 9.0173552012188818, "lapserate": 0.0065040593, "timestamp": "20240805T00" }, "geometry": { "type": "Point", "coordinates": [ -113.25, 52.75 ] } },
{ "type": "Feature", "properties": { "humidity@500m": 9.2247996354023147, "lapserate": 0.0064594829, "timestamp": "20240805T00" }, "geometry": { "type": "Point", "coordinates": [ -113.25, 53.0 ] } },
{ "type": "Feature", "properties": { "humidity@500m": 9.4022128943979837, "lapserate": 0.0063642981, "timestamp": "20240805T00" }, "geometry": { "type": "Point", "coordinates": [ -113.25, 53.25 ] } },
{ "type": "Feature", "properties": { "humidity@500m": 9.4494366157738163, "lapserate": 0.0062954011, "timestamp": "20240805T00" }, "geometry": { "type": "Point", "coordinates": [ -113.25, 53.5 ] } },
{ "type": "Feature", "properties": { "humidity@500m": 9.1642184560426223, "lapserate": 0.0063364278, "timestamp": "20240805T00" }, "geometry": { "type": "Point", "coordinates": [ -113.25, 53.75 ] } },
{ "type": "Feature", "properties": { "humidity@500m": 9.0613364236909213, "lapserate": 0.0063475529, "timestamp": "20240805T00" }, "geometry": { "type": "Point", "coordinates": [ -113.25, 54.0 ] } },
{ "type": "Feature", "properties": { "humidity@500m": 8.7350570810862553, "lapserate": 0.0063203503, "timestamp": "20240805T00" }, "geometry": { "type": "Point", "coordinates": [ -113.25, 54.25 ] } },
{ "type": "Feature", "properties": { "humidity@500m": 8.5714183347821287, "lapserate": 0.0062649907, "timestamp": "20240805T00" }, "geometry": { "type": "Point", "coordinates": [ -113.25, 54.5 ] } },
{ "type": "Feature", "properties": { "humidity@500m": 8.4402976494930488, "lapserate": 0.0062348405, "timestamp": "20240805T00" }, "geometry": { "type": "Point", "coordinates": [ -113.25, 54.75 ] } },
{ "type": "Feature", "properties": { "humidity@500m": 8.1320450374246871, "lapserate": 0.0062040039, "timestamp": "20240805T00" }, "geometry": { "type": "Point", "coordinates": [ -113.25, 55.0 ] } },
{ "type": "Feature", "properties": { "humidity@500m": 9.2254918964068633, "lapserate": 0.006373717, "timestamp": "20240805T00" }, "geometry": { "type": "Point", "coordinates": [ -113.0, 50.0 ] } },
{ "type": "Feature", "properties": { "humidity@500m": 8.9841502577413799, "lapserate": 0.0064949286, "timestamp": "20240805T00" }, "geometry": { "type": "Point", "coordinates": [ -113.0, 50.25 ] } },
{ "type": "Feature", "properties": { "humidity@500m": 8.9012959371679017, "lapserate": 0.0066025406, "timestamp": "20240805T00" }, "geometry": { "type": "Point", "coordinates": [ -113.0, 50.5 ] } },
{ "type": "Feature", "properties": { "humidity@500m": 8.8174953161669016, "lapserate": 0.0067012105, "timestamp": "20240805T00" }, "geometry": { "type": "Point", "coordinates": [ -113.0, 50.75 ] } },
{ "type": "Feature", "properties": { "humidity@500m": 8.5429336676057535, "lapserate": 0.0068233595, "timestamp": "20240805T00" }, "geometry": { "type": "Point", "coordinates": [ -113.0, 51.0 ] } },
{ "type": "Feature", "properties": { "humidity@500m": 8.2292857914878486, "lapserate": 0.0068153287, "timestamp": "20240805T00" }, "geometry": { "type": "Point", "coordinates": [ -113.0, 51.25 ] } },
{ "type": "Feature", "properties": { "humidity@500m": 8.4531151290023843, "lapserate": 0.0068349387, "timestamp": "20240805T00" }, "geometry": { "type": "Point", "coordinates": [ -113.0, 51.5 ] } },
{ "type": "Feature", "properties": { "humidity@500m": 8.5186088812612777, "lapserate": 0.00694519, "timestamp": "20240805T00" }, "geometry": { "type": "Point", "coordinates": [ -113.0, 51.75 ] } },
{ "type": "Feature", "properties": { "humidity@500m": 8.8052038997237556, "lapserate": 0.0069657071, "timestamp": "20240805T00" }, "geometry": { "type": "Point", "coordinates": [ -113.0, 52.0 ] } },
{ "type": "Feature", "properties": { "humidity@500m": 9.0641526324555208, "lapserate": 0.006893049, "timestamp": "20240805T00" }, "geometry": { "type": "Point", "coordinates": [ -113.0, 52.25 ] } },
{ "type": "Feature", "properties": { "humidity@500m": 9.1198783334481135, "lapserate": 0.0067304093, "timestamp": "20240805T00" }, "geometry": { "type": "Point", "coordinates": [ -113.0, 52.5 ] } },
{ "type": "Feature", "properties": { "humidity@500m": 9.0696704305003326, "lapserate": 0.0065782219, "timestamp": "20240805T00" }, "geometry": { "type": "Point", "coordinates": [ -113.0, 52.75 ] } },
{ "type": "Feature", "properties": { "humidity@500m": 9.2368555184415282, "lapserate": 0.0064898836, "timestamp": "20240805T00" }, "geometry": { "type": "Point", "coordinates": [ -113.0, 53.0 ] } },
{ "type": "Feature", "properties": { "humidity@500m": 9.3269279995248748, "lapserate": 0.0063623274, "timestamp": "20240805T00" }, "geometry": { "type": "Point", "coordinates": [ -113.0, 53.25 ] } },
{ "type": "Feature", "properties": { "humidity@500m": 9.3658659108255709, "lapserate": 0.0062730149, "timestamp": "20240805T00" }, "geometry": { "type": "Point", "coordinates": [ -113.0, 53.5 ] } },
{ "type": "Feature", "properties": { "humidity@500m": 9.1417838690076216, "lapserate": 0.0062954454, "timestamp": "20240805T00" }, "geometry": { "type": "Point", "coordinates": [ -113.0, 53.75 ] } },
{ "type": "Feature", "properties": { "humidity@500m": 8.9125867698246797, "lapserate": 0.0063282405, "timestamp": "20240805T00" }, "geometry": { "type": "Point", "coordinates": [ -113.0, 54.0 ] } },
{ "type": "Feature", "properties": { "humidity@500m": 8.5385330393933465, "lapserate": 0.0063102334, "timestamp": "20240805T00" }, "geometry": { "type": "Point", "coordinates": [ -113.0, 54.25 ] } },
{ "type": "Feature", "properties": { "humidity@500m": 8.3038671889968185, "lapserate": 0.0062660426, "timestamp": "20240805T00" }, "geometry": { "type": "Point", "coordinates": [ -113.0, 54.5 ] } },
{ "type": "Feature", "properties": { "humidity@500m": 8.2048839247988212, "lapserate": 0.0062469658, "timestamp": "20240805T00" }, "geometry": { "type": "Point", "coordinates": [ -113.0, 54.75 ] } },
{ "type": "Feature", "properties": { "humidity@500m": 7.9889003885619134, "lapserate": 0.0061944234, "timestamp": "20240805T00" }, "geometry": { "type": "Point", "coordinates": [ -113.0, 55.0 ] } },
{ "type": "Feature", "properties": { "humidity@500m": 9.183660654146184, "lapserate": 0.0064195702, "timestamp": "20240805T00" }, "geometry": { "type": "Point", "coordinates": [ -112.75, 50.0 ] } },
{ "type": "Feature", "properties": { "humidity@500m": 8.8957762463880936, "lapserate": 0.006604827, "timestamp": "20240805T00" }, "geometry": { "type": "Point", "coordinates": [ -112.75, 50.25 ] } },
{ "type": "Feature", "properties": { "humidity@500m": 8.6259462497881696, "lapserate": 0.0067515722, "timestamp": "20240805T00" }, "geometry": { "type": "Point", "coordinates": [ -112.75, 50.5 ] } },
{ "type": "Feature", "properties": { "humidity@500m": 8.5128286712820884, "lapserate": 0.0068305614, "timestamp": "20240805T00" }, "geometry": { "type": "Point", "coordinates": [ -112.75, 50.75 ] } },
{ "type": "Feature", "properties": { "humidity@500m": 8.3070833946620741, "lapserate": 0.0069077858, "timestamp": "20240805T00" }, "geometry": { "type": "Point", "coordinates": [ -112.75, 51.0 ] } },
{ "type": "Feature", "properties": { "humidity@500m": 8.2027817961369074, "lapserate": 0.0068675065, "timestamp": "20240805T00" }, "geometry": { "type": "Point", "coordinates": [ -112.75, 51.25 ] } },
{ "type": "Feature", "properties": { "humidity@500m": 8.3825799348266266, "lapserate": 0.0068625719, "timestamp": "20240805T00" }, "geometry": { "type": "Point", "coordinates": [ -112.75, 51.5 ] } },
{ "type": "Feature", "properties": { "humidity@500m": 8.5445549488259012, "lapserate": 0.0069446051, "timestamp": "20240805T00" }, "geometry": { "type": "Point", "coordinates": [ -112.75, 51.75 ] } },
{ "type": "Feature", "properties": { "humidity@500m": 8.8148821919155331, "lapserate": 0.0069437805, "timestamp": "20240805T00" }, "geometry": { "type": "Point", "coordinates": [ -112.75, 52.0 ] } },
{ "type": "Feature", "properties": { "humidity@500m": 9.0850520305634994, "lapserate": 0.0068595628, "timestamp": "20240805T00" }, "geometry": { "type": "Point", "coordinates": [ -112.75, 52.25 ] } },
{ "type": "Feature", "properties": { "humidity@500m": 9.1175914421620092, "lapserate": 0.0067466083, "timestamp": "20240805T00" }, "geometry": { "type": "Point", "coordinates": [ -112.75, 52.5 ] } },
{ "type": "Feature", "properties": { "humidity@500m": 9.0500367423610353, "lapserate": 0.0066349772, "timestamp": "20240805T00" }, "geometry": { "type": "Point", "coordinates": [ -112.75, 52.75 ] } },
{ "type": "Feature", "properties": { "humidity@500m": 9.1674159033702871, "lapserate": 0.0064962595, "timestamp": "20240805T00" }, "geometry": { "type": "Point", "coordinates": [ -112.75, 53.0 ] } },
{ "type": "Feature", "properties": { "humidity@500m": 9.2367629960817048, "lapserate": 0.0063295057, "timestamp": "20240805T00" }, "geometry": { "type": "Point", "coordinates": [ -112.75, 53.25 ] } },
{ "type": "Feature", "properties": { "humidity@500m": 9.2423559608948089, "lapserate": 0.0062284414, "timestamp": "20240805T00" }, "geometry": { "type": "Point", "coordinates": [ -112.75, 53.5 ] } },
{ "type": "Feature", "properties": { "humidity@500m": 9.0560889147857502, "lapserate": 0.0062534288, "timestamp": "20240805T00" }, "geometry": { "type": "Point", "coordinates": [ -112.75, 53.75 ] } },
{ "type": "Feature", "properties": { "humidity@500m": 8.7206236757695947, "lapserate": 0.0063161617, "timestamp": "20240805T00" }, "geometry": { "type": "Point", "coordinates": [ -112.75, 54.0 ] } },
{ "type": "Feature", "properties": { "humidity@500m": 8.3857929941916254, "lapserate": 0.0062999437, "timestamp": "20240805T00" }, "geometry": { "type": "Point", "coordinates": [ -112.75, 54.25 ] } },
{ "type": "Feature", "properties": { "humidity@500m": 8.0868100821255435, "lapserate": 0.0062492439, "timestamp": "20240805T00" }, "geometry": { "type": "Point", "coordinates": [ -112.75, 54.5 ] } },
{ "type": "Feature", "properties": { "humidity@500m": 7.9670015320535654, "lapserate": 0.0062255072, "timestamp": "20240805T00" }, "geometry": { "type": "Point", "coordinates": [ -112.75, 54.75 ] } },
{ "type": "Feature", "properties": { "humidity@500m": 7.8213006218680485, "lapserate": 0.0061635156, "timestamp": "20240805T00" }, "geometry": { "type": "Point", "coordinates": [ -112.75, 55.0 ] } }
]
}
