{
"type": "FeatureCollection",
"name": "geojson_cape_points_20240805T00",
"crs": { "type": "name", "properties": { "name": "urn:ogc:def:crs:OGC:1.3:CRS84" } },
"features": [
{ "type": "Feature", "properties": { "cape": 237.625, "timestamp": "20240805T00" }, "geometry": { "type": "Point", "coordinates": [ -117.75, 50.0 ] } },
{ "type": "Feature", "properties": { "cape": 315.375, "timestamp": "20240805T00" }, "geometry": { "type": "Point", "coordinates": [ -117.75, 50.25 ] } },
{ "type": "Feature", "properties": { "cape": 249.0, "timestamp": "20240805T00" }, "geometry": { "type": "Point", "coordinates": [ -117.75, 50.5 ] } },
{ "type": "Feature", "properties": { "cape": 107.625, "timestamp": "20240805T00" }, "geometry": { "type": "Point", "coordinates": [ -117.75, 50.75 ] } },
{ "type": "Feature", "properties": { "cape": 75.625, "timestamp": "20240805T00" }, "geometry": { "type": "Point", "coordinates": [ -117.75, 51.0 ] } },
{ "type": "Feature", "properties": { "cape": 84.625, "timestamp": "20240805T00" }, "geometry": { "type": "Point", "coordinates": [ -117.75, 51.25 ] } },
{ "type": "Feature", "properties": { "cape": 213.875, "timestamp": "20240805T00" }, "geometry": { "type": "Point", "coordinates": [ -117.75, 51.5 ] } },
{ "type": "Feature", "properties": { "cape": 208.625, "timestamp": "20240805T00" }, "geometry": { "type": "Point", "coordinates": [ -117.75, 51.75 ] } },
{ "type": "Feature", "properties": { "cape": 115.5, "timestamp": "20240805T00" }, "geometry": { "type": "Point", "coordinates": [ -117.75, 52.0 ] } },
{ "type": "Feature", "properties": { "cape": 0.0, "timestamp": "20240805T00" }, "geometry": { "type": "Point", "coordinates": [ -117.75, 52.25 ] } },
{ "type": "Feature", "properties": { "cape": 5.125, "timestamp": "20240805T00" }, "geometry": { "type": "Point", "coordinates": [ -117.75, 52.5 ] } },
{ "type": "Feature", "properties": { "cape": 26.625, "timestamp": "20240805T00" }, "geometry": { "type": "Point", "coordinates": [ -117.75, 52.75 ] } },
{ "type": "Feature", "properties": { "cape": 74.375, "timestamp": "20240805T00" }, "geometry": { "type": "Point", "coordinates": [ -117.75, 53.0 ] } },
{ "type": "Feature", "properties": { "cape": 64.25, "timestamp": "20240805T00" }, "geometry": { "type": "Point", "coordinates": [ -117.75, 53.25 ] } },
{ "type": "Feature", "properties": { "cape": 81.125, "timestamp": "20240805T00" }, "geometry": { "type": "Point", "coordinates": [ -117.75, 53.5 ] } },
{ "type": "Feature", "properties": { "cape": 40.375, "timestamp": "20240805T00" }, "geometry": { "type": "Point", "coordinates": [ -117.75, 53.75 ] } },
{ "type": "Feature", "properties": { "cape": 18.625, "timestamp": "20240805T00" }, "geometry": { "type": "Point", "coordinates": [ -117.75, 54.0 ] } },
{ "type": "Feature", "properties": { "cape": 62.625, "timestamp": "20240805T00" }, "geometry": { "type": "Point", "coordinates": [ -117.75, 54.25 ] } },
{ "type": "Feature", "properties": { "cape": 145.0, "timestamp": "20240805T00" }, "geometry": { "type": "Point", "coordinates": [ -117.75, 54.5 ] } },
{ "type": "Feature", "properties": { "cape": 209.625, "timestamp": "20240805T00" }, "geometry": { "type": "Point", "coordinates": [ -117.75, 54.75 ] } },
{ "type": "Feature", "properties": { "cape": 245.75, "timestamp": "20240805T00" }, "geometry": { "type": "Point", "coordinates": [ -117.75, 55.0 ] } },
{ "type": "Feature", "properties": { "cape": 300.25, "timestamp": "20240805T00" }, "geometry": { "type": "Point", "coordinates": [ -117.5, 50.0 ] } },
{ "type": "Feature", "properties": { "cape": 512.375, "timestamp": "20240805T00" }, "geometry": { "type": "Point", "coordinates": [ -117.5, 50.25 ] } },
{ "type": "Feature", "properties": { "cape": 514.5, "timestamp": "20240805T00" }, "geometry": { "type": "Point", "coordinates": [ -117.5, 50.5 ] } },
{ "type": "Feature", "properties": { "cape": 137.875, "timestamp": "20240805T00" }, "geometry": { "type": "Point", "coordinates": [ -117.5, 50.75 ] } },
{ "type": "Feature", "properties": { "cape": 169.875, "timestamp": "20240805T00" }, "geometry": { "type": "Point", "coordinates": [ -117.5, 51.0 ] } },
{ "type": "Feature", "properties": { "cape": 184.625, "timestamp": "20240805T00" }, "geometry": { "type": "Point", "coordinates": [ -117.5, 51.25 ] } },
{ "type": "Feature", "properties": { "cape": 875.0, "timestamp": "20240805T00" }, "geometry": { "type": "Point", "coordinates": [ -117.5, 51.5 ] } },
{ "type": "Feature", "properties": { "cape": 726.5, "timestamp": "20240805T00" }, "geometry": { "type": "Point", "coordinates": [ -117.5, 51.75 ] } },
{ "type": "Feature", "properties": { "cape": 245.125, "timestamp": "20240805T00" }, "geometry": { "type": "Point", "coordinates": [ -117.5, 52.0 ] } },
{ "type": "Feature", "properties": { "cape": 1.375, "timestamp": "20240805T00" }, "geometry": { "type": "Point", "coordinates": [ -117.5, 52.25 ] } },
{ "type": "Feature", "properties": { "cape": 9.375, "timestamp": "20240805T00" }, "geometry": { "type": "Point", "coordinates": [ -117.5, 52.5 ] } },
{ "type": "Feature", "properties": { "cape": 40.25, "timestamp": "20240805T00" }, "geometry": { "type": "Point", "coordinates": [ -117.5, 52.75 ] } },
{ "type": "Feature", "properties": { "cape": 83.75, "timestamp": "20240805T00" }, "geometry": { "type": "Point", "coordinates": [ -117.5, 53.0 ] } },
{ "type": "Feature", "properties": { "cape": 44.25, "timestamp": "20240805T00" }, "geometry": { "type": "Point", "coordinates": [ -117.5, 53.25 ] } },
{ "type": "Feature", "properties": { "cape": 286.625, "timestamp": "20240805T00" }, "geometry": { "type": "Point", "coordinates": [ -117.5, 53.5 ] } },
{ "type": "Feature", "properties": { "cape": 54.125, "timestamp": "20240805T00" }, "geometry": { "type": "Point", "coordinates": [ -117.5, 53.75 ] } },
{ "type": "Feature", "properties": { "cape": 13.0, "timestamp": "20240805T00" }, "geometry": { "type": "Point", "coordinates": [ -117.5, 54.0 ] } },
{ "type": "Feature", "properties": { "cape": 51.75, "timestamp": "20240805T00" }, "geometry": { "type": "Point", "coordinates": [ -117.5, 54.25 ] } },
{ "type": "Feature", "properties": { "cape": 111.0, "timestamp": "20240805T00" }, "geometry": { "type": "Point", "coordinates": [ -117.5, 54.5 ] } },
{ "type": "Feature", "properties": { "cape": 175.875, "timestamp": "20240805T00" }, "geometry": { "type": "Point", "coordinates": [ -117.5, 54.75 ] } },
{ "type": "Feature", "properties": { "cape": 196.375, "timestamp": "20240805T00" }, "geometry": { "type": "Point", "coordinates": [ -117.5, 55.0 ] } },
{ "type": "Feature", "properties": { "cape": 221.375, "timestamp": "20240805T00" }, "geometry": { "type": "Point", "coordinates": [ -117.25, 50.0 ] } },
{ "type": "Feature", "properties": { "cape": 272.375, "timestamp": "20240805T00" }, "geometry": { "type": "Point", "coordinates": [ -117.25, 50.25 ] } },
{ "type": "Feature", "properties": { "cape": 250.5, "timestamp": "20240805T00" }, "geometry": { "type": "Point", "coordinates": [ -117.25, 50.5 ] } },
{ "type": "Feature", "properties": { "cape": 166.625, "timestamp": "20240805T00" }, "geometry": { "type": "Point", "coordinates": [ -117.25, 50.75 ] } },
{ "type": "Feature", "properties": { "cape": 189.875, "timestamp": "20240805T00" }, "geometry": { "type": "Point", "coordinates": [ -117.25, 51.0 ] } },
{ "type": "Feature", "properties": { "cape": 240.25, "timestamp": "20240805T00" }, "geometry": { "type": "Point", "coordinates": [ -117.25, 51.25 ] } },
{ "type": "Feature", "properties": { "cape": 216.0, "timestamp": "20240805T00" }, "geometry": { "type": "Point", "coordinates": [ -117.25, 51.5 ] } },
{ "type": "Feature", "properties": { "cape": 209.75, "timestamp": "20240805T00" }, "geometry": { "type": "Point", "coordinates": [ -117.25, 51.75 ] } },
{ "type": "Feature", "properties": { "cape": 45.625, "timestamp": "20240805T00" }, "geometry": { "type": "Point", "coordinates": [ -117.25, 52.0 ] } },
{ "type": "Feature", "properties": { "cape": 2.625, "timestamp": "20240805T00" }, "geometry": { "type": "Point", "coordinates": [ -117.25, 52.25 ] } },
{ "type": "Feature", "properties": { "cape": 47.75, "timestamp": "20240805T00" }, "geometry": { "type": "Point", "coordinates": [ -117.25, 52.5 ] } },
{ "type": "Feature", "properties": { "cape": 73.0, "timestamp": "20240805T00" }, "geometry": { "type": "Point", "coordinates": [ -117.25, 52.75 ] } },
{ "type": "Feature", "properties": { "cape": 76.375, "timestamp": "20240805T00" }, "geometry": { "type": "Point", "coordinates": [ -117.25, 53.0 ] } },
{ "type": "Feature", "properties": { "cape": 71.75, "timestamp": "20240805T00" }, "geometry": { "type": "Point", "coordinates": [ -117.25, 53.25 ] } },
{ "type": "Feature", "properties": { "cape": 174.75, "timestamp": "20240805T00" }, "geometry": { "type": "Point", "coordinates": [ -117.25, 53.5 ] } },
{ "type": "Feature", "properties": { "cape": 12.25, "timestamp": "20240805T00" }, "geometry": { "type": "Point", "coordinates": [ -117.25, 53.75 ] } },
{ "type": "Feature", "properties": { "cape": 88.875, "timestamp": "20240805T00" }, "geometry": { "type": "Point", "coordinates": [ -117.25, 54.0 ] } },
{ "type": "Feature", "properties": { "cape": 49.625, "timestamp": "20240805T00" }, "geometry": { "type": "Point", "coordinates": [ -117.25, 54.25 ] } },
{ "type": "Feature", "properties": { "cape": 78.5, "timestamp": "20240805T00" }, "geometry": { "type": "Point", "coordinates": [ -117.25, 54.5 ] } },
{ "type": "Feature", "properties": { "cape": 131.875, "timestamp": "20240805T00" }, "geometry": { "type": "Point", "coordinates": [ -117.25, 54.75 ] } },
{ "type": "Feature", "properties": { "cape": 136.25, "timestamp": "20240805T00" }, "geometry": { "type": "Point", "coordinates": [ -117.25, 55.0 ] } },
{ "type": "Feature", "properties": { "cape": 58.5, "timestamp": "20240805T00" }, "geometry": { "type": "Point", "coordinates": [ -117.0, 50.0 ] } },
{ "type": "Feature", "properties": { "cape": 110.375, "timestamp": "20240805T00" }, "geometry": { "type": "Point", "coordinates": [ -117.0, 50.25 ] } },
{ "type": "Feature", "properties": { "cape": 174.375, "timestamp": "20240805T00" }, "geometry": { "type": "Point", "coordinates": [ -117.0, 50.5 ] } },
{ "type": "Feature", "properties": { "cape": 192.375, "timestamp": "20240805T00" }, "geometry": { "type": "Point", "coordinates": [ -117.0, 50.75 ] } },
{ "type": "Feature", "properties": { "cape": 188.875, "timestamp": "20240805T00" }, "geometry": { "type": "Point", "coordinates": [ -117.0, 51.0 ] } },
{ "type": "Feature", "properties": { "cape": 225.5, "timestamp": "20240805T00" }, "geometry": { "type": "Point", "coordinates": [ -117.0, 51.25 ] } },
{ "type": "Feature", "properties": { "cape": 17.125, "timestamp": "20240805T00" }, "geometry": { "type": "Point", "coordinates": [ -117.0, 51.5 ] } },
{ "type": "Feature", "properties": { "cape": 1.25, "timestamp": "20240805T00" }, "geometry": { "type": "Point", "coordinates": [ -117.0, 51.75 ] } },
{ "type": "Feature", "properties": { "cape": 0.25, "timestamp": "20240805T00" }, "geometry": { "type": "Point", "coordinates": [ -117.0, 52.0 ] } },
{ "type": "Feature", "properties": { "cape": 24.5, "timestamp": "20240805T00" }, "geometry": { "type": "Point", "coordinates": [ -117.0, 52.25 ] } },
{ "type": "Feature", "properties": { "cape": 128.125, "timestamp": "20240805T00" }, "geometry": { "type": "Point", "coordinates": [ -117.0, 52.5 ] } },
{ "type": "Feature", "properties": { "cape": 152.875, "timestamp": "20240805T00" }, "geometry": { "type": "Point", "coordinates": [ -117.0, 52.75 ] } },
{ "type": "Feature", "properties": { "cape": 73.25, "timestamp": "20240805T00" }, "geometry": { "type": "Point", "coordinates": [ -117.0, 53.0 ] } },
{ "type": "Feature", "properties": { "cape": 112.125, "timestamp": "20240805T00" }, "geometry": { "type": "Point", "coordinates": [ -117.0, 53.25 ] } },
{ "type": "Feature", "properties": { "cape": 37.875, "timestamp": "20240805T00" }, "geometry": { "type": "Point", "coordinates": [ -117.0, 53.5 ] } },
{ "type": "Feature", "properties": { "cape": 11.375, "timestamp": "20240805T00" }, "geometry": { "type": "Point", "coordinates": [ -117.0, 53.75 ] } },
{ "type": "Feature", "properties": { "cape": 123.5, "timestamp": "20240805T00" }, "geometry": { "type": "Point", "coordinates": [ -117.0, 54.0 ] } },
{ "type": "Feature", "properties": { "cape": 126.75, "timestamp": "20240805T00" }, "geometry": { "type": "Point", "coordinates": [ -117.0, 54.25 ] } },
{ "type": "Feature", "properties": { "cape": 108.0, "timestamp": "20240805T00" }, "geometry": { "type": "Point", "coordinates": [ -117.0, 54.5 ] } },
{ "type": "Feature", "properties": { "cape": 195.25, "timestamp": "20240805T00" }, "geometry": { "type": "Point", "coordinates": [ -117.0, 54.75 ] } },
{ "type": "Feature", "properties": { "cape": 186.0, "timestamp": "20240805T00" }, "geometry": { "type": "Point", "coordinates": [ -117.0, 55.0 ] } },
{ "type": "Feature", "properties": { "cape": 17.875, "timestamp": "20240805T00" }, "geometry": { "type": "Point", "coordinates": [ -116.75, 50.0 ] } },
{ "type": "Feature", "properties": { "cape": 47.0, "timestamp": "20240805T00" }, "geometry": { "type": "Point", "coordinates": [ -116.75, 50.25 ] } },
{ "type": "Feature", "properties": { "cape": 93.5, "timestamp": "20240805T00" }, "geometry": { "type": "Point", "coordinates": [ -116.75, 50.5 ] } },
{ "type": "Feature", "properties": { "cape": 208.625, "timestamp": "20240805T00" }, "geometry": { "type": "Point", "coordinates": [ -116.75, 50.75 ] } },
{ "type": "Feature", "properties": { "cape": 135.5, "timestamp": "20240805T00" }, "geometry": { "type": "Point", "coordinates": [ -116.75, 51.0 ] } },
{ "type": "Feature", "properties": { "cape": 48.625, "timestamp": "20240805T00" }, "geometry": { "type": "Point", "coordinates": [ -116.75, 51.25 ] } },
{ "type": "Feature", "properties": { "cape": 1.375, "timestamp": "20240805T00" }, "geometry": { "type": "Point", "coordinates": [ -116.75, 51.5 ] } },
{ "type": "Feature", "properties": { "cape": 0.75, "timestamp": "20240805T00" }, "geometry": { "type": "Point", "coordinates": [ -116.75, 51.75 ] } },
{ "type": "Feature", "properties": { "cape": 2.375, "timestamp": "20240805T00" }, "geometry": { "type": "Point", "coordinates": [ -116.75, 52.0 ] } },
{ "type": "Feature", "properties": { "cape": 242.0, "timestamp": "20240805T00" }, "geometry": { "type": "Point", "coordinates": [ -116.75, 52.25 ] } },
{ "type": "Feature", "properties": { "cape": 242.375, "timestamp": "20240805T00" }, "geometry": { "type": "Point", "coordinates": [ -116.75, 52.5 ] } },
{ "type": "Feature", "properties": { "cape": 234.75, "timestamp": "20240805T00" }, "geometry": { "type": "Point", "coordinates": [ -116.75, 52.75 ] } },
{ "type": "Feature", "properties": { "cape": 180.5, "timestamp": "20240805T00" }, "geometry": { "type": "Point", "coordinates": [ -116.75, 53.0 ] } },
{ "type": "Feature", "properties": { "cape": 125.375, "timestamp": "20240805T00" }, "geometry": { "type": "Point", "coordinates": [ -116.75, 53.25 ] } },
{ "type": "Feature", "properties": { "cape": 37.375, "timestamp": "20240805T00" }, "geometry": { "type": "Point", "coordinates": [ -116.75, 53.5 ] } },
{ "type": "Feature", "properties": { "cape": 7.75, "timestamp": "20240805T00" }, "geometry": { "type": "Point", "coordinates": [ -116.75, 53.75 ] } },
{ "type": "Feature", "properties": { "cape": 94.625, "timestamp": "20240805T00" }, "geometry": { "type": "Point", "coordinates": [ -116.75, 54.0 ] } },
{ "type": "Feature", "properties": { "cape": 128.625, "timestamp": "20240805T00" }, "geometry": { "type": "Point", "coordinates": [ -116.75, 54.25 ] } },
{ "type": "Feature", "properties": { "cape": 241.5, "timestamp": "20240805T00" }, "geometry": { "type": "Point", "coordinates": [ -116.75, 54.5 ] } },
{ "type": "Feature", "properties": { "cape": 367.625, "timestamp": "20240805T00" }, "geometry": { "type": "Point", "coordinates": [ -116.75, 54.75 ] } },
{ "type": "Feature", "properties": { "cape": 268.0, "timestamp": "20240805T00" }, "geometry": { "type": "Point", "coordinates": [ -116.75, 55.0 ] } },
{ "type": "Feature", "properties": { "cape": 10.5, "timestamp": "20240805T00" }, "geometry": { "type": "Point", "coordinates": [ -116.5, 50.0 ] } },
{ "type": "Feature", "properties": { "cape": 208.75, "timestamp": "20240805T00" }, "geometry": { "type": "Point", "coordinates": [ -116.5, 50.25 ] } },
{ "type": "Feature", "properties": { "cape": 307.75, "timestamp": "20240805T00" }, "geometry": { "type": "Point", "coordinates": [ -116.5, 50.5 ] } },
{ "type": "Feature", "properties": { "cape": 245.5, "timestamp": "20240805T00" }, "geometry": { "type": "Point", "coordinates": [ -116.5, 50.75 ] } },
{ "type": "Feature", "properties": { "cape": 82.25, "timestamp": "20240805T00" }, "geometry": { "type": "Point", "coordinates": [ -116.5, 51.0 ] } },
{ "type": "Feature", "properties": { "cape": 52.375, "timestamp": "20240805T00" }, "geometry": { "type": "Point", "coordinates": [ -116.5, 51.25 ] } },
{ "type": "Feature", "properties": { "cape": 22.5, "timestamp": "20240805T00" }, "geometry": { "type": "Point", "coordinates": [ -116.5, 51.5 ] } },
{ "type": "Feature", "properties": { "cape": 19.5, "timestamp": "20240805T00" }, "geometry": { "type": "Point", "coordinates": [ -116.5, 51.75 ] } },
{ "type": "Feature", "properties": { "cape": 15.75, "timestamp": "20240805T00" }, "geometry": { "type": "Point", "coordinates": [ -116.5, 52.0 ] } },
{ "type": "Feature", "properties": { "cape": 318.5, "timestamp": "20240805T00" }, "geometry": { "type": "Point", "coordinates": [ -116.5, 52.25 ] } },
{ "type": "Feature", "properties": { "cape": 567.375, "timestamp": "20240805T00" }, "geometry": { "type": "Point", "coordinates": [ -116.5, 52.5 ] } },
{ "type": "Feature", "properties": { "cape": 303.875, "timestamp": "20240805T00" }, "geometry": { "type": "Point", "coordinates": [ -116.5, 52.75 ] } },
{ "type": "Feature", "properties": { "cape": 268.5, "timestamp": "20240805T00" }, "geometry": { "type": "Point", "coordinates": [ -116.5, 53.0 ] } },
{ "type": "Feature", "properties": { "cape": 160.375, "timestamp": "20240805T00" }, "geometry": { "type": "Point", "coordinates": [ -116.5, 53.25 ] } },
{ "type": "Feature", "properties": { "cape": 35.625, "timestamp": "20240805T00" }, "geometry": { "type": "Point", "coordinates": [ -116.5, 53.5 ] } },
{ "type": "Feature", "properties": { "cape": 6.375, "timestamp": "20240805T00" }, "geometry": { "type": "Point", "coordinates": [ -116.5, 53.75 ] } },
{ "type": "Feature", "properties": { "cape": 40.875, "timestamp": "20240805T00" }, "geometry": { "type": "Point", "coordinates": [ -116.5, 54.0 ] } },
{ "type": "Feature", "properties": { "cape": 110.25, "timestamp": "20240805T00" }, "geometry": { "type": "Point", "coordinates": [ -116.5, 54.25 ] } },
{ "type": "Feature", "properties": { "cape": 289.125, "timestamp": "20240805T00" }, "geometry": { "type": "Point", "coordinates": [ -116.5, 54.5 ] } },
{ "type": "Feature", "properties": { "cape": 415.75, "timestamp": "20240805T00" }, "geometry": { "type": "Point", "coordinates": [ -116.5, 54.75 ] } },
{ "type": "Feature", "properties": { "cape": 301.625, "timestamp": "20240805T00" }, "geometry": { "type": "Point", "coordinates": [ -116.5, 55.0 ] } },
{ "type": "Feature", "properties": { "cape": 30.25, "timestamp": "20240805T00" }, "geometry": { "type": "Point", "coordinates": [ -116.25, 50.0 ] } },
{ "type": "Feature", "properties": { "cape": 235.625, "timestamp": "20240805T00" }, "geometry": { "type": "Point", "coordinates": [ -116.25, 50.25 ] } },
{ "type": "Feature", "properties": { "cape": 582.5, "timestamp": "20240805T00" }, "geometry": { "type": "Point", "coordinates": [ -116.25, 50.5 ] } },
{ "type": "Feature", "properties": { "cape": 338.125, "timestamp": "20240805T00" }, "geometry": { "type": "Point", "coordinates": [ -116.25, 50.75 ] } },
{ "type": "Feature", "properties": { "cape": 35.0, "timestamp": "20240805T00" }, "geometry": { "type": "Point", "coordinates": [ -116.25, 51.0 ] } },
{ "type": "Feature", "properties": { "cape": 158.75, "timestamp": "20240805T00" }, "geometry": { "type": "Point", "coordinates": [ -116.25, 51.25 ] } },
{ "type": "Feature", "properties": { "cape": 85.25, "timestamp": "20240805T00" }, "geometry": { "type": "Point", "coordinates": [ -116.25, 51.5 ] } },
{ "type": "Feature", "properties": { "cape": 19.375, "timestamp": "20240805T00" }, "geometry": { "type": "Point", "coordinates": [ -116.25, 51.75 ] } },
{ "type": "Feature", "properties": { "cape": 102.875, "timestamp": "20240805T00" }, "geometry": { "type": "Point", "coordinates": [ -116.25, 52.0 ] } },
{ "type": "Feature", "properties": { "cape": 484.875, "timestamp": "20240805T00" }, "geometry": { "type": "Point", "coordinates": [ -116.25, 52.25 ] } },
{ "type": "Feature", "properties": { "cape": 599.75, "timestamp": "20240805T00" }, "geometry": { "type": "Point", "coordinates": [ -116.25, 52.5 ] } },
{ "type": "Feature", "properties": { "cape": 358.625, "timestamp": "20240805T00" }, "geometry": { "type": "Point", "coordinates": [ -116.25, 52.75 ] } },
{ "type": "Feature", "properties": { "cape": 207.0, "timestamp": "20240805T00" }, "geometry": { "type": "Point", "coordinates": [ -116.25, 53.0 ] } },
{ "type": "Feature", "properties": { "cape": 297.375, "timestamp": "20240805T00" }, "geometry": { "type": "Point", "coordinates": [ -116.25, 53.25 ] } },
{ "type": "Feature", "properties": { "cape": 45.625, "timestamp": "20240805T00" }, "geometry": { "type": "Point", "coordinates": [ -116.25, 53.5 ] } },
{ "type": "Feature", "properties": { "cape": 51.5, "timestamp": "20240805T00" }, "geometry": { "type": "Point", "coordinates": [ -116.25, 53.75 ] } },
{ "type": "Feature", "properties": { "cape": 62.75, "timestamp": "20240805T00" }, "geometry": { "type": "Point", "coordinates": [ -116.25, 54.0 ] } },
{ "type": "Feature", "properties": { "cape": 132.0, "timestamp": "20240805T00" }, "geometry": { "type": "Point", "coordinates": [ -116.25, 54.25 ] } },
{ "type": "Feature", "properties": { "cape": 312.375, "timestamp": "20240805T00" }, "geometry": { "type": "Point", "coordinates": [ -116.25, 54.5 ] } },
{ "type": "Feature", "properties": { "cape": 457.625, "timestamp": "20240805T00" }, "geometry": { "type": "Point", "coordinates": [ -116.25, 54.75 ] } },
{ "type": "Feature", "properties": { "cape": 351.125, "timestamp": "20240805T00" }, "geometry": { "type": "Point", "coordinates": [ -116.25, 55.0 ] } },
{ "type": "Feature", "properties": { "cape": 17.875, "timestamp": "20240805T00" }, "geometry": { "type": "Point", "coordinates": [ -116.0, 50.0 ] } },
{ "type": "Feature", "properties": { "cape": 218.875, "timestamp": "20240805T00" }, "geometry": { "type": "Point", "coordinates": [ -116.0, 50.25 ] } },
{ "type": "Feature", "properties": { "cape": 287.125, "timestamp": "20240805T00" }, "geometry": { "type": "Point", "coordinates": [ -116.0, 50.5 ] } },
{ "type": "Feature", "properties": { "cape": 139.5, "timestamp": "20240805T00" }, "geometry": { "type": "Point", "coordinates": [ -116.0, 50.75 ] } },
{ "type": "Feature", "properties": { "cape": 20.125, "timestamp": "20240805T00" }, "geometry": { "type": "Point", "coordinates": [ -116.0, 51.0 ] } },
{ "type": "Feature", "properties": { "cape": 232.0, "timestamp": "20240805T00" }, "geometry": { "type": "Point", "coordinates": [ -116.0, 51.25 ] } },
{ "type": "Feature", "properties": { "cape": 96.125, "timestamp": "20240805T00" }, "geometry": { "type": "Point", "coordinates": [ -116.0, 51.5 ] } },
{ "type": "Feature", "properties": { "cape": 155.0, "timestamp": "20240805T00" }, "geometry": { "type": "Point", "coordinates": [ -116.0, 51.75 ] } },
{ "type": "Feature", "properties": { "cape": 278.0, "timestamp": "20240805T00" }, "geometry": { "type": "Point", "coordinates": [ -116.0, 52.0 ] } },
{ "type": "Feature", "properties": { "cape": 450.375, "timestamp": "20240805T00" }, "geometry": { "type": "Point", "coordinates": [ -116.0, 52.25 ] } },
{ "type": "Feature", "properties": { "cape": 497.625, "timestamp": "20240805T00" }, "geometry": { "type": "Point", "coordinates": [ -116.0, 52.5 ] } },
{ "type": "Feature", "properties": { "cape": 403.625, "timestamp": "20240805T00" }, "geometry": { "type": "Point", "coordinates": [ -116.0, 52.75 ] } },
{ "type": "Feature", "properties": { "cape": 232.0, "timestamp": "20240805T00" }, "geometry": { "type": "Point", "coordinates": [ -116.0, 53.0 ] } },
{ "type": "Feature", "properties": { "cape": 321.25, "timestamp": "20240805T00" }, "geometry": { "type": "Point", "coordinates": [ -116.0, 53.25 ] } },
{ "type": "Feature", "properties": { "cape": 56.125, "timestamp": "20240805T00" }, "geometry": { "type": "Point", "coordinates": [ -116.0, 53.5 ] } },
{ "type": "Feature", "properties": { "cape": 70.25, "timestamp": "20240805T00" }, "geometry": { "type": "Point", "coordinates": [ -116.0, 53.75 ] } },
{ "type": "Feature", "properties": { "cape": 81.375, "timestamp": "20240805T00" }, "geometry": { "type": "Point", "coordinates": [ -116.0, 54.0 ] } },
{ "type": "Feature", "properties": { "cape": 93.0, "timestamp": "20240805T00" }, "geometry": { "type": "Point", "coordinates": [ -116.0, 54.25 ] } },
{ "type": "Feature", "properties": { "cape": 250.75, "timestamp": "20240805T00" }, "geometry": { "type": "Point", "coordinates": [ -116.0, 54.5 ] } },
{ "type": "Feature", "properties": { "cape": 365.625, "timestamp": "20240805T00" }, "geometry": { "type": "Point", "coordinates": [ -116.0, 54.75 ] } },
{ "type": "Feature", "properties": { "cape": 355.125, "timestamp": "20240805T00" }, "geometry": { "type": "Point", "coordinates": [ -116.0, 55.0 ] } },
{ "type": "Feature", "properties": { "cape": 19.25, "timestamp": "20240805T00" }, "geometry": { "type": "Point", "coordinates": [ -115.75, 50.0 ] } },
{ "type": "Feature", "properties": { "cape": 52.25, "timestamp": "20240805T00" }, "geometry": { "type": "Point", "coordinates": [ -115.75, 50.25 ] } },
{ "type": "Feature", "properties": { "cape": 69.5, "timestamp": "20240805T00" }, "geometry": { "type": "Point", "coordinates": [ -115.75, 50.5 ] } },
{ "type": "Feature", "properties": { "cape": 38.125, "timestamp": "20240805T00" }, "geometry": { "type": "Point", "coordinates": [ -115.75, 50.75 ] } },
{ "type": "Feature", "properties": { "cape": 16.75, "timestamp": "20240805T00" }, "geometry": { "type": "Point", "coordinates": [ -115.75, 51.0 ] } },
{ "type": "Feature", "properties": { "cape": 256.25, "timestamp": "20240805T00" }, "geometry": { "type": "Point", "coordinates": [ -115.75, 51.25 ] } },
{ "type": "Feature", "properties": { "cape": 171.125, "timestamp": "20240805T00" }, "geometry": { "type": "Point", "coordinates": [ -115.75, 51.5 ] } },
{ "type": "Feature", "properties": { "cape": 241.5, "timestamp": "20240805T00" }, "geometry": { "type": "Point", "coordinates": [ -115.75, 51.75 ] } },
{ "type": "Feature", "properties": { "cape": 289.75, "timestamp": "20240805T00" }, "geometry": { "type": "Point", "coordinates": [ -115.75, 52.0 ] } },
{ "type": "Feature", "properties": { "cape": 377.625, "timestamp": "20240805T00" }, "geometry": { "type": "Point", "coordinates": [ -115.75, 52.25 ] } },
{ "type": "Feature", "properties": { "cape": 450.0, "timestamp": "20240805T00" }, "geometry": { "type": "Point", "coordinates": [ -115.75, 52.5 ] } },
{ "type": "Feature", "properties": { "cape": 400.625, "timestamp": "20240805T00" }, "geometry": { "type": "Point", "coordinates": [ -115.75, 52.75 ] } },
{ "type": "Feature", "properties": { "cape": 457.5, "timestamp": "20240805T00" }, "geometry": { "type": "Point", "coordinates": [ -115.75, 53.0 ] } },
{ "type": "Feature", "properties": { "cape": 175.25, "timestamp": "20240805T00" }, "geometry": { "type": "Point", "coordinates": [ -115.75, 53.25 ] } },
{ "type": "Feature", "properties": { "cape": 110.375, "timestamp": "20240805T00" }, "geometry": { "type": "Point", "coordinates": [ -115.75, 53.5 ] } },
{ "type": "Feature", "properties": { "cape": 36.375, "timestamp": "20240805T00" }, "geometry": { "type": "Point", "coordinates": [ -115.75, 53.75 ] } },
{ "type": "Feature", "properties": { "cape": 88.625, "timestamp": "20240805T00" }, "geometry": { "type": "Point", "coordinates": [ -115.75, 54.0 ] } },
{ "type": "Feature", "properties": { "cape": 90.0, "timestamp": "20240805T00" }, "geometry": { "type": "Point", "coordinates": [ -115.75, 54.25 ] } },
{ "type": "Feature", "properties": { "cape": 60.375, "timestamp": "20240805T00" }, "geometry": { "type": "Point", "coordinates": [ -115.75, 54.5 ] } },
{ "type": "Feature", "properties": { "cape": 163.875, "timestamp": "20240805T00" }, "geometry": { "type": "Point", "coordinates": [ -115.75, 54.75 ] } },
{ "type": "Feature", "properties": { "cape": 386.25, "timestamp": "20240805T00" }, "geometry": { "type": "Point", "coordinates": [ -115.75, 55.0 ] } },
{ "type": "Feature", "properties": { "cape": 40.375, "timestamp": "20240805T00" }, "geometry": { "type": "Point", "coordinates": [ -115.5, 50.0 ] } },
{ "type": "Feature", "properties": { "cape": 90.125, "timestamp": "20240805T00" }, "geometry": { "type": "Point", "coordinates": [ -115.5, 50.25 ] } },
{ "type": "Feature", "properties": { "cape": 99.625, "timestamp": "20240805T00" }, "geometry": { "type": "Point", "coordinates": [ -115.5, 50.5 ] } },
{ "type": "Feature", "properties": { "cape": 56.875, "timestamp": "20240805T00" }, "geometry": { "type": "Point", "coordinates": [ -115.5, 50.75 ] } },
{ "type": "Feature", "properties": { "cape": 20.375, "timestamp": "20240805T00" }, "geometry": { "type": "Point", "coordinates": [ -115.5, 51.0 ] } },
{ "type": "Feature", "properties": { "cape": 188.875, "timestamp": "20240805T00" }, "geometry": { "type": "Point", "coordinates": [ -115.5, 51.25 ] } },
{ "type": "Feature", "properties": { "cape": 433.625, "timestamp": "20240805T00" }, "geometry": { "type": "Point", "coordinates": [ -115.5, 51.5 ] } },
{ "type": "Feature", "properties": { "cape": 695.625, "timestamp": "20240805T00" }, "geometry": { "type": "Point", "coordinates": [ -115.5, 51.75 ] } },
{ "type": "Feature", "properties": { "cape": 657.375, "timestamp": "20240805T00" }, "geometry": { "type": "Point", "coordinates": [ -115.5, 52.0 ] } },
{ "type": "Feature", "properties": { "cape": 565.25, "timestamp": "20240805T00" }, "geometry": { "type": "Point", "coordinates": [ -115.5, 52.25 ] } },
{ "type": "Feature", "properties": { "cape": 504.25, "timestamp": "20240805T00" }, "geometry": { "type": "Point", "coordinates": [ -115.5, 52.5 ] } },
{ "type": "Feature", "properties": { "cape": 642.0, "timestamp": "20240805T00" }, "geometry": { "type": "Point", "coordinates": [ -115.5, 52.75 ] } },
{ "type": "Feature", "properties": { "cape": 686.5, "timestamp": "20240805T00" }, "geometry": { "type": "Point", "coordinates": [ -115.5, 53.0 ] } },
{ "type": "Feature", "properties": { "cape": 133.375, "timestamp": "20240805T00" }, "geometry": { "type": "Point", "coordinates": [ -115.5, 53.25 ] } },
{ "type": "Feature", "properties": { "cape": 121.25, "timestamp": "20240805T00" }, "geometry": { "type": "Point", "coordinates": [ -115.5, 53.5 ] } },
{ "type": "Feature", "properties": { "cape": 57.5, "timestamp": "20240805T00" }, "geometry": { "type": "Point", "coordinates": [ -115.5, 53.75 ] } },
{ "type": "Feature", "properties": { "cape": 105.5, "timestamp": "20240805T00" }, "geometry": { "type": "Point", "coordinates": [ -115.5, 54.0 ] } },
{ "type": "Feature", "properties": { "cape": 110.375, "timestamp": "20240805T00" }, "geometry": { "type": "Point", "coordinates": [ -115.5, 54.25 ] } },
{ "type": "Feature", "properties": { "cape": 74.125, "timestamp": "20240805T00" }, "geometry": { "type": "Point", "coordinates": [ -115.5, 54.5 ] } },
{ "type": "Feature", "properties": { "cape": 174.25, "timestamp": "20240805T00" }, "geometry": { "type": "Point", "coordinates": [ -115.5, 54.75 ] } },
{ "type": "Feature", "properties": { "cape": 410.0, "timestamp": "20240805T00" }, "geometry": { "type": "Point", "coordinates": [ -115.5, 55.0 ] } },
{ "type": "Feature", "properties": { "cape": 198.625, "timestamp": "20240805T00" }, "geometry": { "type": "Point", "coordinates": [ -115.25, 50.0 ] } },
{ "type": "Feature", "properties": { "cape": 247.625, "timestamp": "20240805T00" }, "geometry": { "type": "Point", "coordinates": [ -115.25, 50.25 ] } },
{ "type": "Feature", "properties": { "cape": 337.0, "timestamp": "20240805T00" }, "geometry": { "type": "Point", "coordinates": [ -115.25, 50.5 ] } },
{ "type": "Feature", "properties": { "cape": 381.375, "timestamp": "20240805T00" }, "geometry": { "type": "Point", "coordinates": [ -115.25, 50.75 ] } },
{ "type": "Feature", "properties": { "cape": 328.25, "timestamp": "20240805T00" }, "geometry": { "type": "Point", "coordinates": [ -115.25, 51.0 ] } },
{ "type": "Feature", "properties": { "cape": 227.5, "timestamp": "20240805T00" }, "geometry": { "type": "Point", "coordinates": [ -115.25, 51.25 ] } },
{ "type": "Feature", "properties": { "cape": 403.5, "timestamp": "20240805T00" }, "geometry": { "type": "Point", "coordinates": [ -115.25, 51.5 ] } },
{ "type": "Feature", "properties": { "cape": 509.625, "timestamp": "20240805T00" }, "geometry": { "type": "Point", "coordinates": [ -115.25, 51.75 ] } },
{ "type": "Feature", "properties": { "cape": 1615.625, "timestamp": "20240805T00" }, "geometry": { "type": "Point", "coordinates": [ -115.25, 52.0 ] } },
{ "type": "Feature", "properties": { "cape": 1496.375, "timestamp": "20240805T00" }, "geometry": { "type": "Point", "coordinates": [ -115.25, 52.25 ] } },
{ "type": "Feature", "properties": { "cape": 1081.125, "timestamp": "20240805T00" }, "geometry": { "type": "Point", "coordinates": [ -115.25, 52.5 ] } },
{ "type": "Feature", "properties": { "cape": 959.0, "timestamp": "20240805T00" }, "geometry": { "type": "Point", "coordinates": [ -115.25, 52.75 ] } },
{ "type": "Feature", "properties": { "cape": 917.5, "timestamp": "20240805T00" }, "geometry": { "type": "Point", "coordinates": [ -115.25, 53.0 ] } },
{ "type": "Feature", "properties": { "cape": 125.0, "timestamp": "20240805T00" }, "geometry": { "type": "Point", "coordinates": [ -115.25, 53.25 ] } },
{ "type": "Feature", "properties": { "cape": 103.5, "timestamp": "20240805T00" }, "geometry": { "type": "Point", "coordinates": [ -115.25, 53.5 ] } },
{ "type": "Feature", "properties": { "cape": 101.5, "timestamp": "20240805T00" }, "geometry": { "type": "Point", "coordinates": [ -115.25, 53.75 ] } },
{ "type": "Feature", "properties": { "cape": 132.75, "timestamp": "20240805T00" }, "geometry": { "type": "Point", "coordinates": [ -115.25, 54.0 ] } },
{ "type": "Feature", "properties": { "cape": 126.375, "timestamp": "20240805T00" }, "geometry": { "type": "Point", "coordinates": [ -115.25, 54.25 ] } },
{ "type": "Feature", "properties": { "cape": 97.875, "timestamp": "20240805T00" }, "geometry": { "type": "Point", "coordinates": [ -115.25, 54.5 ] } },
{ "type": "Feature", "properties": { "cape": 181.125, "timestamp": "20240805T00" }, "geometry": { "type": "Point", "coordinates": [ -115.25, 54.75 ] } },
{ "type": "Feature", "properties": { "cape": 414.625, "timestamp": "20240805T00" }, "geometry": { "type": "Point", "coordinates": [ -115.25, 55.0 ] } },
{ "type": "Feature", "properties": { "cape": 278.0, "timestamp": "20240805T00" }, "geometry": { "type": "Point", "coordinates": [ -115.0, 50.0 ] } },
{ "type": "Feature", "properties": { "cape": 466.625, "timestamp": "20240805T00" }, "geometry": { "type": "Point", "coordinates": [ -115.0, 50.25 ] } },
{ "type": "Feature", "properties": { "cape": 557.75, "timestamp": "20240805T00" }, "geometry": { "type": "Point", "coordinates": [ -115.0, 50.5 ] } },
{ "type": "Feature", "properties": { "cape": 856.5, "timestamp": "20240805T00" }, "geometry": { "type": "Point", "coordinates": [ -115.0, 50.75 ] } },
{ "type": "Feature", "properties": { "cape": 786.25, "timestamp": "20240805T00" }, "geometry": { "type": "Point", "coordinates": [ -115.0, 51.0 ] } },
{ "type": "Feature", "properties": { "cape": 401.875, "timestamp": "20240805T00" }, "geometry": { "type": "Point", "coordinates": [ -115.0, 51.25 ] } },
{ "type": "Feature", "properties": { "cape": 225.125, "timestamp": "20240805T00" }, "geometry": { "type": "Point", "coordinates": [ -115.0, 51.5 ] } },
{ "type": "Feature", "properties": { "cape": 188.0, "timestamp": "20240805T00" }, "geometry": { "type": "Point", "coordinates": [ -115.0, 51.75 ] } },
{ "type": "Feature", "properties": { "cape": 962.5, "timestamp": "20240805T00" }, "geometry": { "type": "Point", "coordinates": [ -115.0, 52.0 ] } },
{ "type": "Feature", "properties": { "cape": 1529.25, "timestamp": "20240805T00" }, "geometry": { "type": "Point", "coordinates": [ -115.0, 52.25 ] } },
{ "type": "Feature", "properties": { "cape": 1213.625, "timestamp": "20240805T00" }, "geometry": { "type": "Point", "coordinates": [ -115.0, 52.5 ] } },
{ "type": "Feature", "properties": { "cape": 798.0, "timestamp": "20240805T00" }, "geometry": { "type": "Point", "coordinates": [ -115.0, 52.75 ] } },
{ "type": "Feature", "properties": { "cape": 684.25, "timestamp": "20240805T00" }, "geometry": { "type": "Point", "coordinates": [ -115.0, 53.0 ] } },
{ "type": "Feature", "properties": { "cape": 138.625, "timestamp": "20240805T00" }, "geometry": { "type": "Point", "coordinates": [ -115.0, 53.25 ] } },
{ "type": "Feature", "properties": { "cape": 137.375, "timestamp": "20240805T00" }, "geometry": { "type": "Point", "coordinates": [ -115.0, 53.5 ] } },
{ "type": "Feature", "properties": { "cape": 147.5, "timestamp": "20240805T00" }, "geometry": { "type": "Point", "coordinates": [ -115.0, 53.75 ] } },
{ "type": "Feature", "properties": { "cape": 175.0, "timestamp": "20240805T00" }, "geometry": { "type": "Point", "coordinates": [ -115.0, 54.0 ] } },
{ "type": "Feature", "properties": { "cape": 160.875, "timestamp": "20240805T00" }, "geometry": { "type": "Point", "coordinates": [ -115.0, 54.25 ] } },
{ "type": "Feature", "properties": { "cape": 155.25, "timestamp": "20240805T00" }, "geometry": { "type": "Point", "coordinates": [ -115.0, 54.5 ] } },
{ "type": "Feature", "properties": { "cape": 297.625, "timestamp": "20240805T00" }, "geometry": { "type": "Point", "coordinates": [ -115.0, 54.75 ] } },
{ "type": "Feature", "properties": { "cape": 442.125, "timestamp": "20240805T00" }, "geometry": { "type": "Point", "coordinates": [ -115.0, 55.0 ] } },
{ "type": "Feature", "properties": { "cape": 232.875, "timestamp": "20240805T00" }, "geometry": { "type": "Point", "coordinates": [ -114.75, 50.0 ] } },
{ "type": "Feature", "properties": { "cape": 230.125, "timestamp": "20240805T00" }, "geometry": { "type": "Point", "coordinates": [ -114.75, 50.25 ] } },
{ "type": "Feature", "properties": { "cape": 334.875, "timestamp": "20240805T00" }, "geometry": { "type": "Point", "coordinates": [ -114.75, 50.5 ] } },
{ "type": "Feature", "properties": { "cape": 1213.5, "timestamp": "20240805T00" }, "geometry": { "type": "Point", "coordinates": [ -114.75, 50.75 ] } },
{ "type": "Feature", "properties": { "cape": 759.625, "timestamp": "20240805T00" }, "geometry": { "type": "Point", "coordinates": [ -114.75, 51.0 ] } },
{ "type": "Feature", "properties": { "cape": 404.875, "timestamp": "20240805T00" }, "geometry": { "type": "Point", "coordinates": [ -114.75, 51.25 ] } },
{ "type": "Feature", "properties": { "cape": 209.625, "timestamp": "20240805T00" }, "geometry": { "type": "Point", "coordinates": [ -114.75, 51.5 ] } },
{ "type": "Feature", "properties": { "cape": 175.25, "timestamp": "20240805T00" }, "geometry": { "type": "Point", "coordinates": [ -114.75, 51.75 ] } },
{ "type": "Feature", "properties": { "cape": 220.5, "timestamp": "20240805T00" }, "geometry": { "type": "Point", "coordinates": [ -114.75, 52.0 ] } },
{ "type": "Feature", "properties": { "cape": 581.25, "timestamp": "20240805T00" }, "geometry": { "type": "Point", "coordinates": [ -114.75, 52.25 ] } },
{ "type": "Feature", "properties": { "cape": 477.5, "timestamp": "20240805T00" }, "geometry": { "type": "Point", "coordinates": [ -114.75, 52.5 ] } },
{ "type": "Feature", "properties": { "cape": 479.75, "timestamp": "20240805T00" }, "geometry": { "type": "Point", "coordinates": [ -114.75, 52.75 ] } },
{ "type": "Feature", "properties": { "cape": 301.375, "timestamp": "20240805T00" }, "geometry": { "type": "Point", "coordinates": [ -114.75, 53.0 ] } },
{ "type": "Feature", "properties": { "cape": 143.125, "timestamp": "20240805T00" }, "geometry": { "type": "Point", "coordinates": [ -114.75, 53.25 ] } },
{ "type": "Feature", "properties": { "cape": 192.5, "timestamp": "20240805T00" }, "geometry": { "type": "Point", "coordinates": [ -114.75, 53.5 ] } },
{ "type": "Feature", "properties": { "cape": 197.625, "timestamp": "20240805T00" }, "geometry": { "type": "Point", "coordinates": [ -114.75, 53.75 ] } },
{ "type": "Feature", "properties": { "cape": 200.625, "timestamp": "20240805T00" }, "geometry": { "type": "Point", "coordinates": [ -114.75, 54.0 ] } },
{ "type": "Feature", "properties": { "cape": 173.625, "timestamp": "20240805T00" }, "geometry": { "type": "Point", "coordinates": [ -114.75, 54.25 ] } },
{ "type": "Feature", "properties": { "cape": 242.0, "timestamp": "20240805T00" }, "geometry": { "type": "Point", "coordinates": [ -114.75, 54.5 ] } },
{ "type": "Feature", "properties": { "cape": 383.875, "timestamp": "20240805T00" }, "geometry": { "type": "Point", "coordinates": [ -114.75, 54.75 ] } },
{ "type": "Feature", "properties": { "cape": 379.125, "timestamp": "20240805T00" }, "geometry": { "type": "Point", "coordinates": [ -114.75, 55.0 ] } },
{ "type": "Feature", "properties": { "cape": 86.375, "timestamp": "20240805T00" }, "geometry": { "type": "Point", "coordinates": [ -114.5, 50.0 ] } },
{ "type": "Feature", "properties": { "cape": 84.5, "timestamp": "20240805T00" }, "geometry": { "type": "Point", "coordinates": [ -114.5, 50.25 ] } },
{ "type": "Feature", "properties": { "cape": 152.375, "timestamp": "20240805T00" }, "geometry": { "type": "Point", "coordinates": [ -114.5, 50.5 ] } },
{ "type": "Feature", "properties": { "cape": 1244.875, "timestamp": "20240805T00" }, "geometry": { "type": "Point", "coordinates": [ -114.5, 50.75 ] } },
{ "type": "Feature", "properties": { "cape": 604.875, "timestamp": "20240805T00" }, "geometry": { "type": "Point", "coordinates": [ -114.5, 51.0 ] } },
{ "type": "Feature", "properties": { "cape": 342.25, "timestamp": "20240805T00" }, "geometry": { "type": "Point", "coordinates": [ -114.5, 51.25 ] } },
{ "type": "Feature", "properties": { "cape": 140.375, "timestamp": "20240805T00" }, "geometry": { "type": "Point", "coordinates": [ -114.5, 51.5 ] } },
{ "type": "Feature", "properties": { "cape": 155.5, "timestamp": "20240805T00" }, "geometry": { "type": "Point", "coordinates": [ -114.5, 51.75 ] } },
{ "type": "Feature", "properties": { "cape": 193.625, "timestamp": "20240805T00" }, "geometry": { "type": "Point", "coordinates": [ -114.5, 52.0 ] } },
{ "type": "Feature", "properties": { "cape": 205.875, "timestamp": "20240805T00" }, "geometry": { "type": "Point", "coordinates": [ -114.5, 52.25 ] } },
{ "type": "Feature", "properties": { "cape": 205.625, "timestamp": "20240805T00" }, "geometry": { "type": "Point", "coordinates": [ -114.5, 52.5 ] } },
{ "type": "Feature", "properties": { "cape": 306.5, "timestamp": "20240805T00" }, "geometry": { "type": "Point", "coordinates": [ -114.5, 52.75 ] } },
{ "type": "Feature", "properties": { "cape": 156.125, "timestamp": "20240805T00" }, "geometry": { "type": "Point", "coordinates": [ -114.5, 53.0 ] } },
{ "type": "Feature", "properties": { "cape": 101.5, "timestamp": "20240805T00" }, "geometry": { "type": "Point", "coordinates": [ -114.5, 53.25 ] } },
{ "type": "Feature", "properties": { "cape": 146.125, "timestamp": "20240805T00" }, "geometry": { "type": "Point", "coordinates": [ -114.5, 53.5 ] } },
{ "type": "Feature", "properties": { "cape": 180.875, "timestamp": "20240805T00" }, "geometry": { "type": "Point", "coordinates": [ -114.5, 53.75 ] } },
{ "type": "Feature", "properties": { "cape": 164.5, "timestamp": "20240805T00" }, "geometry": { "type": "Point", "coordinates": [ -114.5, 54.0 ] } },
{ "type": "Feature", "properties": { "cape": 136.25, "timestamp": "20240805T00" }, "geometry": { "type": "Point", "coordinates": [ -114.5, 54.25 ] } },
{ "type": "Feature", "properties": { "cape": 202.625, "timestamp": "20240805T00" }, "geometry": { "type": "Point", "coordinates": [ -114.5, 54.5 ] } },
{ "type": "Feature", "properties": { "cape": 342.25, "timestamp": "20240805T00" }, "geometry": { "type": "Point", "coordinates": [ -114.5, 54.75 ] } },
{ "type": "Feature", "properties": { "cape": 338.25, "timestamp": "20240805T00" }, "geometry": { "type": "Point", "coordinates": [ -114.5, 55.0 ] } },
{ "type": "Feature", "properties": { "cape": 94.25, "timestamp": "20240805T00" }, "geometry": { "type": "Point", "coordinates": [ -114.25, 50.0 ] } },
{ "type": "Feature", "properties": { "cape": 131.875, "timestamp": "20240805T00" }, "geometry": { "type": "Point", "coordinates": [ -114.25, 50.25 ] } },
{ "type": "Feature", "properties": { "cape": 129.625, "timestamp": "20240805T00" }, "geometry": { "type": "Point", "coordinates": [ -114.25, 50.5 ] } },
{ "type": "Feature", "properties": { "cape": 499.75, "timestamp": "20240805T00" }, "geometry": { "type": "Point", "coordinates": [ -114.25, 50.75 ] } },
{ "type": "Feature", "properties": { "cape": 177.375, "timestamp": "20240805T00" }, "geometry": { "type": "Point", "coordinates": [ -114.25, 51.0 ] } },
{ "type": "Feature", "properties": { "cape": 131.625, "timestamp": "20240805T00" }, "geometry": { "type": "Point", "coordinates": [ -114.25, 51.25 ] } },
{ "type": "Feature", "properties": { "cape": 73.875, "timestamp": "20240805T00" }, "geometry": { "type": "Point", "coordinates": [ -114.25, 51.5 ] } },
{ "type": "Feature", "properties": { "cape": 110.125, "timestamp": "20240805T00" }, "geometry": { "type": "Point", "coordinates": [ -114.25, 51.75 ] } },
{ "type": "Feature", "properties": { "cape": 150.375, "timestamp": "20240805T00" }, "geometry": { "type": "Point", "coordinates": [ -114.25, 52.0 ] } },
{ "type": "Feature", "properties": { "cape": 201.5, "timestamp": "20240805T00" }, "geometry": { "type": "Point", "coordinates": [ -114.25, 52.25 ] } },
{ "type": "Feature", "properties": { "cape": 224.0, "timestamp": "20240805T00" }, "geometry": { "type": "Point", "coordinates": [ -114.25, 52.5 ] } },
{ "type": "Feature", "properties": { "cape": 147.875, "timestamp": "20240805T00" }, "geometry": { "type": "Point", "coordinates": [ -114.25, 52.75 ] } },
{ "type": "Feature", "properties": { "cape": 56.25, "timestamp": "20240805T00" }, "geometry": { "type": "Point", "coordinates": [ -114.25, 53.0 ] } },
{ "type": "Feature", "properties": { "cape": 70.125, "timestamp": "20240805T00" }, "geometry": { "type": "Point", "coordinates": [ -114.25, 53.25 ] } },
{ "type": "Feature", "properties": { "cape": 110.125, "timestamp": "20240805T00" }, "geometry": { "type": "Point", "coordinates": [ -114.25, 53.5 ] } },
{ "type": "Feature", "properties": { "cape": 171.375, "timestamp": "20240805T00" }, "geometry": { "type": "Point", "coordinates": [ -114.25, 53.75 ] } },
{ "type": "Feature", "properties": { "cape": 148.125, "timestamp": "20240805T00" }, "geometry": { "type": "Point", "coordinates": [ -114.25, 54.0 ] } },
{ "type": "Feature", "properties": { "cape": 109.25, "timestamp": "20240805T00" }, "geometry": { "type": "Point", "coordinates": [ -114.25, 54.25 ] } },
{ "type": "Feature", "properties": { "cape": 178.375, "timestamp": "20240805T00" }, "geometry": { "type": "Point", "coordinates": [ -114.25, 54.5 ] } },
{ "type": "Feature", "properties": { "cape": 282.25, "timestamp": "20240805T00" }, "geometry": { "type": "Point", "coordinates": [ -114.25, 54.75 ] } },
{ "type": "Feature", "properties": { "cape": 278.625, "timestamp": "20240805T00" }, "geometry": { "type": "Point", "coordinates": [ -114.25, 55.0 ] } },
{ "type": "Feature", "properties": { "cape": 106.625, "timestamp": "20240805T00" }, "geometry": { "type": "Point", "coordinates": [ -114.0, 50.0 ] } },
{ "type": "Feature", "properties": { "cape": 99.125, "timestamp": "20240805T00" }, "geometry": { "type": "Point", "coordinates": [ -114.0, 50.25 ] } },
{ "type": "Feature", "properties": { "cape": 102.75, "timestamp": "20240805T00" }, "geometry": { "type": "Point", "coordinates": [ -114.0, 50.5 ] } },
{ "type": "Feature", "properties": { "cape": 196.375, "timestamp": "20240805T00" }, "geometry": { "type": "Point", "coordinates": [ -114.0, 50.75 ] } },
{ "type": "Feature", "properties": { "cape": 24.25, "timestamp": "20240805T00" }, "geometry": { "type": "Point", "coordinates": [ -114.0, 51.0 ] } },
{ "type": "Feature", "properties": { "cape": 23.25, "timestamp": "20240805T00" }, "geometry": { "type": "Point", "coordinates": [ -114.0, 51.25 ] } },
{ "type": "Feature", "properties": { "cape": 92.625, "timestamp": "20240805T00" }, "geometry": { "type": "Point", "coordinates": [ -114.0, 51.5 ] } },
{ "type": "Feature", "properties": { "cape": 124.75, "timestamp": "20240805T00" }, "geometry": { "type": "Point", "coordinates": [ -114.0, 51.75 ] } },
{ "type": "Feature", "properties": { "cape": 114.25, "timestamp": "20240805T00" }, "geometry": { "type": "Point", "coordinates": [ -114.0, 52.0 ] } },
{ "type": "Feature", "properties": { "cape": 173.25, "timestamp": "20240805T00" }, "geometry": { "type": "Point", "coordinates": [ -114.0, 52.25 ] } },
{ "type": "Feature", "properties": { "cape": 188.375, "timestamp": "20240805T00" }, "geometry": { "type": "Point", "coordinates": [ -114.0, 52.5 ] } },
{ "type": "Feature", "properties": { "cape": 110.0, "timestamp": "20240805T00" }, "geometry": { "type": "Point", "coordinates": [ -114.0, 52.75 ] } },
{ "type": "Feature", "properties": { "cape": 54.5, "timestamp": "20240805T00" }, "geometry": { "type": "Point", "coordinates": [ -114.0, 53.0 ] } },
{ "type": "Feature", "properties": { "cape": 65.0, "timestamp": "20240805T00" }, "geometry": { "type": "Point", "coordinates": [ -114.0, 53.25 ] } },
{ "type": "Feature", "properties": { "cape": 105.5, "timestamp": "20240805T00" }, "geometry": { "type": "Point", "coordinates": [ -114.0, 53.5 ] } },
{ "type": "Feature", "properties": { "cape": 101.375, "timestamp": "20240805T00" }, "geometry": { "type": "Point", "coordinates": [ -114.0, 53.75 ] } },
{ "type": "Feature", "properties": { "cape": 97.25, "timestamp": "20240805T00" }, "geometry": { "type": "Point", "coordinates": [ -114.0, 54.0 ] } },
{ "type": "Feature", "properties": { "cape": 89.375, "timestamp": "20240805T00" }, "geometry": { "type": "Point", "coordinates": [ -114.0, 54.25 ] } },
{ "type": "Feature", "properties": { "cape": 128.0, "timestamp": "20240805T00" }, "geometry": { "type": "Point", "coordinates": [ -114.0, 54.5 ] } },
{ "type": "Feature", "properties": { "cape": 181.25, "timestamp": "20240805T00" }, "geometry": { "type": "Point", "coordinates": [ -114.0, 54.75 ] } },
{ "type": "Feature", "properties": { "cape": 199.625, "timestamp": "20240805T00" }, "geometry": { "type": "Point", "coordinates": [ -114.0, 55.0 ] } },
{ "type": "Feature", "properties": { "cape": 70.375, "timestamp": "20240805T00" }, "geometry": { "type": "Point", "coordinates": [ -113.75, 50.0 ] } },
{ "type": "Feature", "properties": { "cape": 33.625, "timestamp": "20240805T00" }, "geometry": { "type": "Point", "coordinates": [ -113.75, 50.25 ] } },
{ "type": "Feature", "properties": { "cape": 23.0, "timestamp": "20240805T00" }, "geometry": { "type": "Point", "coordinates": [ -113.75, 50.5 ] } },
{ "type": "Feature", "properties": { "cape": 11.75, "timestamp": "20240805T00" }, "geometry": { "type": "Point", "coordinates": [ -113.75, 50.75 ] } },
{ "type": "Feature", "properties": { "cape": 0.75, "timestamp": "20240805T00" }, "geometry": { "type": "Point", "coordinates": [ -113.75, 51.0 ] } },
{ "type": "Feature", "properties": { "cape": 56.0, "timestamp": "20240805T00" }, "geometry": { "type": "Point", "coordinates": [ -113.75, 51.25 ] } },
{ "type": "Feature", "properties": { "cape": 138.5, "timestamp": "20240805T00" }, "geometry": { "type": "Point", "coordinates": [ -113.75, 51.5 ] } },
{ "type": "Feature", "properties": { "cape": 122.625, "timestamp": "20240805T00" }, "geometry": { "type": "Point", "coordinates": [ -113.75, 51.75 ] } },
{ "type": "Feature", "properties": { "cape": 107.625, "timestamp": "20240805T00" }, "geometry": { "type": "Point", "coordinates": [ -113.75, 52.0 ] } },
{ "type": "Feature", "properties": { "cape": 143.75, "timestamp": "20240805T00" }, "geometry": { "type": "Point", "coordinates": [ -113.75, 52.25 ] } },
{ "type": "Feature", "properties": { "cape": 151.875, "timestamp": "20240805T00" }, "geometry": { "type": "Point", "coordinates": [ -113.75, 52.5 ] } },
{ "type": "Feature", "properties": { "cape": 94.875, "timestamp": "20240805T00" }, "geometry": { "type": "Point", "coordinates": [ -113.75, 52.75 ] } },
{ "type": "Feature", "properties": { "cape": 49.5, "timestamp": "20240805T00" }, "geometry": { "type": "Point", "coordinates": [ -113.75, 53.0 ] } },
{ "type": "Feature", "properties": { "cape": 59.375, "timestamp": "20240805T00" }, "geometry": { "type": "Point", "coordinates": [ -113.75, 53.25 ] } },
{ "type": "Feature", "properties": { "cape": 87.875, "timestamp": "20240805T00" }, "geometry": { "type": "Point", "coordinates": [ -113.75, 53.5 ] } },
{ "type": "Feature", "properties": { "cape": 73.125, "timestamp": "20240805T00" }, "geometry": { "type": "Point", "coordinates": [ -113.75, 53.75 ] } },
{ "type": "Feature", "properties": { "cape": 62.5, "timestamp": "20240805T00" }, "geometry": { "type": "Point", "coordinates": [ -113.75, 54.0 ] } },
{ "type": "Feature", "properties": { "cape": 57.75, "timestamp": "20240805T00" }, "geometry": { "type": "Point", "coordinates": [ -113.75, 54.25 ] } },
{ "type": "Feature", "properties": { "cape": 66.875, "timestamp": "20240805T00" }, "geometry": { "type": "Point", "coordinates": [ -113.75, 54.5 ] } },
{ "type": "Feature", "properties": { "cape": 120.5, "timestamp": "20240805T00" }, "geometry": { "type": "Point", "coordinates": [ -113.75, 54.75 ] } },
{ "type": "Feature", "properties": { "cape": 151.0, "timestamp": "20240805T00" }, "geometry": { "type": "Point", "coordinates": [ -113.75, 55.0 ] } },
{ "type": "Feature", "properties": { "cape": 59.0, "timestamp": "20240805T00" }, "geometry": { "type": "Point", "coordinates": [ -113.5, 50.0 ] } },
{ "type": "Feature", "properties": { "cape": 19.875, "timestamp": "20240805T00" }, "geometry": { "type": "Point", "coordinates": [ -113.5, 50.25 ] } },
{ "type": "Feature", "properties": { "cape": 12.0, "timestamp": "20240805T00" }, "geometry": { "type": "Point", "coordinates": [ -113.5, 50.5 ] } },
{ "type": "Feature", "properties": { "cape": 9.5, "timestamp": "20240805T00" }, "geometry": { "type": "Point", "coordinates": [ -113.5, 50.75 ] } },
{ "type": "Feature", "properties": { "cape": 26.375, "timestamp": "20240805T00" }, "geometry": { "type": "Point", "coordinates": [ -113.5, 51.0 ] } },
{ "type": "Feature", "properties": { "cape": 19.375, "timestamp": "20240805T00" }, "geometry": { "type": "Point", "coordinates": [ -113.5, 51.25 ] } },
{ "type": "Feature", "properties": { "cape": 72.875, "timestamp": "20240805T00" }, "geometry": { "type": "Point", "coordinates": [ -113.5, 51.5 ] } },
{ "type": "Feature", "properties": { "cape": 86.375, "timestamp": "20240805T00" }, "geometry": { "type": "Point", "coordinates": [ -113.5, 51.75 ] } },
{ "type": "Feature", "properties": { "cape": 111.25, "timestamp": "20240805T00" }, "geometry": { "type": "Point", "coordinates": [ -113.5, 52.0 ] } },
{ "type": "Feature", "properties": { "cape": 150.5, "timestamp": "20240805T00" }, "geometry": { "type": "Point", "coordinates": [ -113.5, 52.25 ] } },
{ "type": "Feature", "properties": { "cape": 125.625, "timestamp": "20240805T00" }, "geometry": { "type": "Point", "coordinates": [ -113.5, 52.5 ] } },
{ "type": "Feature", "properties": { "cape": 48.375, "timestamp": "20240805T00" }, "geometry": { "type": "Point", "coordinates": [ -113.5, 52.75 ] } },
{ "type": "Feature", "properties": { "cape": 39.75, "timestamp": "20240805T00" }, "geometry": { "type": "Point", "coordinates": [ -113.5, 53.0 ] } },
{ "type": "Feature", "properties": { "cape": 53.0, "timestamp": "20240805T00" }, "geometry": { "type": "Point", "coordinates": [ -113.5, 53.25 ] } },
{ "type": "Feature", "properties": { "cape": 51.0, "timestamp": "20240805T00" }, "geometry": { "type": "Point", "coordinates": [ -113.5, 53.5 ] } },
{ "type": "Feature", "properties": { "cape": 44.5, "timestamp": "20240805T00" }, "geometry": { "type": "Point", "coordinates": [ -113.5, 53.75 ] } },
{ "type": "Feature", "properties": { "cape": 31.125, "timestamp": "20240805T00" }, "geometry": { "type": "Point", "coordinates": [ -113.5, 54.0 ] } },
{ "type": "Feature", "properties": { "cape": 28.0, "timestamp": "20240805T00" }, "geometry": { "type": "Point", "coordinates": [ -113.5, 54.25 ] } },
{ "type": "Feature", "properties": { "cape": 38.375, "timestamp": "20240805T00" }, "geometry": { "type": "Point", "coordinates": [ -113.5, 54.5 ] } },
{ "type": "Feature", "properties": { "cape": 62.75, "timestamp": "20240805T00" }, "geometry": { "type": "Point", "coordinates": [ -113.5, 54.75 ] } },
{ "type": "Feature", "properties": { "cape": 50.625, "timestamp": "20240805T00" }, "geometry": { "type": "Point", "coordinates": [ -113.5, 55.0 ] } },
{ "type": "Feature", "properties": { "cape": 57.0, "timestamp": "20240805T00" }, "geometry": { "type": "Point", "coordinates": [ -113.25, 50.0 ] } },
{ "type": "Feature", "properties": { "cape": 10.125, "timestamp": "20240805T00" }, "geometry": { "type": "Point", "coordinates": [ -113.25, 50.25 ] } },
{ "type": "Feature", "properties": { "cape": 2.0, "timestamp": "20240805T00" }, "geometry": { "type": "Point", "coordinates": [ -113.25, 50.5 ] } },
{ "type": "Feature", "properties": { "cape": 16.5, "timestamp": "20240805T00" }, "geometry": { "type": "Point", "coordinates": [ -113.25, 50.75 ] } },
{ "type": "Feature", "properties": { "cape": 35.25, "timestamp": "20240805T00" }, "geometry": { "type": "Point", "coordinates": [ -113.25, 51.0 ] } },
{ "type": "Feature", "properties": { "cape": 3.0, "timestamp": "20240805T00" }, "geometry": { "type": "Point", "coordinates": [ -113.25, 51.25 ] } },
{ "type": "Feature", "properties": { "cape": 11.75, "timestamp": "20240805T00" }, "geometry": { "type": "Point", "coordinates": [ -113.25, 51.5 ] } },
{ "type": "Feature", "properties": { "cape": 29.0, "timestamp": "20240805T00" }, "geometry": { "type": "Point", "coordinates": [ -113.25, 51.75 ] } },
{ "type": "Feature", "properties": { "cape": 89.875, "timestamp": "20240805T00" }, "geometry": { "type": "Point", "coordinates": [ -113.25, 52.0 ] } },
{ "type": "Feature", "properties": { "cape": 131.25, "timestamp": "20240805T00" }, "geometry": { "type": "Point", "coordinates": [ -113.25, 52.25 ] } },
{ "type": "Feature", "properties": { "cape": 110.375, "timestamp": "20240805T00" }, "geometry": { "type": "Point", "coordinates": [ -113.25, 52.5 ] } },
{ "type": "Feature", "properties": { "cape": 20.5, "timestamp": "20240805T00" }, "geometry": { "type": "Point", "coordinates": [ -113.25, 52.75 ] } },
{ "type": "Feature", "properties": { "cape": 37.125, "timestamp": "20240805T00" }, "geometry": { "type": "Point", "coordinates": [ -113.25, 53.0 ] } },
{ "type": "Feature", "properties": { "cape": 46.125, "timestamp": "20240805T00" }, "geometry": { "type": "Point", "coordinates": [ -113.25, 53.25 ] } },
{ "type": "Feature", "properties": { "cape": 39.375, "timestamp": "20240805T00" }, "geometry": { "type": "Point", "coordinates": [ -113.25, 53.5 ] } },
{ "type": "Feature", "properties": { "cape": 27.625, "timestamp": "20240805T00" }, "geometry": { "type": "Point", "coordinates": [ -113.25, 53.75 ] } },
{ "type": "Feature", "properties": { "cape": 14.375, "timestamp": "20240805T00" }, "geometry": { "type": "Point", "coordinates": [ -113.25, 54.0 ] } },
{ "type": "Feature", "properties": { "cape": 16.0, "timestamp": "20240805T00" }, "geometry": { "type": "Point", "coordinates": [ -113.25, 54.25 ] } },
{ "type": "Feature", "properties": { "cape": 29.625, "timestamp": "20240805T00" }, "geometry": { "type": "Point", "coordinates": [ -113.25, 54.5 ] } },
{ "type": "Feature", "properties": { "cape": 33.75, "timestamp": "20240805T00" }, "geometry": { "type": "Point", "coordinates": [ -113.25, 54.75 ] } },
{ "type": "Feature", "properties": { "cape": 23.375, "timestamp": "20240805T00" }, "geometry": { "type": "Point", "coordinates": [ -113.25, 55.0 ] } },
{ "type": "Feature", "properties": { "cape": 57.375, "timestamp": "20240805T00" }, "geometry": { "type": "Point", "coordinates": [ -113.0, 50.0 ] } },
{ "type": "Feature", "properties": { "cape": 3.125, "timestamp": "20240805T00" }, "geometry": { "type": "Point", "coordinates": [ -113.0, 50.25 ] } },
{ "type": "Feature", "properties": { "cape": 2.375, "timestamp": "20240805T00" }, "geometry": { "type": "Point", "coordinates": [ -113.0, 50.5 ] } },
{ "type": "Feature", "properties": { "cape": 59.5, "timestamp": "20240805T00" }, "geometry": { "type": "Point", "coordinates": [ -113.0, 50.75 ] } },
{ "type": "Feature", "properties": { "cape": 8.125, "timestamp": "20240805T00" }, "geometry": { "type": "Point", "coordinates": [ -113.0, 51.0 ] } },
{ "type": "Feature", "properties": { "cape": 0.75, "timestamp": "20240805T00" }, "geometry": { "type": "Point", "coordinates": [ -113.0, 51.25 ] } },
{ "type": "Feature", "properties": { "cape": 0.75, "timestamp": "20240805T00" }, "geometry": { "type": "Point", "coordinates": [ -113.0, 51.5 ] } },
{ "type": "Feature", "properties": { "cape": 31.5, "timestamp": "20240805T00" }, "geometry": { "type": "Point", "coordinates": [ -113.0, 51.75 ] } },
{ "type": "Feature", "properties": { "cape": 86.0, "timestamp": "20240805T00" }, "geometry": { "type": "Point", "coordinates": [ -113.0, 52.0 ] } },
{ "type": "Feature", "properties": { "cape": 112.125, "timestamp": "20240805T00" }, "geometry": { "type": "Point", "coordinates": [ -113.0, 52.25 ] } },
{ "type": "Feature", "properties": { "cape": 84.5, "timestamp": "20240805T00" }, "geometry": { "type": "Point", "coordinates": [ -113.0, 52.5 ] } },
{ "type": "Feature", "properties": { "cape": 8.125, "timestamp": "20240805T00" }, "geometry": { "type": "Point", "coordinates": [ -113.0, 52.75 ] } },
{ "type": "Feature", "properties": { "cape": 41.375, "timestamp": "20240805T00" }, "geometry": { "type": "Point", "coordinates": [ -113.0, 53.0 ] } },
{ "type": "Feature", "properties": { "cape": 38.875, "timestamp": "20240805T00" }, "geometry": { "type": "Point", "coordinates": [ -113.0, 53.25 ] } },
{ "type": "Feature", "properties": { "cape": 33.375, "timestamp": "20240805T00" }, "geometry": { "type": "Point", "coordinates": [ -113.0, 53.5 ] } },
{ "type": "Feature", "properties": { "cape": 19.125, "timestamp": "20240805T00" }, "geometry": { "type": "Point", "coordinates": [ -113.0, 53.75 ] } },
{ "type": "Feature", "properties": { "cape": 10.25, "timestamp": "20240805T00" }, "geometry": { "type": "Point", "coordinates": [ -113.0, 54.0 ] } },
{ "type": "Feature", "properties": { "cape": 12.625, "timestamp": "20240805T00" }, "geometry": { "type": "Point", "coordinates": [ -113.0, 54.25 ] } },
{ "type": "Feature", "properties": { "cape": 20.5, "timestamp": "20240805T00" }, "geometry": { "type": "Point", "coordinates": [ -113.0, 54.5 ] } },
{ "type": "Feature", "properties": { "cape": 21.375, "timestamp": "20240805T00" }, "geometry": { "type": "Point", "coordinates": [ -113.0, 54.75 ] } },
{ "type": "Feature", "properties": { "cape": 14.25, "timestamp": "20240805T00" }, "geometry": { "type": "Point", "coordinates": [ -113.0, 55.0 ] } },
{ "type": "Feature", "properties": { "cape": 55.625, "timestamp": "20240805T00" }, "geometry": { "type": "Point", "coordinates": [ -112.75, 50.0 ] } },
{ "type": "Feature", "properties": { "cape": 1.25, "timestamp": "20240805T00" }, "geometry": { "type": "Point", "coordinates": [ -112.75, 50.25 ] } },
{ "type": "Feature", "properties": { "cape": 7.125, "timestamp": "20240805T00" }, "geometry": { "type": "Point", "coordinates": [ -112.75, 50.5 ] } },
{ "type": "Feature", "properties": { "cape": 43.75, "timestamp": "20240805T00" }, "geometry": { "type": "Point", "coordinates": [ -112.75, 50.75 ] } },
{ "type": "Feature", "properties": { "cape": 0.125, "timestamp": "20240805T00" }, "geometry": { "type": "Point", "coordinates": [ -112.75, 51.0 ] } },
{ "type": "Feature", "properties": { "cape": 0.0, "timestamp": "20240805T00" }, "geometry": { "type": "Point", "coordinates": [ -112.75, 51.25 ] } },
{ "type": "Feature", "properties": { "cape": 1.75, "timestamp": "20240805T00" }, "geometry": { "type": "Point", "coordinates": [ -112.75, 51.5 ] } },
{ "type": "Feature", "properties": { "cape": 35.5, "timestamp": "20240805T00" }, "geometry": { "type": "Point", "coordinates": [ -112.75, 51.75 ] } },
{ "type": "Feature", "properties": { "cape": 82.125, "timestamp": "20240805T00" }, "geometry": { "type": "Point", "coordinates": [ -112.75, 52.0 ] } },
{ "type": "Feature", "properties": { "cape": 118.75, "timestamp": "20240805T00" }, "geometry": { "type": "Point", "coordinates": [ -112.75, 52.25 ] } },
{ "type": "Feature", "properties": { "cape": 77.0, "timestamp": "20240805T00" }, "geometry": { "type": "Point", "coordinates": [ -112.75, 52.5 ] } },
{ "type": "Feature", "properties": { "cape": 8.625, "timestamp": "20240805T00" }, "geometry": { "type": "Point", "coordinates": [ -112.75, 52.75 ] } },
{ "type": "Feature", "properties": { "cape": 35.25, "timestamp": "20240805T00" }, "geometry": { "type": "Point", "coordinates": [ -112.75, 53.0 ] } },
{ "type": "Feature", "properties": { "cape": 26.0, "timestamp": "20240805T00" }, "geometry": { "type": "Point", "coordinates": [ -112.75, 53.25 ] } },
{ "type": "Feature", "properties": { "cape": 25.25, "timestamp": "20240805T00" }, "geometry": { "type": "Point", "coordinates": [ -112.75, 53.5 ] } },
{ "type": "Feature", "properties": { "cape": 15.875, "timestamp": "20240805T00" }, "geometry": { "type": "Point", "coordinates": [ -112.75, 53.75 ] } },
{ "type": "Feature", "properties": { "cape": 22.75, "timestamp": "20240805T00" }, "geometry": { "type": "Point", "coordinates": [ -112.75, 54.0 ] } },
{ "type": "Feature", "properties": { "cape": 8.0, "timestamp": "20240805T00" }, "geometry": { "type": "Point", "coordinates": [ -112.75, 54.25 ] } },
{ "type": "Feature", "properties": { "cape": 14.5, "timestamp": "20240805T00" }, "geometry": { "type": "Point", "coordinates": [ -112.75, 54.5 ] } },
{ "type": "Feature", "properties": { "cape": 15.5, "timestamp": "20240805T00" }, "geometry": { "type": "Point", "coordinates": [ -112.75, 54.75 ] } },
{ "type": "Feature", "properties": { "cape": 7.375, "timestamp": "20240805T00" }, "geometry": { "type": "Point", "coordinates": [ -112.75, 55.0 ] } }
]
}
