{
"type": "FeatureCollection",
"name": "geojson_cape_points_20260608T02",
"crs": { "type": "name", "properties": { "name": "urn:ogc:def:crs:OGC:1.3:CRS84" } },
"features": [
{ "type": "Feature", "properties": { "cape": 1037.0, "timestamp": "20260608T02" }, "geometry": { "type": "Point", "coordinates": [ -103.75, 49.25 ] } },
{ "type": "Feature", "properties": { "cape": 1213.75, "timestamp": "20260608T02" }, "geometry": { "type": "Point", "coordinates": [ -103.75, 49.5 ] } },
{ "type": "Feature", "properties": { "cape": 1080.25, "timestamp": "20260608T02" }, "geometry": { "type": "Point", "coordinates": [ -103.75, 49.75 ] } },
{ "type": "Feature", "properties": { "cape": 758.25, "timestamp": "20260608T02" }, "geometry": { "type": "Point", "coordinates": [ -103.75, 50.0 ] } },
{ "type": "Feature", "properties": { "cape": 463.25, "timestamp": "20260608T02" }, "geometry": { "type": "Point", "coordinates": [ -103.75, 50.25 ] } },
{ "type": "Feature", "properties": { "cape": 276.25, "timestamp": "20260608T02" }, "geometry": { "type": "Point", "coordinates": [ -103.75, 50.5 ] } },
{ "type": "Feature", "properties": { "cape": 294.0, "timestamp": "20260608T02" }, "geometry": { "type": "Point", "coordinates": [ -103.75, 50.75 ] } },
{ "type": "Feature", "properties": { "cape": 280.5, "timestamp": "20260608T02" }, "geometry": { "type": "Point", "coordinates": [ -103.75, 51.0 ] } },
{ "type": "Feature", "properties": { "cape": 252.5, "timestamp": "20260608T02" }, "geometry": { "type": "Point", "coordinates": [ -103.75, 51.25 ] } },
{ "type": "Feature", "properties": { "cape": 245.25, "timestamp": "20260608T02" }, "geometry": { "type": "Point", "coordinates": [ -103.75, 51.5 ] } },
{ "type": "Feature", "properties": { "cape": 231.5, "timestamp": "20260608T02" }, "geometry": { "type": "Point", "coordinates": [ -103.75, 51.75 ] } },
{ "type": "Feature", "properties": { "cape": 259.25, "timestamp": "20260608T02" }, "geometry": { "type": "Point", "coordinates": [ -103.75, 52.0 ] } },
{ "type": "Feature", "properties": { "cape": 490.5, "timestamp": "20260608T02" }, "geometry": { "type": "Point", "coordinates": [ -103.75, 52.25 ] } },
{ "type": "Feature", "properties": { "cape": 467.0, "timestamp": "20260608T02" }, "geometry": { "type": "Point", "coordinates": [ -103.75, 52.5 ] } },
{ "type": "Feature", "properties": { "cape": 471.5, "timestamp": "20260608T02" }, "geometry": { "type": "Point", "coordinates": [ -103.75, 52.75 ] } },
{ "type": "Feature", "properties": { "cape": 446.75, "timestamp": "20260608T02" }, "geometry": { "type": "Point", "coordinates": [ -103.75, 53.0 ] } },
{ "type": "Feature", "properties": { "cape": 171.5, "timestamp": "20260608T02" }, "geometry": { "type": "Point", "coordinates": [ -103.75, 53.25 ] } },
{ "type": "Feature", "properties": { "cape": 157.25, "timestamp": "20260608T02" }, "geometry": { "type": "Point", "coordinates": [ -103.75, 53.5 ] } },
{ "type": "Feature", "properties": { "cape": 93.5, "timestamp": "20260608T02" }, "geometry": { "type": "Point", "coordinates": [ -103.75, 53.75 ] } },
{ "type": "Feature", "properties": { "cape": 10.75, "timestamp": "20260608T02" }, "geometry": { "type": "Point", "coordinates": [ -103.75, 54.0 ] } },
{ "type": "Feature", "properties": { "cape": 0.0, "timestamp": "20260608T02" }, "geometry": { "type": "Point", "coordinates": [ -103.75, 54.25 ] } },
{ "type": "Feature", "properties": { "cape": 1146.75, "timestamp": "20260608T02" }, "geometry": { "type": "Point", "coordinates": [ -103.5, 49.25 ] } },
{ "type": "Feature", "properties": { "cape": 1137.0, "timestamp": "20260608T02" }, "geometry": { "type": "Point", "coordinates": [ -103.5, 49.5 ] } },
{ "type": "Feature", "properties": { "cape": 1046.25, "timestamp": "20260608T02" }, "geometry": { "type": "Point", "coordinates": [ -103.5, 49.75 ] } },
{ "type": "Feature", "properties": { "cape": 918.25, "timestamp": "20260608T02" }, "geometry": { "type": "Point", "coordinates": [ -103.5, 50.0 ] } },
{ "type": "Feature", "properties": { "cape": 637.75, "timestamp": "20260608T02" }, "geometry": { "type": "Point", "coordinates": [ -103.5, 50.25 ] } },
{ "type": "Feature", "properties": { "cape": 484.75, "timestamp": "20260608T02" }, "geometry": { "type": "Point", "coordinates": [ -103.5, 50.5 ] } },
{ "type": "Feature", "properties": { "cape": 417.0, "timestamp": "20260608T02" }, "geometry": { "type": "Point", "coordinates": [ -103.5, 50.75 ] } },
{ "type": "Feature", "properties": { "cape": 394.5, "timestamp": "20260608T02" }, "geometry": { "type": "Point", "coordinates": [ -103.5, 51.0 ] } },
{ "type": "Feature", "properties": { "cape": 405.75, "timestamp": "20260608T02" }, "geometry": { "type": "Point", "coordinates": [ -103.5, 51.25 ] } },
{ "type": "Feature", "properties": { "cape": 378.5, "timestamp": "20260608T02" }, "geometry": { "type": "Point", "coordinates": [ -103.5, 51.5 ] } },
{ "type": "Feature", "properties": { "cape": 315.0, "timestamp": "20260608T02" }, "geometry": { "type": "Point", "coordinates": [ -103.5, 51.75 ] } },
{ "type": "Feature", "properties": { "cape": 304.5, "timestamp": "20260608T02" }, "geometry": { "type": "Point", "coordinates": [ -103.5, 52.0 ] } },
{ "type": "Feature", "properties": { "cape": 323.75, "timestamp": "20260608T02" }, "geometry": { "type": "Point", "coordinates": [ -103.5, 52.25 ] } },
{ "type": "Feature", "properties": { "cape": 413.75, "timestamp": "20260608T02" }, "geometry": { "type": "Point", "coordinates": [ -103.5, 52.5 ] } },
{ "type": "Feature", "properties": { "cape": 490.5, "timestamp": "20260608T02" }, "geometry": { "type": "Point", "coordinates": [ -103.5, 52.75 ] } },
{ "type": "Feature", "properties": { "cape": 484.0, "timestamp": "20260608T02" }, "geometry": { "type": "Point", "coordinates": [ -103.5, 53.0 ] } },
{ "type": "Feature", "properties": { "cape": 262.0, "timestamp": "20260608T02" }, "geometry": { "type": "Point", "coordinates": [ -103.5, 53.25 ] } },
{ "type": "Feature", "properties": { "cape": 277.75, "timestamp": "20260608T02" }, "geometry": { "type": "Point", "coordinates": [ -103.5, 53.5 ] } },
{ "type": "Feature", "properties": { "cape": 100.75, "timestamp": "20260608T02" }, "geometry": { "type": "Point", "coordinates": [ -103.5, 53.75 ] } },
{ "type": "Feature", "properties": { "cape": 15.5, "timestamp": "20260608T02" }, "geometry": { "type": "Point", "coordinates": [ -103.5, 54.0 ] } },
{ "type": "Feature", "properties": { "cape": 0.25, "timestamp": "20260608T02" }, "geometry": { "type": "Point", "coordinates": [ -103.5, 54.25 ] } },
{ "type": "Feature", "properties": { "cape": 1101.25, "timestamp": "20260608T02" }, "geometry": { "type": "Point", "coordinates": [ -103.25, 49.25 ] } },
{ "type": "Feature", "properties": { "cape": 1084.75, "timestamp": "20260608T02" }, "geometry": { "type": "Point", "coordinates": [ -103.25, 49.5 ] } },
{ "type": "Feature", "properties": { "cape": 1060.25, "timestamp": "20260608T02" }, "geometry": { "type": "Point", "coordinates": [ -103.25, 49.75 ] } },
{ "type": "Feature", "properties": { "cape": 932.0, "timestamp": "20260608T02" }, "geometry": { "type": "Point", "coordinates": [ -103.25, 50.0 ] } },
{ "type": "Feature", "properties": { "cape": 798.5, "timestamp": "20260608T02" }, "geometry": { "type": "Point", "coordinates": [ -103.25, 50.25 ] } },
{ "type": "Feature", "properties": { "cape": 656.75, "timestamp": "20260608T02" }, "geometry": { "type": "Point", "coordinates": [ -103.25, 50.5 ] } },
{ "type": "Feature", "properties": { "cape": 526.5, "timestamp": "20260608T02" }, "geometry": { "type": "Point", "coordinates": [ -103.25, 50.75 ] } },
{ "type": "Feature", "properties": { "cape": 498.25, "timestamp": "20260608T02" }, "geometry": { "type": "Point", "coordinates": [ -103.25, 51.0 ] } },
{ "type": "Feature", "properties": { "cape": 522.0, "timestamp": "20260608T02" }, "geometry": { "type": "Point", "coordinates": [ -103.25, 51.25 ] } },
{ "type": "Feature", "properties": { "cape": 465.25, "timestamp": "20260608T02" }, "geometry": { "type": "Point", "coordinates": [ -103.25, 51.5 ] } },
{ "type": "Feature", "properties": { "cape": 398.75, "timestamp": "20260608T02" }, "geometry": { "type": "Point", "coordinates": [ -103.25, 51.75 ] } },
{ "type": "Feature", "properties": { "cape": 344.5, "timestamp": "20260608T02" }, "geometry": { "type": "Point", "coordinates": [ -103.25, 52.0 ] } },
{ "type": "Feature", "properties": { "cape": 334.75, "timestamp": "20260608T02" }, "geometry": { "type": "Point", "coordinates": [ -103.25, 52.25 ] } },
{ "type": "Feature", "properties": { "cape": 408.0, "timestamp": "20260608T02" }, "geometry": { "type": "Point", "coordinates": [ -103.25, 52.5 ] } },
{ "type": "Feature", "properties": { "cape": 488.25, "timestamp": "20260608T02" }, "geometry": { "type": "Point", "coordinates": [ -103.25, 52.75 ] } },
{ "type": "Feature", "properties": { "cape": 468.75, "timestamp": "20260608T02" }, "geometry": { "type": "Point", "coordinates": [ -103.25, 53.0 ] } },
{ "type": "Feature", "properties": { "cape": 349.0, "timestamp": "20260608T02" }, "geometry": { "type": "Point", "coordinates": [ -103.25, 53.25 ] } },
{ "type": "Feature", "properties": { "cape": 344.5, "timestamp": "20260608T02" }, "geometry": { "type": "Point", "coordinates": [ -103.25, 53.5 ] } },
{ "type": "Feature", "properties": { "cape": 201.5, "timestamp": "20260608T02" }, "geometry": { "type": "Point", "coordinates": [ -103.25, 53.75 ] } },
{ "type": "Feature", "properties": { "cape": 80.25, "timestamp": "20260608T02" }, "geometry": { "type": "Point", "coordinates": [ -103.25, 54.0 ] } },
{ "type": "Feature", "properties": { "cape": 2.25, "timestamp": "20260608T02" }, "geometry": { "type": "Point", "coordinates": [ -103.25, 54.25 ] } },
{ "type": "Feature", "properties": { "cape": 878.75, "timestamp": "20260608T02" }, "geometry": { "type": "Point", "coordinates": [ -103.0, 49.25 ] } },
{ "type": "Feature", "properties": { "cape": 849.0, "timestamp": "20260608T02" }, "geometry": { "type": "Point", "coordinates": [ -103.0, 49.5 ] } },
{ "type": "Feature", "properties": { "cape": 836.25, "timestamp": "20260608T02" }, "geometry": { "type": "Point", "coordinates": [ -103.0, 49.75 ] } },
{ "type": "Feature", "properties": { "cape": 787.25, "timestamp": "20260608T02" }, "geometry": { "type": "Point", "coordinates": [ -103.0, 50.0 ] } },
{ "type": "Feature", "properties": { "cape": 775.75, "timestamp": "20260608T02" }, "geometry": { "type": "Point", "coordinates": [ -103.0, 50.25 ] } },
{ "type": "Feature", "properties": { "cape": 674.25, "timestamp": "20260608T02" }, "geometry": { "type": "Point", "coordinates": [ -103.0, 50.5 ] } },
{ "type": "Feature", "properties": { "cape": 613.75, "timestamp": "20260608T02" }, "geometry": { "type": "Point", "coordinates": [ -103.0, 50.75 ] } },
{ "type": "Feature", "properties": { "cape": 582.0, "timestamp": "20260608T02" }, "geometry": { "type": "Point", "coordinates": [ -103.0, 51.0 ] } },
{ "type": "Feature", "properties": { "cape": 562.75, "timestamp": "20260608T02" }, "geometry": { "type": "Point", "coordinates": [ -103.0, 51.25 ] } },
{ "type": "Feature", "properties": { "cape": 487.0, "timestamp": "20260608T02" }, "geometry": { "type": "Point", "coordinates": [ -103.0, 51.5 ] } },
{ "type": "Feature", "properties": { "cape": 425.25, "timestamp": "20260608T02" }, "geometry": { "type": "Point", "coordinates": [ -103.0, 51.75 ] } },
{ "type": "Feature", "properties": { "cape": 373.75, "timestamp": "20260608T02" }, "geometry": { "type": "Point", "coordinates": [ -103.0, 52.0 ] } },
{ "type": "Feature", "properties": { "cape": 366.25, "timestamp": "20260608T02" }, "geometry": { "type": "Point", "coordinates": [ -103.0, 52.25 ] } },
{ "type": "Feature", "properties": { "cape": 388.75, "timestamp": "20260608T02" }, "geometry": { "type": "Point", "coordinates": [ -103.0, 52.5 ] } },
{ "type": "Feature", "properties": { "cape": 485.0, "timestamp": "20260608T02" }, "geometry": { "type": "Point", "coordinates": [ -103.0, 52.75 ] } },
{ "type": "Feature", "properties": { "cape": 450.5, "timestamp": "20260608T02" }, "geometry": { "type": "Point", "coordinates": [ -103.0, 53.0 ] } },
{ "type": "Feature", "properties": { "cape": 427.0, "timestamp": "20260608T02" }, "geometry": { "type": "Point", "coordinates": [ -103.0, 53.25 ] } },
{ "type": "Feature", "properties": { "cape": 388.0, "timestamp": "20260608T02" }, "geometry": { "type": "Point", "coordinates": [ -103.0, 53.5 ] } },
{ "type": "Feature", "properties": { "cape": 259.75, "timestamp": "20260608T02" }, "geometry": { "type": "Point", "coordinates": [ -103.0, 53.75 ] } },
{ "type": "Feature", "properties": { "cape": 96.75, "timestamp": "20260608T02" }, "geometry": { "type": "Point", "coordinates": [ -103.0, 54.0 ] } },
{ "type": "Feature", "properties": { "cape": 5.0, "timestamp": "20260608T02" }, "geometry": { "type": "Point", "coordinates": [ -103.0, 54.25 ] } },
{ "type": "Feature", "properties": { "cape": 844.75, "timestamp": "20260608T02" }, "geometry": { "type": "Point", "coordinates": [ -102.75, 49.25 ] } },
{ "type": "Feature", "properties": { "cape": 917.0, "timestamp": "20260608T02" }, "geometry": { "type": "Point", "coordinates": [ -102.75, 49.5 ] } },
{ "type": "Feature", "properties": { "cape": 903.75, "timestamp": "20260608T02" }, "geometry": { "type": "Point", "coordinates": [ -102.75, 49.75 ] } },
{ "type": "Feature", "properties": { "cape": 801.75, "timestamp": "20260608T02" }, "geometry": { "type": "Point", "coordinates": [ -102.75, 50.0 ] } },
{ "type": "Feature", "properties": { "cape": 790.25, "timestamp": "20260608T02" }, "geometry": { "type": "Point", "coordinates": [ -102.75, 50.25 ] } },
{ "type": "Feature", "properties": { "cape": 724.5, "timestamp": "20260608T02" }, "geometry": { "type": "Point", "coordinates": [ -102.75, 50.5 ] } },
{ "type": "Feature", "properties": { "cape": 682.75, "timestamp": "20260608T02" }, "geometry": { "type": "Point", "coordinates": [ -102.75, 50.75 ] } },
{ "type": "Feature", "properties": { "cape": 661.0, "timestamp": "20260608T02" }, "geometry": { "type": "Point", "coordinates": [ -102.75, 51.0 ] } },
{ "type": "Feature", "properties": { "cape": 593.75, "timestamp": "20260608T02" }, "geometry": { "type": "Point", "coordinates": [ -102.75, 51.25 ] } },
{ "type": "Feature", "properties": { "cape": 520.25, "timestamp": "20260608T02" }, "geometry": { "type": "Point", "coordinates": [ -102.75, 51.5 ] } },
{ "type": "Feature", "properties": { "cape": 466.25, "timestamp": "20260608T02" }, "geometry": { "type": "Point", "coordinates": [ -102.75, 51.75 ] } },
{ "type": "Feature", "properties": { "cape": 409.5, "timestamp": "20260608T02" }, "geometry": { "type": "Point", "coordinates": [ -102.75, 52.0 ] } },
{ "type": "Feature", "properties": { "cape": 366.0, "timestamp": "20260608T02" }, "geometry": { "type": "Point", "coordinates": [ -102.75, 52.25 ] } },
{ "type": "Feature", "properties": { "cape": 335.0, "timestamp": "20260608T02" }, "geometry": { "type": "Point", "coordinates": [ -102.75, 52.5 ] } },
{ "type": "Feature", "properties": { "cape": 418.25, "timestamp": "20260608T02" }, "geometry": { "type": "Point", "coordinates": [ -102.75, 52.75 ] } },
{ "type": "Feature", "properties": { "cape": 503.25, "timestamp": "20260608T02" }, "geometry": { "type": "Point", "coordinates": [ -102.75, 53.0 ] } },
{ "type": "Feature", "properties": { "cape": 493.5, "timestamp": "20260608T02" }, "geometry": { "type": "Point", "coordinates": [ -102.75, 53.25 ] } },
{ "type": "Feature", "properties": { "cape": 363.5, "timestamp": "20260608T02" }, "geometry": { "type": "Point", "coordinates": [ -102.75, 53.5 ] } },
{ "type": "Feature", "properties": { "cape": 248.75, "timestamp": "20260608T02" }, "geometry": { "type": "Point", "coordinates": [ -102.75, 53.75 ] } },
{ "type": "Feature", "properties": { "cape": 162.25, "timestamp": "20260608T02" }, "geometry": { "type": "Point", "coordinates": [ -102.75, 54.0 ] } },
{ "type": "Feature", "properties": { "cape": 30.0, "timestamp": "20260608T02" }, "geometry": { "type": "Point", "coordinates": [ -102.75, 54.25 ] } },
{ "type": "Feature", "properties": { "cape": 966.25, "timestamp": "20260608T02" }, "geometry": { "type": "Point", "coordinates": [ -102.5, 49.25 ] } },
{ "type": "Feature", "properties": { "cape": 1077.75, "timestamp": "20260608T02" }, "geometry": { "type": "Point", "coordinates": [ -102.5, 49.5 ] } },
{ "type": "Feature", "properties": { "cape": 1060.25, "timestamp": "20260608T02" }, "geometry": { "type": "Point", "coordinates": [ -102.5, 49.75 ] } },
{ "type": "Feature", "properties": { "cape": 945.5, "timestamp": "20260608T02" }, "geometry": { "type": "Point", "coordinates": [ -102.5, 50.0 ] } },
{ "type": "Feature", "properties": { "cape": 811.5, "timestamp": "20260608T02" }, "geometry": { "type": "Point", "coordinates": [ -102.5, 50.25 ] } },
{ "type": "Feature", "properties": { "cape": 730.25, "timestamp": "20260608T02" }, "geometry": { "type": "Point", "coordinates": [ -102.5, 50.5 ] } },
{ "type": "Feature", "properties": { "cape": 745.25, "timestamp": "20260608T02" }, "geometry": { "type": "Point", "coordinates": [ -102.5, 50.75 ] } },
{ "type": "Feature", "properties": { "cape": 738.75, "timestamp": "20260608T02" }, "geometry": { "type": "Point", "coordinates": [ -102.5, 51.0 ] } },
{ "type": "Feature", "properties": { "cape": 631.5, "timestamp": "20260608T02" }, "geometry": { "type": "Point", "coordinates": [ -102.5, 51.25 ] } },
{ "type": "Feature", "properties": { "cape": 555.5, "timestamp": "20260608T02" }, "geometry": { "type": "Point", "coordinates": [ -102.5, 51.5 ] } },
{ "type": "Feature", "properties": { "cape": 506.25, "timestamp": "20260608T02" }, "geometry": { "type": "Point", "coordinates": [ -102.5, 51.75 ] } },
{ "type": "Feature", "properties": { "cape": 451.25, "timestamp": "20260608T02" }, "geometry": { "type": "Point", "coordinates": [ -102.5, 52.0 ] } },
{ "type": "Feature", "properties": { "cape": 381.75, "timestamp": "20260608T02" }, "geometry": { "type": "Point", "coordinates": [ -102.5, 52.25 ] } },
{ "type": "Feature", "properties": { "cape": 325.0, "timestamp": "20260608T02" }, "geometry": { "type": "Point", "coordinates": [ -102.5, 52.5 ] } },
{ "type": "Feature", "properties": { "cape": 363.0, "timestamp": "20260608T02" }, "geometry": { "type": "Point", "coordinates": [ -102.5, 52.75 ] } },
{ "type": "Feature", "properties": { "cape": 504.5, "timestamp": "20260608T02" }, "geometry": { "type": "Point", "coordinates": [ -102.5, 53.0 ] } },
{ "type": "Feature", "properties": { "cape": 532.75, "timestamp": "20260608T02" }, "geometry": { "type": "Point", "coordinates": [ -102.5, 53.25 ] } },
{ "type": "Feature", "properties": { "cape": 376.25, "timestamp": "20260608T02" }, "geometry": { "type": "Point", "coordinates": [ -102.5, 53.5 ] } },
{ "type": "Feature", "properties": { "cape": 232.25, "timestamp": "20260608T02" }, "geometry": { "type": "Point", "coordinates": [ -102.5, 53.75 ] } },
{ "type": "Feature", "properties": { "cape": 145.75, "timestamp": "20260608T02" }, "geometry": { "type": "Point", "coordinates": [ -102.5, 54.0 ] } },
{ "type": "Feature", "properties": { "cape": 73.0, "timestamp": "20260608T02" }, "geometry": { "type": "Point", "coordinates": [ -102.5, 54.25 ] } },
{ "type": "Feature", "properties": { "cape": 1023.5, "timestamp": "20260608T02" }, "geometry": { "type": "Point", "coordinates": [ -102.25, 49.25 ] } },
{ "type": "Feature", "properties": { "cape": 1146.75, "timestamp": "20260608T02" }, "geometry": { "type": "Point", "coordinates": [ -102.25, 49.5 ] } },
{ "type": "Feature", "properties": { "cape": 1236.5, "timestamp": "20260608T02" }, "geometry": { "type": "Point", "coordinates": [ -102.25, 49.75 ] } },
{ "type": "Feature", "properties": { "cape": 1134.5, "timestamp": "20260608T02" }, "geometry": { "type": "Point", "coordinates": [ -102.25, 50.0 ] } },
{ "type": "Feature", "properties": { "cape": 1031.75, "timestamp": "20260608T02" }, "geometry": { "type": "Point", "coordinates": [ -102.25, 50.25 ] } },
{ "type": "Feature", "properties": { "cape": 941.75, "timestamp": "20260608T02" }, "geometry": { "type": "Point", "coordinates": [ -102.25, 50.5 ] } },
{ "type": "Feature", "properties": { "cape": 794.5, "timestamp": "20260608T02" }, "geometry": { "type": "Point", "coordinates": [ -102.25, 50.75 ] } },
{ "type": "Feature", "properties": { "cape": 707.0, "timestamp": "20260608T02" }, "geometry": { "type": "Point", "coordinates": [ -102.25, 51.0 ] } },
{ "type": "Feature", "properties": { "cape": 607.5, "timestamp": "20260608T02" }, "geometry": { "type": "Point", "coordinates": [ -102.25, 51.25 ] } },
{ "type": "Feature", "properties": { "cape": 558.0, "timestamp": "20260608T02" }, "geometry": { "type": "Point", "coordinates": [ -102.25, 51.5 ] } },
{ "type": "Feature", "properties": { "cape": 520.75, "timestamp": "20260608T02" }, "geometry": { "type": "Point", "coordinates": [ -102.25, 51.75 ] } },
{ "type": "Feature", "properties": { "cape": 483.5, "timestamp": "20260608T02" }, "geometry": { "type": "Point", "coordinates": [ -102.25, 52.0 ] } },
{ "type": "Feature", "properties": { "cape": 415.0, "timestamp": "20260608T02" }, "geometry": { "type": "Point", "coordinates": [ -102.25, 52.25 ] } },
{ "type": "Feature", "properties": { "cape": 353.75, "timestamp": "20260608T02" }, "geometry": { "type": "Point", "coordinates": [ -102.25, 52.5 ] } },
{ "type": "Feature", "properties": { "cape": 359.0, "timestamp": "20260608T02" }, "geometry": { "type": "Point", "coordinates": [ -102.25, 52.75 ] } },
{ "type": "Feature", "properties": { "cape": 368.25, "timestamp": "20260608T02" }, "geometry": { "type": "Point", "coordinates": [ -102.25, 53.0 ] } },
{ "type": "Feature", "properties": { "cape": 530.25, "timestamp": "20260608T02" }, "geometry": { "type": "Point", "coordinates": [ -102.25, 53.25 ] } },
{ "type": "Feature", "properties": { "cape": 416.25, "timestamp": "20260608T02" }, "geometry": { "type": "Point", "coordinates": [ -102.25, 53.5 ] } },
{ "type": "Feature", "properties": { "cape": 203.25, "timestamp": "20260608T02" }, "geometry": { "type": "Point", "coordinates": [ -102.25, 53.75 ] } },
{ "type": "Feature", "properties": { "cape": 157.5, "timestamp": "20260608T02" }, "geometry": { "type": "Point", "coordinates": [ -102.25, 54.0 ] } },
{ "type": "Feature", "properties": { "cape": 95.5, "timestamp": "20260608T02" }, "geometry": { "type": "Point", "coordinates": [ -102.25, 54.25 ] } },
{ "type": "Feature", "properties": { "cape": 1083.25, "timestamp": "20260608T02" }, "geometry": { "type": "Point", "coordinates": [ -102.0, 49.25 ] } },
{ "type": "Feature", "properties": { "cape": 1158.25, "timestamp": "20260608T02" }, "geometry": { "type": "Point", "coordinates": [ -102.0, 49.5 ] } },
{ "type": "Feature", "properties": { "cape": 1248.0, "timestamp": "20260608T02" }, "geometry": { "type": "Point", "coordinates": [ -102.0, 49.75 ] } },
{ "type": "Feature", "properties": { "cape": 1221.0, "timestamp": "20260608T02" }, "geometry": { "type": "Point", "coordinates": [ -102.0, 50.0 ] } },
{ "type": "Feature", "properties": { "cape": 1117.5, "timestamp": "20260608T02" }, "geometry": { "type": "Point", "coordinates": [ -102.0, 50.25 ] } },
{ "type": "Feature", "properties": { "cape": 1007.25, "timestamp": "20260608T02" }, "geometry": { "type": "Point", "coordinates": [ -102.0, 50.5 ] } },
{ "type": "Feature", "properties": { "cape": 810.0, "timestamp": "20260608T02" }, "geometry": { "type": "Point", "coordinates": [ -102.0, 50.75 ] } },
{ "type": "Feature", "properties": { "cape": 684.25, "timestamp": "20260608T02" }, "geometry": { "type": "Point", "coordinates": [ -102.0, 51.0 ] } },
{ "type": "Feature", "properties": { "cape": 604.75, "timestamp": "20260608T02" }, "geometry": { "type": "Point", "coordinates": [ -102.0, 51.25 ] } },
{ "type": "Feature", "properties": { "cape": 561.5, "timestamp": "20260608T02" }, "geometry": { "type": "Point", "coordinates": [ -102.0, 51.5 ] } },
{ "type": "Feature", "properties": { "cape": 551.25, "timestamp": "20260608T02" }, "geometry": { "type": "Point", "coordinates": [ -102.0, 51.75 ] } },
{ "type": "Feature", "properties": { "cape": 502.25, "timestamp": "20260608T02" }, "geometry": { "type": "Point", "coordinates": [ -102.0, 52.0 ] } },
{ "type": "Feature", "properties": { "cape": 427.75, "timestamp": "20260608T02" }, "geometry": { "type": "Point", "coordinates": [ -102.0, 52.25 ] } },
{ "type": "Feature", "properties": { "cape": 403.5, "timestamp": "20260608T02" }, "geometry": { "type": "Point", "coordinates": [ -102.0, 52.5 ] } },
{ "type": "Feature", "properties": { "cape": 347.0, "timestamp": "20260608T02" }, "geometry": { "type": "Point", "coordinates": [ -102.0, 52.75 ] } },
{ "type": "Feature", "properties": { "cape": 330.75, "timestamp": "20260608T02" }, "geometry": { "type": "Point", "coordinates": [ -102.0, 53.0 ] } },
{ "type": "Feature", "properties": { "cape": 491.25, "timestamp": "20260608T02" }, "geometry": { "type": "Point", "coordinates": [ -102.0, 53.25 ] } },
{ "type": "Feature", "properties": { "cape": 417.25, "timestamp": "20260608T02" }, "geometry": { "type": "Point", "coordinates": [ -102.0, 53.5 ] } },
{ "type": "Feature", "properties": { "cape": 202.75, "timestamp": "20260608T02" }, "geometry": { "type": "Point", "coordinates": [ -102.0, 53.75 ] } },
{ "type": "Feature", "properties": { "cape": 146.75, "timestamp": "20260608T02" }, "geometry": { "type": "Point", "coordinates": [ -102.0, 54.0 ] } },
{ "type": "Feature", "properties": { "cape": 113.75, "timestamp": "20260608T02" }, "geometry": { "type": "Point", "coordinates": [ -102.0, 54.25 ] } },
{ "type": "Feature", "properties": { "cape": 1030.5, "timestamp": "20260608T02" }, "geometry": { "type": "Point", "coordinates": [ -101.75, 49.25 ] } },
{ "type": "Feature", "properties": { "cape": 1041.75, "timestamp": "20260608T02" }, "geometry": { "type": "Point", "coordinates": [ -101.75, 49.5 ] } },
{ "type": "Feature", "properties": { "cape": 1074.0, "timestamp": "20260608T02" }, "geometry": { "type": "Point", "coordinates": [ -101.75, 49.75 ] } },
{ "type": "Feature", "properties": { "cape": 1019.25, "timestamp": "20260608T02" }, "geometry": { "type": "Point", "coordinates": [ -101.75, 50.0 ] } },
{ "type": "Feature", "properties": { "cape": 923.75, "timestamp": "20260608T02" }, "geometry": { "type": "Point", "coordinates": [ -101.75, 50.25 ] } },
{ "type": "Feature", "properties": { "cape": 834.5, "timestamp": "20260608T02" }, "geometry": { "type": "Point", "coordinates": [ -101.75, 50.5 ] } },
{ "type": "Feature", "properties": { "cape": 731.0, "timestamp": "20260608T02" }, "geometry": { "type": "Point", "coordinates": [ -101.75, 50.75 ] } },
{ "type": "Feature", "properties": { "cape": 676.75, "timestamp": "20260608T02" }, "geometry": { "type": "Point", "coordinates": [ -101.75, 51.0 ] } },
{ "type": "Feature", "properties": { "cape": 640.5, "timestamp": "20260608T02" }, "geometry": { "type": "Point", "coordinates": [ -101.75, 51.25 ] } },
{ "type": "Feature", "properties": { "cape": 590.75, "timestamp": "20260608T02" }, "geometry": { "type": "Point", "coordinates": [ -101.75, 51.5 ] } },
{ "type": "Feature", "properties": { "cape": 578.0, "timestamp": "20260608T02" }, "geometry": { "type": "Point", "coordinates": [ -101.75, 51.75 ] } },
{ "type": "Feature", "properties": { "cape": 523.25, "timestamp": "20260608T02" }, "geometry": { "type": "Point", "coordinates": [ -101.75, 52.0 ] } },
{ "type": "Feature", "properties": { "cape": 479.5, "timestamp": "20260608T02" }, "geometry": { "type": "Point", "coordinates": [ -101.75, 52.25 ] } },
{ "type": "Feature", "properties": { "cape": 495.5, "timestamp": "20260608T02" }, "geometry": { "type": "Point", "coordinates": [ -101.75, 52.5 ] } },
{ "type": "Feature", "properties": { "cape": 461.75, "timestamp": "20260608T02" }, "geometry": { "type": "Point", "coordinates": [ -101.75, 52.75 ] } },
{ "type": "Feature", "properties": { "cape": 358.75, "timestamp": "20260608T02" }, "geometry": { "type": "Point", "coordinates": [ -101.75, 53.0 ] } },
{ "type": "Feature", "properties": { "cape": 430.75, "timestamp": "20260608T02" }, "geometry": { "type": "Point", "coordinates": [ -101.75, 53.25 ] } },
{ "type": "Feature", "properties": { "cape": 390.5, "timestamp": "20260608T02" }, "geometry": { "type": "Point", "coordinates": [ -101.75, 53.5 ] } },
{ "type": "Feature", "properties": { "cape": 168.75, "timestamp": "20260608T02" }, "geometry": { "type": "Point", "coordinates": [ -101.75, 53.75 ] } },
{ "type": "Feature", "properties": { "cape": 112.25, "timestamp": "20260608T02" }, "geometry": { "type": "Point", "coordinates": [ -101.75, 54.0 ] } },
{ "type": "Feature", "properties": { "cape": 95.25, "timestamp": "20260608T02" }, "geometry": { "type": "Point", "coordinates": [ -101.75, 54.25 ] } },
{ "type": "Feature", "properties": { "cape": 997.0, "timestamp": "20260608T02" }, "geometry": { "type": "Point", "coordinates": [ -101.5, 49.25 ] } },
{ "type": "Feature", "properties": { "cape": 1008.0, "timestamp": "20260608T02" }, "geometry": { "type": "Point", "coordinates": [ -101.5, 49.5 ] } },
{ "type": "Feature", "properties": { "cape": 1009.0, "timestamp": "20260608T02" }, "geometry": { "type": "Point", "coordinates": [ -101.5, 49.75 ] } },
{ "type": "Feature", "properties": { "cape": 954.75, "timestamp": "20260608T02" }, "geometry": { "type": "Point", "coordinates": [ -101.5, 50.0 ] } },
{ "type": "Feature", "properties": { "cape": 930.5, "timestamp": "20260608T02" }, "geometry": { "type": "Point", "coordinates": [ -101.5, 50.25 ] } },
{ "type": "Feature", "properties": { "cape": 855.0, "timestamp": "20260608T02" }, "geometry": { "type": "Point", "coordinates": [ -101.5, 50.5 ] } },
{ "type": "Feature", "properties": { "cape": 778.75, "timestamp": "20260608T02" }, "geometry": { "type": "Point", "coordinates": [ -101.5, 50.75 ] } },
{ "type": "Feature", "properties": { "cape": 736.5, "timestamp": "20260608T02" }, "geometry": { "type": "Point", "coordinates": [ -101.5, 51.0 ] } },
{ "type": "Feature", "properties": { "cape": 689.5, "timestamp": "20260608T02" }, "geometry": { "type": "Point", "coordinates": [ -101.5, 51.25 ] } },
{ "type": "Feature", "properties": { "cape": 664.25, "timestamp": "20260608T02" }, "geometry": { "type": "Point", "coordinates": [ -101.5, 51.5 ] } },
{ "type": "Feature", "properties": { "cape": 648.75, "timestamp": "20260608T02" }, "geometry": { "type": "Point", "coordinates": [ -101.5, 51.75 ] } },
{ "type": "Feature", "properties": { "cape": 573.5, "timestamp": "20260608T02" }, "geometry": { "type": "Point", "coordinates": [ -101.5, 52.0 ] } },
{ "type": "Feature", "properties": { "cape": 513.75, "timestamp": "20260608T02" }, "geometry": { "type": "Point", "coordinates": [ -101.5, 52.25 ] } },
{ "type": "Feature", "properties": { "cape": 519.0, "timestamp": "20260608T02" }, "geometry": { "type": "Point", "coordinates": [ -101.5, 52.5 ] } },
{ "type": "Feature", "properties": { "cape": 527.5, "timestamp": "20260608T02" }, "geometry": { "type": "Point", "coordinates": [ -101.5, 52.75 ] } },
{ "type": "Feature", "properties": { "cape": 425.25, "timestamp": "20260608T02" }, "geometry": { "type": "Point", "coordinates": [ -101.5, 53.0 ] } },
{ "type": "Feature", "properties": { "cape": 469.25, "timestamp": "20260608T02" }, "geometry": { "type": "Point", "coordinates": [ -101.5, 53.25 ] } },
{ "type": "Feature", "properties": { "cape": 403.75, "timestamp": "20260608T02" }, "geometry": { "type": "Point", "coordinates": [ -101.5, 53.5 ] } },
{ "type": "Feature", "properties": { "cape": 172.0, "timestamp": "20260608T02" }, "geometry": { "type": "Point", "coordinates": [ -101.5, 53.75 ] } },
{ "type": "Feature", "properties": { "cape": 111.0, "timestamp": "20260608T02" }, "geometry": { "type": "Point", "coordinates": [ -101.5, 54.0 ] } },
{ "type": "Feature", "properties": { "cape": 78.75, "timestamp": "20260608T02" }, "geometry": { "type": "Point", "coordinates": [ -101.5, 54.25 ] } },
{ "type": "Feature", "properties": { "cape": 969.0, "timestamp": "20260608T02" }, "geometry": { "type": "Point", "coordinates": [ -101.25, 49.25 ] } },
{ "type": "Feature", "properties": { "cape": 982.5, "timestamp": "20260608T02" }, "geometry": { "type": "Point", "coordinates": [ -101.25, 49.5 ] } },
{ "type": "Feature", "properties": { "cape": 989.75, "timestamp": "20260608T02" }, "geometry": { "type": "Point", "coordinates": [ -101.25, 49.75 ] } },
{ "type": "Feature", "properties": { "cape": 977.75, "timestamp": "20260608T02" }, "geometry": { "type": "Point", "coordinates": [ -101.25, 50.0 ] } },
{ "type": "Feature", "properties": { "cape": 961.5, "timestamp": "20260608T02" }, "geometry": { "type": "Point", "coordinates": [ -101.25, 50.25 ] } },
{ "type": "Feature", "properties": { "cape": 965.25, "timestamp": "20260608T02" }, "geometry": { "type": "Point", "coordinates": [ -101.25, 50.5 ] } },
{ "type": "Feature", "properties": { "cape": 875.25, "timestamp": "20260608T02" }, "geometry": { "type": "Point", "coordinates": [ -101.25, 50.75 ] } },
{ "type": "Feature", "properties": { "cape": 830.0, "timestamp": "20260608T02" }, "geometry": { "type": "Point", "coordinates": [ -101.25, 51.0 ] } },
{ "type": "Feature", "properties": { "cape": 748.0, "timestamp": "20260608T02" }, "geometry": { "type": "Point", "coordinates": [ -101.25, 51.25 ] } },
{ "type": "Feature", "properties": { "cape": 745.0, "timestamp": "20260608T02" }, "geometry": { "type": "Point", "coordinates": [ -101.25, 51.5 ] } },
{ "type": "Feature", "properties": { "cape": 709.25, "timestamp": "20260608T02" }, "geometry": { "type": "Point", "coordinates": [ -101.25, 51.75 ] } },
{ "type": "Feature", "properties": { "cape": 640.5, "timestamp": "20260608T02" }, "geometry": { "type": "Point", "coordinates": [ -101.25, 52.0 ] } },
{ "type": "Feature", "properties": { "cape": 581.75, "timestamp": "20260608T02" }, "geometry": { "type": "Point", "coordinates": [ -101.25, 52.25 ] } },
{ "type": "Feature", "properties": { "cape": 567.5, "timestamp": "20260608T02" }, "geometry": { "type": "Point", "coordinates": [ -101.25, 52.5 ] } },
{ "type": "Feature", "properties": { "cape": 598.5, "timestamp": "20260608T02" }, "geometry": { "type": "Point", "coordinates": [ -101.25, 52.75 ] } },
{ "type": "Feature", "properties": { "cape": 527.75, "timestamp": "20260608T02" }, "geometry": { "type": "Point", "coordinates": [ -101.25, 53.0 ] } },
{ "type": "Feature", "properties": { "cape": 534.0, "timestamp": "20260608T02" }, "geometry": { "type": "Point", "coordinates": [ -101.25, 53.25 ] } },
{ "type": "Feature", "properties": { "cape": 422.0, "timestamp": "20260608T02" }, "geometry": { "type": "Point", "coordinates": [ -101.25, 53.5 ] } },
{ "type": "Feature", "properties": { "cape": 186.75, "timestamp": "20260608T02" }, "geometry": { "type": "Point", "coordinates": [ -101.25, 53.75 ] } },
{ "type": "Feature", "properties": { "cape": 96.75, "timestamp": "20260608T02" }, "geometry": { "type": "Point", "coordinates": [ -101.25, 54.0 ] } },
{ "type": "Feature", "properties": { "cape": 64.75, "timestamp": "20260608T02" }, "geometry": { "type": "Point", "coordinates": [ -101.25, 54.25 ] } },
{ "type": "Feature", "properties": { "cape": 835.0, "timestamp": "20260608T02" }, "geometry": { "type": "Point", "coordinates": [ -101.0, 49.25 ] } },
{ "type": "Feature", "properties": { "cape": 968.5, "timestamp": "20260608T02" }, "geometry": { "type": "Point", "coordinates": [ -101.0, 49.5 ] } },
{ "type": "Feature", "properties": { "cape": 990.75, "timestamp": "20260608T02" }, "geometry": { "type": "Point", "coordinates": [ -101.0, 49.75 ] } },
{ "type": "Feature", "properties": { "cape": 1108.0, "timestamp": "20260608T02" }, "geometry": { "type": "Point", "coordinates": [ -101.0, 50.0 ] } },
{ "type": "Feature", "properties": { "cape": 1123.5, "timestamp": "20260608T02" }, "geometry": { "type": "Point", "coordinates": [ -101.0, 50.25 ] } },
{ "type": "Feature", "properties": { "cape": 1250.5, "timestamp": "20260608T02" }, "geometry": { "type": "Point", "coordinates": [ -101.0, 50.5 ] } },
{ "type": "Feature", "properties": { "cape": 1270.5, "timestamp": "20260608T02" }, "geometry": { "type": "Point", "coordinates": [ -101.0, 50.75 ] } },
{ "type": "Feature", "properties": { "cape": 1308.25, "timestamp": "20260608T02" }, "geometry": { "type": "Point", "coordinates": [ -101.0, 51.0 ] } },
{ "type": "Feature", "properties": { "cape": 1283.75, "timestamp": "20260608T02" }, "geometry": { "type": "Point", "coordinates": [ -101.0, 51.25 ] } },
{ "type": "Feature", "properties": { "cape": 1200.5, "timestamp": "20260608T02" }, "geometry": { "type": "Point", "coordinates": [ -101.0, 51.5 ] } },
{ "type": "Feature", "properties": { "cape": 904.75, "timestamp": "20260608T02" }, "geometry": { "type": "Point", "coordinates": [ -101.0, 51.75 ] } },
{ "type": "Feature", "properties": { "cape": 762.5, "timestamp": "20260608T02" }, "geometry": { "type": "Point", "coordinates": [ -101.0, 52.0 ] } },
{ "type": "Feature", "properties": { "cape": 669.25, "timestamp": "20260608T02" }, "geometry": { "type": "Point", "coordinates": [ -101.0, 52.25 ] } },
{ "type": "Feature", "properties": { "cape": 626.0, "timestamp": "20260608T02" }, "geometry": { "type": "Point", "coordinates": [ -101.0, 52.5 ] } },
{ "type": "Feature", "properties": { "cape": 683.5, "timestamp": "20260608T02" }, "geometry": { "type": "Point", "coordinates": [ -101.0, 52.75 ] } },
{ "type": "Feature", "properties": { "cape": 679.25, "timestamp": "20260608T02" }, "geometry": { "type": "Point", "coordinates": [ -101.0, 53.0 ] } },
{ "type": "Feature", "properties": { "cape": 677.75, "timestamp": "20260608T02" }, "geometry": { "type": "Point", "coordinates": [ -101.0, 53.25 ] } },
{ "type": "Feature", "properties": { "cape": 424.0, "timestamp": "20260608T02" }, "geometry": { "type": "Point", "coordinates": [ -101.0, 53.5 ] } },
{ "type": "Feature", "properties": { "cape": 188.5, "timestamp": "20260608T02" }, "geometry": { "type": "Point", "coordinates": [ -101.0, 53.75 ] } },
{ "type": "Feature", "properties": { "cape": 90.25, "timestamp": "20260608T02" }, "geometry": { "type": "Point", "coordinates": [ -101.0, 54.0 ] } },
{ "type": "Feature", "properties": { "cape": 59.0, "timestamp": "20260608T02" }, "geometry": { "type": "Point", "coordinates": [ -101.0, 54.25 ] } },
{ "type": "Feature", "properties": { "cape": 876.0, "timestamp": "20260608T02" }, "geometry": { "type": "Point", "coordinates": [ -100.75, 49.25 ] } },
{ "type": "Feature", "properties": { "cape": 1016.0, "timestamp": "20260608T02" }, "geometry": { "type": "Point", "coordinates": [ -100.75, 49.5 ] } },
{ "type": "Feature", "properties": { "cape": 1102.0, "timestamp": "20260608T02" }, "geometry": { "type": "Point", "coordinates": [ -100.75, 49.75 ] } },
{ "type": "Feature", "properties": { "cape": 1218.75, "timestamp": "20260608T02" }, "geometry": { "type": "Point", "coordinates": [ -100.75, 50.0 ] } },
{ "type": "Feature", "properties": { "cape": 1259.25, "timestamp": "20260608T02" }, "geometry": { "type": "Point", "coordinates": [ -100.75, 50.25 ] } },
{ "type": "Feature", "properties": { "cape": 1396.75, "timestamp": "20260608T02" }, "geometry": { "type": "Point", "coordinates": [ -100.75, 50.5 ] } },
{ "type": "Feature", "properties": { "cape": 1511.5, "timestamp": "20260608T02" }, "geometry": { "type": "Point", "coordinates": [ -100.75, 50.75 ] } },
{ "type": "Feature", "properties": { "cape": 1591.0, "timestamp": "20260608T02" }, "geometry": { "type": "Point", "coordinates": [ -100.75, 51.0 ] } },
{ "type": "Feature", "properties": { "cape": 1592.0, "timestamp": "20260608T02" }, "geometry": { "type": "Point", "coordinates": [ -100.75, 51.25 ] } },
{ "type": "Feature", "properties": { "cape": 1489.0, "timestamp": "20260608T02" }, "geometry": { "type": "Point", "coordinates": [ -100.75, 51.5 ] } },
{ "type": "Feature", "properties": { "cape": 1177.25, "timestamp": "20260608T02" }, "geometry": { "type": "Point", "coordinates": [ -100.75, 51.75 ] } },
{ "type": "Feature", "properties": { "cape": 976.75, "timestamp": "20260608T02" }, "geometry": { "type": "Point", "coordinates": [ -100.75, 52.0 ] } },
{ "type": "Feature", "properties": { "cape": 790.25, "timestamp": "20260608T02" }, "geometry": { "type": "Point", "coordinates": [ -100.75, 52.25 ] } },
{ "type": "Feature", "properties": { "cape": 727.5, "timestamp": "20260608T02" }, "geometry": { "type": "Point", "coordinates": [ -100.75, 52.5 ] } },
{ "type": "Feature", "properties": { "cape": 741.0, "timestamp": "20260608T02" }, "geometry": { "type": "Point", "coordinates": [ -100.75, 52.75 ] } },
{ "type": "Feature", "properties": { "cape": 829.0, "timestamp": "20260608T02" }, "geometry": { "type": "Point", "coordinates": [ -100.75, 53.0 ] } },
{ "type": "Feature", "properties": { "cape": 823.5, "timestamp": "20260608T02" }, "geometry": { "type": "Point", "coordinates": [ -100.75, 53.25 ] } },
{ "type": "Feature", "properties": { "cape": 489.5, "timestamp": "20260608T02" }, "geometry": { "type": "Point", "coordinates": [ -100.75, 53.5 ] } },
{ "type": "Feature", "properties": { "cape": 184.5, "timestamp": "20260608T02" }, "geometry": { "type": "Point", "coordinates": [ -100.75, 53.75 ] } },
{ "type": "Feature", "properties": { "cape": 85.25, "timestamp": "20260608T02" }, "geometry": { "type": "Point", "coordinates": [ -100.75, 54.0 ] } },
{ "type": "Feature", "properties": { "cape": 58.25, "timestamp": "20260608T02" }, "geometry": { "type": "Point", "coordinates": [ -100.75, 54.25 ] } },
{ "type": "Feature", "properties": { "cape": 1263.0, "timestamp": "20260608T02" }, "geometry": { "type": "Point", "coordinates": [ -100.5, 49.25 ] } },
{ "type": "Feature", "properties": { "cape": 1436.5, "timestamp": "20260608T02" }, "geometry": { "type": "Point", "coordinates": [ -100.5, 49.5 ] } },
{ "type": "Feature", "properties": { "cape": 1418.0, "timestamp": "20260608T02" }, "geometry": { "type": "Point", "coordinates": [ -100.5, 49.75 ] } },
{ "type": "Feature", "properties": { "cape": 1376.75, "timestamp": "20260608T02" }, "geometry": { "type": "Point", "coordinates": [ -100.5, 50.0 ] } },
{ "type": "Feature", "properties": { "cape": 1299.0, "timestamp": "20260608T02" }, "geometry": { "type": "Point", "coordinates": [ -100.5, 50.25 ] } },
{ "type": "Feature", "properties": { "cape": 1373.0, "timestamp": "20260608T02" }, "geometry": { "type": "Point", "coordinates": [ -100.5, 50.5 ] } },
{ "type": "Feature", "properties": { "cape": 1415.0, "timestamp": "20260608T02" }, "geometry": { "type": "Point", "coordinates": [ -100.5, 50.75 ] } },
{ "type": "Feature", "properties": { "cape": 1475.5, "timestamp": "20260608T02" }, "geometry": { "type": "Point", "coordinates": [ -100.5, 51.0 ] } },
{ "type": "Feature", "properties": { "cape": 1497.75, "timestamp": "20260608T02" }, "geometry": { "type": "Point", "coordinates": [ -100.5, 51.25 ] } },
{ "type": "Feature", "properties": { "cape": 1539.75, "timestamp": "20260608T02" }, "geometry": { "type": "Point", "coordinates": [ -100.5, 51.5 ] } },
{ "type": "Feature", "properties": { "cape": 1369.75, "timestamp": "20260608T02" }, "geometry": { "type": "Point", "coordinates": [ -100.5, 51.75 ] } },
{ "type": "Feature", "properties": { "cape": 1214.75, "timestamp": "20260608T02" }, "geometry": { "type": "Point", "coordinates": [ -100.5, 52.0 ] } },
{ "type": "Feature", "properties": { "cape": 1014.75, "timestamp": "20260608T02" }, "geometry": { "type": "Point", "coordinates": [ -100.5, 52.25 ] } },
{ "type": "Feature", "properties": { "cape": 882.75, "timestamp": "20260608T02" }, "geometry": { "type": "Point", "coordinates": [ -100.5, 52.5 ] } },
{ "type": "Feature", "properties": { "cape": 842.5, "timestamp": "20260608T02" }, "geometry": { "type": "Point", "coordinates": [ -100.5, 52.75 ] } },
{ "type": "Feature", "properties": { "cape": 942.75, "timestamp": "20260608T02" }, "geometry": { "type": "Point", "coordinates": [ -100.5, 53.0 ] } },
{ "type": "Feature", "properties": { "cape": 979.75, "timestamp": "20260608T02" }, "geometry": { "type": "Point", "coordinates": [ -100.5, 53.25 ] } },
{ "type": "Feature", "properties": { "cape": 574.5, "timestamp": "20260608T02" }, "geometry": { "type": "Point", "coordinates": [ -100.5, 53.5 ] } },
{ "type": "Feature", "properties": { "cape": 162.5, "timestamp": "20260608T02" }, "geometry": { "type": "Point", "coordinates": [ -100.5, 53.75 ] } },
{ "type": "Feature", "properties": { "cape": 79.25, "timestamp": "20260608T02" }, "geometry": { "type": "Point", "coordinates": [ -100.5, 54.0 ] } },
{ "type": "Feature", "properties": { "cape": 66.75, "timestamp": "20260608T02" }, "geometry": { "type": "Point", "coordinates": [ -100.5, 54.25 ] } },
{ "type": "Feature", "properties": { "cape": 1523.5, "timestamp": "20260608T02" }, "geometry": { "type": "Point", "coordinates": [ -100.25, 49.25 ] } },
{ "type": "Feature", "properties": { "cape": 1601.25, "timestamp": "20260608T02" }, "geometry": { "type": "Point", "coordinates": [ -100.25, 49.5 ] } },
{ "type": "Feature", "properties": { "cape": 1582.0, "timestamp": "20260608T02" }, "geometry": { "type": "Point", "coordinates": [ -100.25, 49.75 ] } },
{ "type": "Feature", "properties": { "cape": 1464.5, "timestamp": "20260608T02" }, "geometry": { "type": "Point", "coordinates": [ -100.25, 50.0 ] } },
{ "type": "Feature", "properties": { "cape": 1386.0, "timestamp": "20260608T02" }, "geometry": { "type": "Point", "coordinates": [ -100.25, 50.25 ] } },
{ "type": "Feature", "properties": { "cape": 1320.25, "timestamp": "20260608T02" }, "geometry": { "type": "Point", "coordinates": [ -100.25, 50.5 ] } },
{ "type": "Feature", "properties": { "cape": 1331.25, "timestamp": "20260608T02" }, "geometry": { "type": "Point", "coordinates": [ -100.25, 50.75 ] } },
{ "type": "Feature", "properties": { "cape": 1323.75, "timestamp": "20260608T02" }, "geometry": { "type": "Point", "coordinates": [ -100.25, 51.0 ] } },
{ "type": "Feature", "properties": { "cape": 1436.75, "timestamp": "20260608T02" }, "geometry": { "type": "Point", "coordinates": [ -100.25, 51.25 ] } },
{ "type": "Feature", "properties": { "cape": 1466.75, "timestamp": "20260608T02" }, "geometry": { "type": "Point", "coordinates": [ -100.25, 51.5 ] } },
{ "type": "Feature", "properties": { "cape": 1382.0, "timestamp": "20260608T02" }, "geometry": { "type": "Point", "coordinates": [ -100.25, 51.75 ] } },
{ "type": "Feature", "properties": { "cape": 1269.0, "timestamp": "20260608T02" }, "geometry": { "type": "Point", "coordinates": [ -100.25, 52.0 ] } },
{ "type": "Feature", "properties": { "cape": 1056.0, "timestamp": "20260608T02" }, "geometry": { "type": "Point", "coordinates": [ -100.25, 52.25 ] } },
{ "type": "Feature", "properties": { "cape": 956.25, "timestamp": "20260608T02" }, "geometry": { "type": "Point", "coordinates": [ -100.25, 52.5 ] } },
{ "type": "Feature", "properties": { "cape": 902.5, "timestamp": "20260608T02" }, "geometry": { "type": "Point", "coordinates": [ -100.25, 52.75 ] } },
{ "type": "Feature", "properties": { "cape": 1003.75, "timestamp": "20260608T02" }, "geometry": { "type": "Point", "coordinates": [ -100.25, 53.0 ] } },
{ "type": "Feature", "properties": { "cape": 1063.25, "timestamp": "20260608T02" }, "geometry": { "type": "Point", "coordinates": [ -100.25, 53.25 ] } },
{ "type": "Feature", "properties": { "cape": 639.5, "timestamp": "20260608T02" }, "geometry": { "type": "Point", "coordinates": [ -100.25, 53.5 ] } },
{ "type": "Feature", "properties": { "cape": 210.0, "timestamp": "20260608T02" }, "geometry": { "type": "Point", "coordinates": [ -100.25, 53.75 ] } },
{ "type": "Feature", "properties": { "cape": 82.0, "timestamp": "20260608T02" }, "geometry": { "type": "Point", "coordinates": [ -100.25, 54.0 ] } },
{ "type": "Feature", "properties": { "cape": 75.25, "timestamp": "20260608T02" }, "geometry": { "type": "Point", "coordinates": [ -100.25, 54.25 ] } },
{ "type": "Feature", "properties": { "cape": 1783.5, "timestamp": "20260608T02" }, "geometry": { "type": "Point", "coordinates": [ -100.0, 49.25 ] } },
{ "type": "Feature", "properties": { "cape": 1769.75, "timestamp": "20260608T02" }, "geometry": { "type": "Point", "coordinates": [ -100.0, 49.5 ] } },
{ "type": "Feature", "properties": { "cape": 1617.5, "timestamp": "20260608T02" }, "geometry": { "type": "Point", "coordinates": [ -100.0, 49.75 ] } },
{ "type": "Feature", "properties": { "cape": 1502.25, "timestamp": "20260608T02" }, "geometry": { "type": "Point", "coordinates": [ -100.0, 50.0 ] } },
{ "type": "Feature", "properties": { "cape": 1443.5, "timestamp": "20260608T02" }, "geometry": { "type": "Point", "coordinates": [ -100.0, 50.25 ] } },
{ "type": "Feature", "properties": { "cape": 1332.5, "timestamp": "20260608T02" }, "geometry": { "type": "Point", "coordinates": [ -100.0, 50.5 ] } },
{ "type": "Feature", "properties": { "cape": 1239.25, "timestamp": "20260608T02" }, "geometry": { "type": "Point", "coordinates": [ -100.0, 50.75 ] } },
{ "type": "Feature", "properties": { "cape": 1146.25, "timestamp": "20260608T02" }, "geometry": { "type": "Point", "coordinates": [ -100.0, 51.0 ] } },
{ "type": "Feature", "properties": { "cape": 1362.5, "timestamp": "20260608T02" }, "geometry": { "type": "Point", "coordinates": [ -100.0, 51.25 ] } },
{ "type": "Feature", "properties": { "cape": 1374.0, "timestamp": "20260608T02" }, "geometry": { "type": "Point", "coordinates": [ -100.0, 51.5 ] } },
{ "type": "Feature", "properties": { "cape": 1286.25, "timestamp": "20260608T02" }, "geometry": { "type": "Point", "coordinates": [ -100.0, 51.75 ] } },
{ "type": "Feature", "properties": { "cape": 1187.25, "timestamp": "20260608T02" }, "geometry": { "type": "Point", "coordinates": [ -100.0, 52.0 ] } },
{ "type": "Feature", "properties": { "cape": 1096.25, "timestamp": "20260608T02" }, "geometry": { "type": "Point", "coordinates": [ -100.0, 52.25 ] } },
{ "type": "Feature", "properties": { "cape": 1001.25, "timestamp": "20260608T02" }, "geometry": { "type": "Point", "coordinates": [ -100.0, 52.5 ] } },
{ "type": "Feature", "properties": { "cape": 929.5, "timestamp": "20260608T02" }, "geometry": { "type": "Point", "coordinates": [ -100.0, 52.75 ] } },
{ "type": "Feature", "properties": { "cape": 986.0, "timestamp": "20260608T02" }, "geometry": { "type": "Point", "coordinates": [ -100.0, 53.0 ] } },
{ "type": "Feature", "properties": { "cape": 1041.5, "timestamp": "20260608T02" }, "geometry": { "type": "Point", "coordinates": [ -100.0, 53.25 ] } },
{ "type": "Feature", "properties": { "cape": 679.25, "timestamp": "20260608T02" }, "geometry": { "type": "Point", "coordinates": [ -100.0, 53.5 ] } },
{ "type": "Feature", "properties": { "cape": 250.0, "timestamp": "20260608T02" }, "geometry": { "type": "Point", "coordinates": [ -100.0, 53.75 ] } },
{ "type": "Feature", "properties": { "cape": 89.75, "timestamp": "20260608T02" }, "geometry": { "type": "Point", "coordinates": [ -100.0, 54.0 ] } },
{ "type": "Feature", "properties": { "cape": 76.75, "timestamp": "20260608T02" }, "geometry": { "type": "Point", "coordinates": [ -100.0, 54.25 ] } },
{ "type": "Feature", "properties": { "cape": 1371.0, "timestamp": "20260608T02" }, "geometry": { "type": "Point", "coordinates": [ -99.75, 49.25 ] } },
{ "type": "Feature", "properties": { "cape": 1395.0, "timestamp": "20260608T02" }, "geometry": { "type": "Point", "coordinates": [ -99.75, 49.5 ] } },
{ "type": "Feature", "properties": { "cape": 1423.0, "timestamp": "20260608T02" }, "geometry": { "type": "Point", "coordinates": [ -99.75, 49.75 ] } },
{ "type": "Feature", "properties": { "cape": 1324.0, "timestamp": "20260608T02" }, "geometry": { "type": "Point", "coordinates": [ -99.75, 50.0 ] } },
{ "type": "Feature", "properties": { "cape": 1211.75, "timestamp": "20260608T02" }, "geometry": { "type": "Point", "coordinates": [ -99.75, 50.25 ] } },
{ "type": "Feature", "properties": { "cape": 1143.0, "timestamp": "20260608T02" }, "geometry": { "type": "Point", "coordinates": [ -99.75, 50.5 ] } },
{ "type": "Feature", "properties": { "cape": 1204.5, "timestamp": "20260608T02" }, "geometry": { "type": "Point", "coordinates": [ -99.75, 50.75 ] } },
{ "type": "Feature", "properties": { "cape": 1052.75, "timestamp": "20260608T02" }, "geometry": { "type": "Point", "coordinates": [ -99.75, 51.0 ] } },
{ "type": "Feature", "properties": { "cape": 1209.0, "timestamp": "20260608T02" }, "geometry": { "type": "Point", "coordinates": [ -99.75, 51.25 ] } },
{ "type": "Feature", "properties": { "cape": 1223.25, "timestamp": "20260608T02" }, "geometry": { "type": "Point", "coordinates": [ -99.75, 51.5 ] } },
{ "type": "Feature", "properties": { "cape": 1162.0, "timestamp": "20260608T02" }, "geometry": { "type": "Point", "coordinates": [ -99.75, 51.75 ] } },
{ "type": "Feature", "properties": { "cape": 1114.25, "timestamp": "20260608T02" }, "geometry": { "type": "Point", "coordinates": [ -99.75, 52.0 ] } },
{ "type": "Feature", "properties": { "cape": 1009.25, "timestamp": "20260608T02" }, "geometry": { "type": "Point", "coordinates": [ -99.75, 52.25 ] } },
{ "type": "Feature", "properties": { "cape": 911.0, "timestamp": "20260608T02" }, "geometry": { "type": "Point", "coordinates": [ -99.75, 52.5 ] } },
{ "type": "Feature", "properties": { "cape": 874.25, "timestamp": "20260608T02" }, "geometry": { "type": "Point", "coordinates": [ -99.75, 52.75 ] } },
{ "type": "Feature", "properties": { "cape": 929.25, "timestamp": "20260608T02" }, "geometry": { "type": "Point", "coordinates": [ -99.75, 53.0 ] } },
{ "type": "Feature", "properties": { "cape": 992.25, "timestamp": "20260608T02" }, "geometry": { "type": "Point", "coordinates": [ -99.75, 53.25 ] } },
{ "type": "Feature", "properties": { "cape": 688.75, "timestamp": "20260608T02" }, "geometry": { "type": "Point", "coordinates": [ -99.75, 53.5 ] } },
{ "type": "Feature", "properties": { "cape": 318.0, "timestamp": "20260608T02" }, "geometry": { "type": "Point", "coordinates": [ -99.75, 53.75 ] } },
{ "type": "Feature", "properties": { "cape": 157.25, "timestamp": "20260608T02" }, "geometry": { "type": "Point", "coordinates": [ -99.75, 54.0 ] } },
{ "type": "Feature", "properties": { "cape": 88.25, "timestamp": "20260608T02" }, "geometry": { "type": "Point", "coordinates": [ -99.75, 54.25 ] } },
{ "type": "Feature", "properties": { "cape": 1066.75, "timestamp": "20260608T02" }, "geometry": { "type": "Point", "coordinates": [ -99.5, 49.25 ] } },
{ "type": "Feature", "properties": { "cape": 1096.75, "timestamp": "20260608T02" }, "geometry": { "type": "Point", "coordinates": [ -99.5, 49.5 ] } },
{ "type": "Feature", "properties": { "cape": 1126.25, "timestamp": "20260608T02" }, "geometry": { "type": "Point", "coordinates": [ -99.5, 49.75 ] } },
{ "type": "Feature", "properties": { "cape": 1088.5, "timestamp": "20260608T02" }, "geometry": { "type": "Point", "coordinates": [ -99.5, 50.0 ] } },
{ "type": "Feature", "properties": { "cape": 977.5, "timestamp": "20260608T02" }, "geometry": { "type": "Point", "coordinates": [ -99.5, 50.25 ] } },
{ "type": "Feature", "properties": { "cape": 970.25, "timestamp": "20260608T02" }, "geometry": { "type": "Point", "coordinates": [ -99.5, 50.5 ] } },
{ "type": "Feature", "properties": { "cape": 1087.25, "timestamp": "20260608T02" }, "geometry": { "type": "Point", "coordinates": [ -99.5, 50.75 ] } },
{ "type": "Feature", "properties": { "cape": 924.5, "timestamp": "20260608T02" }, "geometry": { "type": "Point", "coordinates": [ -99.5, 51.0 ] } },
{ "type": "Feature", "properties": { "cape": 1034.75, "timestamp": "20260608T02" }, "geometry": { "type": "Point", "coordinates": [ -99.5, 51.25 ] } },
{ "type": "Feature", "properties": { "cape": 1055.0, "timestamp": "20260608T02" }, "geometry": { "type": "Point", "coordinates": [ -99.5, 51.5 ] } },
{ "type": "Feature", "properties": { "cape": 1050.5, "timestamp": "20260608T02" }, "geometry": { "type": "Point", "coordinates": [ -99.5, 51.75 ] } },
{ "type": "Feature", "properties": { "cape": 1050.25, "timestamp": "20260608T02" }, "geometry": { "type": "Point", "coordinates": [ -99.5, 52.0 ] } },
{ "type": "Feature", "properties": { "cape": 958.75, "timestamp": "20260608T02" }, "geometry": { "type": "Point", "coordinates": [ -99.5, 52.25 ] } },
{ "type": "Feature", "properties": { "cape": 813.75, "timestamp": "20260608T02" }, "geometry": { "type": "Point", "coordinates": [ -99.5, 52.5 ] } },
{ "type": "Feature", "properties": { "cape": 768.0, "timestamp": "20260608T02" }, "geometry": { "type": "Point", "coordinates": [ -99.5, 52.75 ] } },
{ "type": "Feature", "properties": { "cape": 843.25, "timestamp": "20260608T02" }, "geometry": { "type": "Point", "coordinates": [ -99.5, 53.0 ] } },
{ "type": "Feature", "properties": { "cape": 924.75, "timestamp": "20260608T02" }, "geometry": { "type": "Point", "coordinates": [ -99.5, 53.25 ] } },
{ "type": "Feature", "properties": { "cape": 753.0, "timestamp": "20260608T02" }, "geometry": { "type": "Point", "coordinates": [ -99.5, 53.5 ] } },
{ "type": "Feature", "properties": { "cape": 399.25, "timestamp": "20260608T02" }, "geometry": { "type": "Point", "coordinates": [ -99.5, 53.75 ] } },
{ "type": "Feature", "properties": { "cape": 177.5, "timestamp": "20260608T02" }, "geometry": { "type": "Point", "coordinates": [ -99.5, 54.0 ] } },
{ "type": "Feature", "properties": { "cape": 94.75, "timestamp": "20260608T02" }, "geometry": { "type": "Point", "coordinates": [ -99.5, 54.25 ] } },
{ "type": "Feature", "properties": { "cape": 847.5, "timestamp": "20260608T02" }, "geometry": { "type": "Point", "coordinates": [ -99.25, 49.25 ] } },
{ "type": "Feature", "properties": { "cape": 852.5, "timestamp": "20260608T02" }, "geometry": { "type": "Point", "coordinates": [ -99.25, 49.5 ] } },
{ "type": "Feature", "properties": { "cape": 861.0, "timestamp": "20260608T02" }, "geometry": { "type": "Point", "coordinates": [ -99.25, 49.75 ] } },
{ "type": "Feature", "properties": { "cape": 857.25, "timestamp": "20260608T02" }, "geometry": { "type": "Point", "coordinates": [ -99.25, 50.0 ] } },
{ "type": "Feature", "properties": { "cape": 826.75, "timestamp": "20260608T02" }, "geometry": { "type": "Point", "coordinates": [ -99.25, 50.25 ] } },
{ "type": "Feature", "properties": { "cape": 830.75, "timestamp": "20260608T02" }, "geometry": { "type": "Point", "coordinates": [ -99.25, 50.5 ] } },
{ "type": "Feature", "properties": { "cape": 785.75, "timestamp": "20260608T02" }, "geometry": { "type": "Point", "coordinates": [ -99.25, 50.75 ] } },
{ "type": "Feature", "properties": { "cape": 732.0, "timestamp": "20260608T02" }, "geometry": { "type": "Point", "coordinates": [ -99.25, 51.0 ] } },
{ "type": "Feature", "properties": { "cape": 854.5, "timestamp": "20260608T02" }, "geometry": { "type": "Point", "coordinates": [ -99.25, 51.25 ] } },
{ "type": "Feature", "properties": { "cape": 862.0, "timestamp": "20260608T02" }, "geometry": { "type": "Point", "coordinates": [ -99.25, 51.5 ] } },
{ "type": "Feature", "properties": { "cape": 880.0, "timestamp": "20260608T02" }, "geometry": { "type": "Point", "coordinates": [ -99.25, 51.75 ] } },
{ "type": "Feature", "properties": { "cape": 903.0, "timestamp": "20260608T02" }, "geometry": { "type": "Point", "coordinates": [ -99.25, 52.0 ] } },
{ "type": "Feature", "properties": { "cape": 857.0, "timestamp": "20260608T02" }, "geometry": { "type": "Point", "coordinates": [ -99.25, 52.25 ] } },
{ "type": "Feature", "properties": { "cape": 838.25, "timestamp": "20260608T02" }, "geometry": { "type": "Point", "coordinates": [ -99.25, 52.5 ] } },
{ "type": "Feature", "properties": { "cape": 792.25, "timestamp": "20260608T02" }, "geometry": { "type": "Point", "coordinates": [ -99.25, 52.75 ] } },
{ "type": "Feature", "properties": { "cape": 851.5, "timestamp": "20260608T02" }, "geometry": { "type": "Point", "coordinates": [ -99.25, 53.0 ] } },
{ "type": "Feature", "properties": { "cape": 857.75, "timestamp": "20260608T02" }, "geometry": { "type": "Point", "coordinates": [ -99.25, 53.25 ] } },
{ "type": "Feature", "properties": { "cape": 714.5, "timestamp": "20260608T02" }, "geometry": { "type": "Point", "coordinates": [ -99.25, 53.5 ] } },
{ "type": "Feature", "properties": { "cape": 405.75, "timestamp": "20260608T02" }, "geometry": { "type": "Point", "coordinates": [ -99.25, 53.75 ] } },
{ "type": "Feature", "properties": { "cape": 227.5, "timestamp": "20260608T02" }, "geometry": { "type": "Point", "coordinates": [ -99.25, 54.0 ] } },
{ "type": "Feature", "properties": { "cape": 131.75, "timestamp": "20260608T02" }, "geometry": { "type": "Point", "coordinates": [ -99.25, 54.25 ] } },
{ "type": "Feature", "properties": { "cape": 677.0, "timestamp": "20260608T02" }, "geometry": { "type": "Point", "coordinates": [ -99.0, 49.25 ] } },
{ "type": "Feature", "properties": { "cape": 683.25, "timestamp": "20260608T02" }, "geometry": { "type": "Point", "coordinates": [ -99.0, 49.5 ] } },
{ "type": "Feature", "properties": { "cape": 669.0, "timestamp": "20260608T02" }, "geometry": { "type": "Point", "coordinates": [ -99.0, 49.75 ] } },
{ "type": "Feature", "properties": { "cape": 666.0, "timestamp": "20260608T02" }, "geometry": { "type": "Point", "coordinates": [ -99.0, 50.0 ] } },
{ "type": "Feature", "properties": { "cape": 619.75, "timestamp": "20260608T02" }, "geometry": { "type": "Point", "coordinates": [ -99.0, 50.25 ] } },
{ "type": "Feature", "properties": { "cape": 612.25, "timestamp": "20260608T02" }, "geometry": { "type": "Point", "coordinates": [ -99.0, 50.5 ] } },
{ "type": "Feature", "properties": { "cape": 571.25, "timestamp": "20260608T02" }, "geometry": { "type": "Point", "coordinates": [ -99.0, 50.75 ] } },
{ "type": "Feature", "properties": { "cape": 570.25, "timestamp": "20260608T02" }, "geometry": { "type": "Point", "coordinates": [ -99.0, 51.0 ] } },
{ "type": "Feature", "properties": { "cape": 696.75, "timestamp": "20260608T02" }, "geometry": { "type": "Point", "coordinates": [ -99.0, 51.25 ] } },
{ "type": "Feature", "properties": { "cape": 749.5, "timestamp": "20260608T02" }, "geometry": { "type": "Point", "coordinates": [ -99.0, 51.5 ] } },
{ "type": "Feature", "properties": { "cape": 763.0, "timestamp": "20260608T02" }, "geometry": { "type": "Point", "coordinates": [ -99.0, 51.75 ] } },
{ "type": "Feature", "properties": { "cape": 764.75, "timestamp": "20260608T02" }, "geometry": { "type": "Point", "coordinates": [ -99.0, 52.0 ] } },
{ "type": "Feature", "properties": { "cape": 821.25, "timestamp": "20260608T02" }, "geometry": { "type": "Point", "coordinates": [ -99.0, 52.25 ] } },
{ "type": "Feature", "properties": { "cape": 846.25, "timestamp": "20260608T02" }, "geometry": { "type": "Point", "coordinates": [ -99.0, 52.5 ] } },
{ "type": "Feature", "properties": { "cape": 861.0, "timestamp": "20260608T02" }, "geometry": { "type": "Point", "coordinates": [ -99.0, 52.75 ] } },
{ "type": "Feature", "properties": { "cape": 866.5, "timestamp": "20260608T02" }, "geometry": { "type": "Point", "coordinates": [ -99.0, 53.0 ] } },
{ "type": "Feature", "properties": { "cape": 787.25, "timestamp": "20260608T02" }, "geometry": { "type": "Point", "coordinates": [ -99.0, 53.25 ] } },
{ "type": "Feature", "properties": { "cape": 649.0, "timestamp": "20260608T02" }, "geometry": { "type": "Point", "coordinates": [ -99.0, 53.5 ] } },
{ "type": "Feature", "properties": { "cape": 463.75, "timestamp": "20260608T02" }, "geometry": { "type": "Point", "coordinates": [ -99.0, 53.75 ] } },
{ "type": "Feature", "properties": { "cape": 285.25, "timestamp": "20260608T02" }, "geometry": { "type": "Point", "coordinates": [ -99.0, 54.0 ] } },
{ "type": "Feature", "properties": { "cape": 154.0, "timestamp": "20260608T02" }, "geometry": { "type": "Point", "coordinates": [ -99.0, 54.25 ] } },
{ "type": "Feature", "properties": { "cape": 532.5, "timestamp": "20260608T02" }, "geometry": { "type": "Point", "coordinates": [ -98.75, 49.25 ] } },
{ "type": "Feature", "properties": { "cape": 549.0, "timestamp": "20260608T02" }, "geometry": { "type": "Point", "coordinates": [ -98.75, 49.5 ] } },
{ "type": "Feature", "properties": { "cape": 532.0, "timestamp": "20260608T02" }, "geometry": { "type": "Point", "coordinates": [ -98.75, 49.75 ] } },
{ "type": "Feature", "properties": { "cape": 494.75, "timestamp": "20260608T02" }, "geometry": { "type": "Point", "coordinates": [ -98.75, 50.0 ] } },
{ "type": "Feature", "properties": { "cape": 439.25, "timestamp": "20260608T02" }, "geometry": { "type": "Point", "coordinates": [ -98.75, 50.25 ] } },
{ "type": "Feature", "properties": { "cape": 370.5, "timestamp": "20260608T02" }, "geometry": { "type": "Point", "coordinates": [ -98.75, 50.5 ] } },
{ "type": "Feature", "properties": { "cape": 365.25, "timestamp": "20260608T02" }, "geometry": { "type": "Point", "coordinates": [ -98.75, 50.75 ] } },
{ "type": "Feature", "properties": { "cape": 421.75, "timestamp": "20260608T02" }, "geometry": { "type": "Point", "coordinates": [ -98.75, 51.0 ] } },
{ "type": "Feature", "properties": { "cape": 555.75, "timestamp": "20260608T02" }, "geometry": { "type": "Point", "coordinates": [ -98.75, 51.25 ] } },
{ "type": "Feature", "properties": { "cape": 649.5, "timestamp": "20260608T02" }, "geometry": { "type": "Point", "coordinates": [ -98.75, 51.5 ] } },
{ "type": "Feature", "properties": { "cape": 619.25, "timestamp": "20260608T02" }, "geometry": { "type": "Point", "coordinates": [ -98.75, 51.75 ] } },
{ "type": "Feature", "properties": { "cape": 625.75, "timestamp": "20260608T02" }, "geometry": { "type": "Point", "coordinates": [ -98.75, 52.0 ] } },
{ "type": "Feature", "properties": { "cape": 691.75, "timestamp": "20260608T02" }, "geometry": { "type": "Point", "coordinates": [ -98.75, 52.25 ] } },
{ "type": "Feature", "properties": { "cape": 741.75, "timestamp": "20260608T02" }, "geometry": { "type": "Point", "coordinates": [ -98.75, 52.5 ] } },
{ "type": "Feature", "properties": { "cape": 825.25, "timestamp": "20260608T02" }, "geometry": { "type": "Point", "coordinates": [ -98.75, 52.75 ] } },
{ "type": "Feature", "properties": { "cape": 871.5, "timestamp": "20260608T02" }, "geometry": { "type": "Point", "coordinates": [ -98.75, 53.0 ] } },
{ "type": "Feature", "properties": { "cape": 763.75, "timestamp": "20260608T02" }, "geometry": { "type": "Point", "coordinates": [ -98.75, 53.25 ] } },
{ "type": "Feature", "properties": { "cape": 579.25, "timestamp": "20260608T02" }, "geometry": { "type": "Point", "coordinates": [ -98.75, 53.5 ] } },
{ "type": "Feature", "properties": { "cape": 496.25, "timestamp": "20260608T02" }, "geometry": { "type": "Point", "coordinates": [ -98.75, 53.75 ] } },
{ "type": "Feature", "properties": { "cape": 337.0, "timestamp": "20260608T02" }, "geometry": { "type": "Point", "coordinates": [ -98.75, 54.0 ] } },
{ "type": "Feature", "properties": { "cape": 224.25, "timestamp": "20260608T02" }, "geometry": { "type": "Point", "coordinates": [ -98.75, 54.25 ] } }
]
}
