{
"type": "FeatureCollection",
"name": "geojson_q500m_points_20260608T02",
"crs": { "type": "name", "properties": { "name": "urn:ogc:def:crs:OGC:1.3:CRS84" } },
"features": [
{ "type": "Feature", "properties": { "humidity@500m": 10.33093508017779, "lapserate": 0.0055458662, "timestamp": "20260608T02" }, "geometry": { "type": "Point", "coordinates": [ -103.75, 49.25 ] } },
{ "type": "Feature", "properties": { "humidity@500m": 10.34668576702329, "lapserate": 0.0055785659, "timestamp": "20260608T02" }, "geometry": { "type": "Point", "coordinates": [ -103.75, 49.5 ] } },
{ "type": "Feature", "properties": { "humidity@500m": 10.423270482003213, "lapserate": 0.0056085456, "timestamp": "20260608T02" }, "geometry": { "type": "Point", "coordinates": [ -103.75, 49.75 ] } },
{ "type": "Feature", "properties": { "humidity@500m": 10.588651879971426, "lapserate": 0.0056383037, "timestamp": "20260608T02" }, "geometry": { "type": "Point", "coordinates": [ -103.75, 50.0 ] } },
{ "type": "Feature", "properties": { "humidity@500m": 10.748395592548714, "lapserate": 0.0056747734, "timestamp": "20260608T02" }, "geometry": { "type": "Point", "coordinates": [ -103.75, 50.25 ] } },
{ "type": "Feature", "properties": { "humidity@500m": 10.887318716764483, "lapserate": 0.0057165585, "timestamp": "20260608T02" }, "geometry": { "type": "Point", "coordinates": [ -103.75, 50.5 ] } },
{ "type": "Feature", "properties": { "humidity@500m": 11.061649745714472, "lapserate": 0.0057353312, "timestamp": "20260608T02" }, "geometry": { "type": "Point", "coordinates": [ -103.75, 50.75 ] } },
{ "type": "Feature", "properties": { "humidity@500m": 11.146681580645758, "lapserate": 0.0057228236, "timestamp": "20260608T02" }, "geometry": { "type": "Point", "coordinates": [ -103.75, 51.0 ] } },
{ "type": "Feature", "properties": { "humidity@500m": 11.214538914791254, "lapserate": 0.00567747, "timestamp": "20260608T02" }, "geometry": { "type": "Point", "coordinates": [ -103.75, 51.25 ] } },
{ "type": "Feature", "properties": { "humidity@500m": 11.536357060006441, "lapserate": 0.0056194845, "timestamp": "20260608T02" }, "geometry": { "type": "Point", "coordinates": [ -103.75, 51.5 ] } },
{ "type": "Feature", "properties": { "humidity@500m": 11.915754537463764, "lapserate": 0.0055844169, "timestamp": "20260608T02" }, "geometry": { "type": "Point", "coordinates": [ -103.75, 51.75 ] } },
{ "type": "Feature", "properties": { "humidity@500m": 11.965242929018817, "lapserate": 0.0056100241, "timestamp": "20260608T02" }, "geometry": { "type": "Point", "coordinates": [ -103.75, 52.0 ] } },
{ "type": "Feature", "properties": { "humidity@500m": 11.882695720444071, "lapserate": 0.0057452871, "timestamp": "20260608T02" }, "geometry": { "type": "Point", "coordinates": [ -103.75, 52.25 ] } },
{ "type": "Feature", "properties": { "humidity@500m": 11.885666624225049, "lapserate": 0.005891738, "timestamp": "20260608T02" }, "geometry": { "type": "Point", "coordinates": [ -103.75, 52.5 ] } },
{ "type": "Feature", "properties": { "humidity@500m": 11.739264469744709, "lapserate": 0.0060092704, "timestamp": "20260608T02" }, "geometry": { "type": "Point", "coordinates": [ -103.75, 52.75 ] } },
{ "type": "Feature", "properties": { "humidity@500m": 11.468135149756854, "lapserate": 0.0061404742, "timestamp": "20260608T02" }, "geometry": { "type": "Point", "coordinates": [ -103.75, 53.0 ] } },
{ "type": "Feature", "properties": { "humidity@500m": 10.64094368915505, "lapserate": 0.0061771092, "timestamp": "20260608T02" }, "geometry": { "type": "Point", "coordinates": [ -103.75, 53.25 ] } },
{ "type": "Feature", "properties": { "humidity@500m": 10.589587030924788, "lapserate": 0.0061494331, "timestamp": "20260608T02" }, "geometry": { "type": "Point", "coordinates": [ -103.75, 53.5 ] } },
{ "type": "Feature", "properties": { "humidity@500m": 10.229754253249418, "lapserate": 0.0060725971, "timestamp": "20260608T02" }, "geometry": { "type": "Point", "coordinates": [ -103.75, 53.75 ] } },
{ "type": "Feature", "properties": { "humidity@500m": 9.7863385424307747, "lapserate": 0.0059421631, "timestamp": "20260608T02" }, "geometry": { "type": "Point", "coordinates": [ -103.75, 54.0 ] } },
{ "type": "Feature", "properties": { "humidity@500m": 9.5868518869033039, "lapserate": 0.0058852327, "timestamp": "20260608T02" }, "geometry": { "type": "Point", "coordinates": [ -103.75, 54.25 ] } },
{ "type": "Feature", "properties": { "humidity@500m": 11.105477901520254, "lapserate": 0.0055201263, "timestamp": "20260608T02" }, "geometry": { "type": "Point", "coordinates": [ -103.5, 49.25 ] } },
{ "type": "Feature", "properties": { "humidity@500m": 11.219771043480645, "lapserate": 0.0055865003, "timestamp": "20260608T02" }, "geometry": { "type": "Point", "coordinates": [ -103.5, 49.5 ] } },
{ "type": "Feature", "properties": { "humidity@500m": 11.286036161438577, "lapserate": 0.0056717983, "timestamp": "20260608T02" }, "geometry": { "type": "Point", "coordinates": [ -103.5, 49.75 ] } },
{ "type": "Feature", "properties": { "humidity@500m": 11.310858942909604, "lapserate": 0.0057561523, "timestamp": "20260608T02" }, "geometry": { "type": "Point", "coordinates": [ -103.5, 50.0 ] } },
{ "type": "Feature", "properties": { "humidity@500m": 11.414114849719679, "lapserate": 0.0058442722, "timestamp": "20260608T02" }, "geometry": { "type": "Point", "coordinates": [ -103.5, 50.25 ] } },
{ "type": "Feature", "properties": { "humidity@500m": 11.575623197400651, "lapserate": 0.0059079216, "timestamp": "20260608T02" }, "geometry": { "type": "Point", "coordinates": [ -103.5, 50.5 ] } },
{ "type": "Feature", "properties": { "humidity@500m": 11.759283815343863, "lapserate": 0.0059177279, "timestamp": "20260608T02" }, "geometry": { "type": "Point", "coordinates": [ -103.5, 50.75 ] } },
{ "type": "Feature", "properties": { "humidity@500m": 11.840764653611219, "lapserate": 0.0058868718, "timestamp": "20260608T02" }, "geometry": { "type": "Point", "coordinates": [ -103.5, 51.0 ] } },
{ "type": "Feature", "properties": { "humidity@500m": 11.891074951535344, "lapserate": 0.0058430862, "timestamp": "20260608T02" }, "geometry": { "type": "Point", "coordinates": [ -103.5, 51.25 ] } },
{ "type": "Feature", "properties": { "humidity@500m": 12.08978670475924, "lapserate": 0.0057913424, "timestamp": "20260608T02" }, "geometry": { "type": "Point", "coordinates": [ -103.5, 51.5 ] } },
{ "type": "Feature", "properties": { "humidity@500m": 12.067875584366456, "lapserate": 0.0057325405, "timestamp": "20260608T02" }, "geometry": { "type": "Point", "coordinates": [ -103.5, 51.75 ] } },
{ "type": "Feature", "properties": { "humidity@500m": 12.222364383972723, "lapserate": 0.0056819823, "timestamp": "20260608T02" }, "geometry": { "type": "Point", "coordinates": [ -103.5, 52.0 ] } },
{ "type": "Feature", "properties": { "humidity@500m": 12.18265288644916, "lapserate": 0.0057103806, "timestamp": "20260608T02" }, "geometry": { "type": "Point", "coordinates": [ -103.5, 52.25 ] } },
{ "type": "Feature", "properties": { "humidity@500m": 12.062015515422919, "lapserate": 0.0058230129, "timestamp": "20260608T02" }, "geometry": { "type": "Point", "coordinates": [ -103.5, 52.5 ] } },
{ "type": "Feature", "properties": { "humidity@500m": 11.845545498277634, "lapserate": 0.0059679011, "timestamp": "20260608T02" }, "geometry": { "type": "Point", "coordinates": [ -103.5, 52.75 ] } },
{ "type": "Feature", "properties": { "humidity@500m": 11.668951607938739, "lapserate": 0.0060904007, "timestamp": "20260608T02" }, "geometry": { "type": "Point", "coordinates": [ -103.5, 53.0 ] } },
{ "type": "Feature", "properties": { "humidity@500m": 11.059502016964805, "lapserate": 0.0061251312, "timestamp": "20260608T02" }, "geometry": { "type": "Point", "coordinates": [ -103.5, 53.25 ] } },
{ "type": "Feature", "properties": { "humidity@500m": 11.190177948819452, "lapserate": 0.0061257477, "timestamp": "20260608T02" }, "geometry": { "type": "Point", "coordinates": [ -103.5, 53.5 ] } },
{ "type": "Feature", "properties": { "humidity@500m": 10.793774256802738, "lapserate": 0.0060374676, "timestamp": "20260608T02" }, "geometry": { "type": "Point", "coordinates": [ -103.5, 53.75 ] } },
{ "type": "Feature", "properties": { "humidity@500m": 10.299544722584876, "lapserate": 0.0058514094, "timestamp": "20260608T02" }, "geometry": { "type": "Point", "coordinates": [ -103.5, 54.0 ] } },
{ "type": "Feature", "properties": { "humidity@500m": 10.002936663148333, "lapserate": 0.0057701222, "timestamp": "20260608T02" }, "geometry": { "type": "Point", "coordinates": [ -103.5, 54.25 ] } },
{ "type": "Feature", "properties": { "humidity@500m": 11.857449937291625, "lapserate": 0.0054949438, "timestamp": "20260608T02" }, "geometry": { "type": "Point", "coordinates": [ -103.25, 49.25 ] } },
{ "type": "Feature", "properties": { "humidity@500m": 11.97348027330237, "lapserate": 0.0056330524, "timestamp": "20260608T02" }, "geometry": { "type": "Point", "coordinates": [ -103.25, 49.5 ] } },
{ "type": "Feature", "properties": { "humidity@500m": 11.839309069494083, "lapserate": 0.005783211, "timestamp": "20260608T02" }, "geometry": { "type": "Point", "coordinates": [ -103.25, 49.75 ] } },
{ "type": "Feature", "properties": { "humidity@500m": 11.856986164874161, "lapserate": 0.0058863354, "timestamp": "20260608T02" }, "geometry": { "type": "Point", "coordinates": [ -103.25, 50.0 ] } },
{ "type": "Feature", "properties": { "humidity@500m": 11.82080238567212, "lapserate": 0.005977313, "timestamp": "20260608T02" }, "geometry": { "type": "Point", "coordinates": [ -103.25, 50.25 ] } },
{ "type": "Feature", "properties": { "humidity@500m": 12.030275433474559, "lapserate": 0.0060427515, "timestamp": "20260608T02" }, "geometry": { "type": "Point", "coordinates": [ -103.25, 50.5 ] } },
{ "type": "Feature", "properties": { "humidity@500m": 12.205902802078368, "lapserate": 0.0060610706, "timestamp": "20260608T02" }, "geometry": { "type": "Point", "coordinates": [ -103.25, 50.75 ] } },
{ "type": "Feature", "properties": { "humidity@500m": 12.266835712309867, "lapserate": 0.0060433187, "timestamp": "20260608T02" }, "geometry": { "type": "Point", "coordinates": [ -103.25, 51.0 ] } },
{ "type": "Feature", "properties": { "humidity@500m": 12.332013925108598, "lapserate": 0.0060259351, "timestamp": "20260608T02" }, "geometry": { "type": "Point", "coordinates": [ -103.25, 51.25 ] } },
{ "type": "Feature", "properties": { "humidity@500m": 12.364055768392486, "lapserate": 0.0060017034, "timestamp": "20260608T02" }, "geometry": { "type": "Point", "coordinates": [ -103.25, 51.5 ] } },
{ "type": "Feature", "properties": { "humidity@500m": 12.352105216706157, "lapserate": 0.0059523652, "timestamp": "20260608T02" }, "geometry": { "type": "Point", "coordinates": [ -103.25, 51.75 ] } },
{ "type": "Feature", "properties": { "humidity@500m": 12.365667522633194, "lapserate": 0.005865349, "timestamp": "20260608T02" }, "geometry": { "type": "Point", "coordinates": [ -103.25, 52.0 ] } },
{ "type": "Feature", "properties": { "humidity@500m": 12.318977016547827, "lapserate": 0.0057836059, "timestamp": "20260608T02" }, "geometry": { "type": "Point", "coordinates": [ -103.25, 52.25 ] } },
{ "type": "Feature", "properties": { "humidity@500m": 12.197738390754802, "lapserate": 0.0057995482, "timestamp": "20260608T02" }, "geometry": { "type": "Point", "coordinates": [ -103.25, 52.5 ] } },
{ "type": "Feature", "properties": { "humidity@500m": 12.0413030142502, "lapserate": 0.0058974181, "timestamp": "20260608T02" }, "geometry": { "type": "Point", "coordinates": [ -103.25, 52.75 ] } },
{ "type": "Feature", "properties": { "humidity@500m": 11.907962253540129, "lapserate": 0.0059798607, "timestamp": "20260608T02" }, "geometry": { "type": "Point", "coordinates": [ -103.25, 53.0 ] } },
{ "type": "Feature", "properties": { "humidity@500m": 11.560976071387303, "lapserate": 0.0060279169, "timestamp": "20260608T02" }, "geometry": { "type": "Point", "coordinates": [ -103.25, 53.25 ] } },
{ "type": "Feature", "properties": { "humidity@500m": 11.517599776876832, "lapserate": 0.0060939314, "timestamp": "20260608T02" }, "geometry": { "type": "Point", "coordinates": [ -103.25, 53.5 ] } },
{ "type": "Feature", "properties": { "humidity@500m": 11.120983432546726, "lapserate": 0.0060273972, "timestamp": "20260608T02" }, "geometry": { "type": "Point", "coordinates": [ -103.25, 53.75 ] } },
{ "type": "Feature", "properties": { "humidity@500m": 10.640541655100138, "lapserate": 0.0058060386, "timestamp": "20260608T02" }, "geometry": { "type": "Point", "coordinates": [ -103.25, 54.0 ] } },
{ "type": "Feature", "properties": { "humidity@500m": 10.384400002069738, "lapserate": 0.0056974939, "timestamp": "20260608T02" }, "geometry": { "type": "Point", "coordinates": [ -103.25, 54.25 ] } },
{ "type": "Feature", "properties": { "humidity@500m": 12.581759512211324, "lapserate": 0.0055790944, "timestamp": "20260608T02" }, "geometry": { "type": "Point", "coordinates": [ -103.0, 49.25 ] } },
{ "type": "Feature", "properties": { "humidity@500m": 12.33567896459518, "lapserate": 0.0057697049, "timestamp": "20260608T02" }, "geometry": { "type": "Point", "coordinates": [ -103.0, 49.5 ] } },
{ "type": "Feature", "properties": { "humidity@500m": 12.012297191824882, "lapserate": 0.0059632645, "timestamp": "20260608T02" }, "geometry": { "type": "Point", "coordinates": [ -103.0, 49.75 ] } },
{ "type": "Feature", "properties": { "humidity@500m": 11.925025444100813, "lapserate": 0.006080993, "timestamp": "20260608T02" }, "geometry": { "type": "Point", "coordinates": [ -103.0, 50.0 ] } },
{ "type": "Feature", "properties": { "humidity@500m": 11.83198897040131, "lapserate": 0.0061555202, "timestamp": "20260608T02" }, "geometry": { "type": "Point", "coordinates": [ -103.0, 50.25 ] } },
{ "type": "Feature", "properties": { "humidity@500m": 11.955208621307829, "lapserate": 0.0061969855, "timestamp": "20260608T02" }, "geometry": { "type": "Point", "coordinates": [ -103.0, 50.5 ] } },
{ "type": "Feature", "properties": { "humidity@500m": 12.113028342398717, "lapserate": 0.0062104939, "timestamp": "20260608T02" }, "geometry": { "type": "Point", "coordinates": [ -103.0, 50.75 ] } },
{ "type": "Feature", "properties": { "humidity@500m": 12.240559421175403, "lapserate": 0.0062043695, "timestamp": "20260608T02" }, "geometry": { "type": "Point", "coordinates": [ -103.0, 51.0 ] } },
{ "type": "Feature", "properties": { "humidity@500m": 12.339798848884985, "lapserate": 0.0062073404, "timestamp": "20260608T02" }, "geometry": { "type": "Point", "coordinates": [ -103.0, 51.25 ] } },
{ "type": "Feature", "properties": { "humidity@500m": 12.336597698367864, "lapserate": 0.0061956737, "timestamp": "20260608T02" }, "geometry": { "type": "Point", "coordinates": [ -103.0, 51.5 ] } },
{ "type": "Feature", "properties": { "humidity@500m": 12.336144278624857, "lapserate": 0.0061597661, "timestamp": "20260608T02" }, "geometry": { "type": "Point", "coordinates": [ -103.0, 51.75 ] } },
{ "type": "Feature", "properties": { "humidity@500m": 12.346849865048949, "lapserate": 0.0060909847, "timestamp": "20260608T02" }, "geometry": { "type": "Point", "coordinates": [ -103.0, 52.0 ] } },
{ "type": "Feature", "properties": { "humidity@500m": 12.311898178600451, "lapserate": 0.0059840037, "timestamp": "20260608T02" }, "geometry": { "type": "Point", "coordinates": [ -103.0, 52.25 ] } },
{ "type": "Feature", "properties": { "humidity@500m": 12.22077016324975, "lapserate": 0.005922725, "timestamp": "20260608T02" }, "geometry": { "type": "Point", "coordinates": [ -103.0, 52.5 ] } },
{ "type": "Feature", "properties": { "humidity@500m": 12.168273272676059, "lapserate": 0.0059237173, "timestamp": "20260608T02" }, "geometry": { "type": "Point", "coordinates": [ -103.0, 52.75 ] } },
{ "type": "Feature", "properties": { "humidity@500m": 11.997210568019421, "lapserate": 0.0059209974, "timestamp": "20260608T02" }, "geometry": { "type": "Point", "coordinates": [ -103.0, 53.0 ] } },
{ "type": "Feature", "properties": { "humidity@500m": 11.934905827100129, "lapserate": 0.0059469305, "timestamp": "20260608T02" }, "geometry": { "type": "Point", "coordinates": [ -103.0, 53.25 ] } },
{ "type": "Feature", "properties": { "humidity@500m": 11.765371374097745, "lapserate": 0.0060479813, "timestamp": "20260608T02" }, "geometry": { "type": "Point", "coordinates": [ -103.0, 53.5 ] } },
{ "type": "Feature", "properties": { "humidity@500m": 11.387426126645915, "lapserate": 0.0060135801, "timestamp": "20260608T02" }, "geometry": { "type": "Point", "coordinates": [ -103.0, 53.75 ] } },
{ "type": "Feature", "properties": { "humidity@500m": 10.974829619441524, "lapserate": 0.0057944264, "timestamp": "20260608T02" }, "geometry": { "type": "Point", "coordinates": [ -103.0, 54.0 ] } },
{ "type": "Feature", "properties": { "humidity@500m": 10.70223023191858, "lapserate": 0.0056631584, "timestamp": "20260608T02" }, "geometry": { "type": "Point", "coordinates": [ -103.0, 54.25 ] } },
{ "type": "Feature", "properties": { "humidity@500m": 12.691397997119743, "lapserate": 0.0057452661, "timestamp": "20260608T02" }, "geometry": { "type": "Point", "coordinates": [ -102.75, 49.25 ] } },
{ "type": "Feature", "properties": { "humidity@500m": 12.411689096978344, "lapserate": 0.0059203864, "timestamp": "20260608T02" }, "geometry": { "type": "Point", "coordinates": [ -102.75, 49.5 ] } },
{ "type": "Feature", "properties": { "humidity@500m": 12.10674284073049, "lapserate": 0.0061265742, "timestamp": "20260608T02" }, "geometry": { "type": "Point", "coordinates": [ -102.75, 49.75 ] } },
{ "type": "Feature", "properties": { "humidity@500m": 11.89817953974331, "lapserate": 0.006295661, "timestamp": "20260608T02" }, "geometry": { "type": "Point", "coordinates": [ -102.75, 50.0 ] } },
{ "type": "Feature", "properties": { "humidity@500m": 11.813049678440926, "lapserate": 0.006401178, "timestamp": "20260608T02" }, "geometry": { "type": "Point", "coordinates": [ -102.75, 50.25 ] } },
{ "type": "Feature", "properties": { "humidity@500m": 11.904456656928282, "lapserate": 0.0064347051, "timestamp": "20260608T02" }, "geometry": { "type": "Point", "coordinates": [ -102.75, 50.5 ] } },
{ "type": "Feature", "properties": { "humidity@500m": 12.056499625036883, "lapserate": 0.0064272988, "timestamp": "20260608T02" }, "geometry": { "type": "Point", "coordinates": [ -102.75, 50.75 ] } },
{ "type": "Feature", "properties": { "humidity@500m": 12.234802409759729, "lapserate": 0.0063986667, "timestamp": "20260608T02" }, "geometry": { "type": "Point", "coordinates": [ -102.75, 51.0 ] } },
{ "type": "Feature", "properties": { "humidity@500m": 12.395244708854763, "lapserate": 0.0063783145, "timestamp": "20260608T02" }, "geometry": { "type": "Point", "coordinates": [ -102.75, 51.25 ] } },
{ "type": "Feature", "properties": { "humidity@500m": 12.399442960605706, "lapserate": 0.0063446779, "timestamp": "20260608T02" }, "geometry": { "type": "Point", "coordinates": [ -102.75, 51.5 ] } },
{ "type": "Feature", "properties": { "humidity@500m": 12.383836834132788, "lapserate": 0.0063015223, "timestamp": "20260608T02" }, "geometry": { "type": "Point", "coordinates": [ -102.75, 51.75 ] } },
{ "type": "Feature", "properties": { "humidity@500m": 12.242864981467312, "lapserate": 0.0062718792, "timestamp": "20260608T02" }, "geometry": { "type": "Point", "coordinates": [ -102.75, 52.0 ] } },
{ "type": "Feature", "properties": { "humidity@500m": 12.128126489637106, "lapserate": 0.0062231687, "timestamp": "20260608T02" }, "geometry": { "type": "Point", "coordinates": [ -102.75, 52.25 ] } },
{ "type": "Feature", "properties": { "humidity@500m": 12.032531794136965, "lapserate": 0.0061571673, "timestamp": "20260608T02" }, "geometry": { "type": "Point", "coordinates": [ -102.75, 52.5 ] } },
{ "type": "Feature", "properties": { "humidity@500m": 11.995116353021615, "lapserate": 0.0060685198, "timestamp": "20260608T02" }, "geometry": { "type": "Point", "coordinates": [ -102.75, 52.75 ] } },
{ "type": "Feature", "properties": { "humidity@500m": 11.878105528410249, "lapserate": 0.0059488835, "timestamp": "20260608T02" }, "geometry": { "type": "Point", "coordinates": [ -102.75, 53.0 ] } },
{ "type": "Feature", "properties": { "humidity@500m": 11.90283919594418, "lapserate": 0.0058908951, "timestamp": "20260608T02" }, "geometry": { "type": "Point", "coordinates": [ -102.75, 53.25 ] } },
{ "type": "Feature", "properties": { "humidity@500m": 11.899462838211697, "lapserate": 0.0059674419, "timestamp": "20260608T02" }, "geometry": { "type": "Point", "coordinates": [ -102.75, 53.5 ] } },
{ "type": "Feature", "properties": { "humidity@500m": 11.513541634524959, "lapserate": 0.0059638713, "timestamp": "20260608T02" }, "geometry": { "type": "Point", "coordinates": [ -102.75, 53.75 ] } },
{ "type": "Feature", "properties": { "humidity@500m": 11.203817823516939, "lapserate": 0.0057897037, "timestamp": "20260608T02" }, "geometry": { "type": "Point", "coordinates": [ -102.75, 54.0 ] } },
{ "type": "Feature", "properties": { "humidity@500m": 10.93232731360094, "lapserate": 0.0056615397, "timestamp": "20260608T02" }, "geometry": { "type": "Point", "coordinates": [ -102.75, 54.25 ] } },
{ "type": "Feature", "properties": { "humidity@500m": 12.540582034928534, "lapserate": 0.0059956652, "timestamp": "20260608T02" }, "geometry": { "type": "Point", "coordinates": [ -102.5, 49.25 ] } },
{ "type": "Feature", "properties": { "humidity@500m": 12.347937138778475, "lapserate": 0.0061239628, "timestamp": "20260608T02" }, "geometry": { "type": "Point", "coordinates": [ -102.5, 49.5 ] } },
{ "type": "Feature", "properties": { "humidity@500m": 12.020851044760958, "lapserate": 0.0062999739, "timestamp": "20260608T02" }, "geometry": { "type": "Point", "coordinates": [ -102.5, 49.75 ] } },
{ "type": "Feature", "properties": { "humidity@500m": 11.787538429957431, "lapserate": 0.0064911898, "timestamp": "20260608T02" }, "geometry": { "type": "Point", "coordinates": [ -102.5, 50.0 ] } },
{ "type": "Feature", "properties": { "humidity@500m": 11.792787320937984, "lapserate": 0.0066279853, "timestamp": "20260608T02" }, "geometry": { "type": "Point", "coordinates": [ -102.5, 50.25 ] } },
{ "type": "Feature", "properties": { "humidity@500m": 11.876160936283169, "lapserate": 0.0066734515, "timestamp": "20260608T02" }, "geometry": { "type": "Point", "coordinates": [ -102.5, 50.5 ] } },
{ "type": "Feature", "properties": { "humidity@500m": 11.992638182224375, "lapserate": 0.0066529997, "timestamp": "20260608T02" }, "geometry": { "type": "Point", "coordinates": [ -102.5, 50.75 ] } },
{ "type": "Feature", "properties": { "humidity@500m": 12.208168991547799, "lapserate": 0.0065931687, "timestamp": "20260608T02" }, "geometry": { "type": "Point", "coordinates": [ -102.5, 51.0 ] } },
{ "type": "Feature", "properties": { "humidity@500m": 12.430609573367391, "lapserate": 0.0065334584, "timestamp": "20260608T02" }, "geometry": { "type": "Point", "coordinates": [ -102.5, 51.25 ] } },
{ "type": "Feature", "properties": { "humidity@500m": 12.488846657469562, "lapserate": 0.0064704036, "timestamp": "20260608T02" }, "geometry": { "type": "Point", "coordinates": [ -102.5, 51.5 ] } },
{ "type": "Feature", "properties": { "humidity@500m": 12.467465019117405, "lapserate": 0.0064081666, "timestamp": "20260608T02" }, "geometry": { "type": "Point", "coordinates": [ -102.5, 51.75 ] } },
{ "type": "Feature", "properties": { "humidity@500m": 12.307106210809158, "lapserate": 0.0063902643, "timestamp": "20260608T02" }, "geometry": { "type": "Point", "coordinates": [ -102.5, 52.0 ] } },
{ "type": "Feature", "properties": { "humidity@500m": 11.941506327841205, "lapserate": 0.0064034718, "timestamp": "20260608T02" }, "geometry": { "type": "Point", "coordinates": [ -102.5, 52.25 ] } },
{ "type": "Feature", "properties": { "humidity@500m": 11.834695631932188, "lapserate": 0.0063789776, "timestamp": "20260608T02" }, "geometry": { "type": "Point", "coordinates": [ -102.5, 52.5 ] } },
{ "type": "Feature", "properties": { "humidity@500m": 11.81530164005137, "lapserate": 0.0062480774, "timestamp": "20260608T02" }, "geometry": { "type": "Point", "coordinates": [ -102.5, 52.75 ] } },
{ "type": "Feature", "properties": { "humidity@500m": 11.777697389384093, "lapserate": 0.0060195131, "timestamp": "20260608T02" }, "geometry": { "type": "Point", "coordinates": [ -102.5, 53.0 ] } },
{ "type": "Feature", "properties": { "humidity@500m": 11.809663385847083, "lapserate": 0.0058397804, "timestamp": "20260608T02" }, "geometry": { "type": "Point", "coordinates": [ -102.5, 53.25 ] } },
{ "type": "Feature", "properties": { "humidity@500m": 11.977371225616821, "lapserate": 0.0058484655, "timestamp": "20260608T02" }, "geometry": { "type": "Point", "coordinates": [ -102.5, 53.5 ] } },
{ "type": "Feature", "properties": { "humidity@500m": 11.632789782446837, "lapserate": 0.0058707176, "timestamp": "20260608T02" }, "geometry": { "type": "Point", "coordinates": [ -102.5, 53.75 ] } },
{ "type": "Feature", "properties": { "humidity@500m": 11.320408226304767, "lapserate": 0.0057729757, "timestamp": "20260608T02" }, "geometry": { "type": "Point", "coordinates": [ -102.5, 54.0 ] } },
{ "type": "Feature", "properties": { "humidity@500m": 11.045248270210022, "lapserate": 0.0056823129, "timestamp": "20260608T02" }, "geometry": { "type": "Point", "coordinates": [ -102.5, 54.25 ] } },
{ "type": "Feature", "properties": { "humidity@500m": 12.316615085363862, "lapserate": 0.0063426434, "timestamp": "20260608T02" }, "geometry": { "type": "Point", "coordinates": [ -102.25, 49.25 ] } },
{ "type": "Feature", "properties": { "humidity@500m": 12.150799452541712, "lapserate": 0.006446356, "timestamp": "20260608T02" }, "geometry": { "type": "Point", "coordinates": [ -102.25, 49.5 ] } },
{ "type": "Feature", "properties": { "humidity@500m": 11.821457449980246, "lapserate": 0.006560748, "timestamp": "20260608T02" }, "geometry": { "type": "Point", "coordinates": [ -102.25, 49.75 ] } },
{ "type": "Feature", "properties": { "humidity@500m": 11.614865193087887, "lapserate": 0.0066826311, "timestamp": "20260608T02" }, "geometry": { "type": "Point", "coordinates": [ -102.25, 50.0 ] } },
{ "type": "Feature", "properties": { "humidity@500m": 11.531249105024401, "lapserate": 0.0067711733, "timestamp": "20260608T02" }, "geometry": { "type": "Point", "coordinates": [ -102.25, 50.25 ] } },
{ "type": "Feature", "properties": { "humidity@500m": 11.655870155213728, "lapserate": 0.0067985482, "timestamp": "20260608T02" }, "geometry": { "type": "Point", "coordinates": [ -102.25, 50.5 ] } },
{ "type": "Feature", "properties": { "humidity@500m": 11.778273361493547, "lapserate": 0.0067735021, "timestamp": "20260608T02" }, "geometry": { "type": "Point", "coordinates": [ -102.25, 50.75 ] } },
{ "type": "Feature", "properties": { "humidity@500m": 11.945572644306477, "lapserate": 0.0067118197, "timestamp": "20260608T02" }, "geometry": { "type": "Point", "coordinates": [ -102.25, 51.0 ] } },
{ "type": "Feature", "properties": { "humidity@500m": 12.145329977399706, "lapserate": 0.00664296, "timestamp": "20260608T02" }, "geometry": { "type": "Point", "coordinates": [ -102.25, 51.25 ] } },
{ "type": "Feature", "properties": { "humidity@500m": 12.251773645290516, "lapserate": 0.0065782974, "timestamp": "20260608T02" }, "geometry": { "type": "Point", "coordinates": [ -102.25, 51.5 ] } },
{ "type": "Feature", "properties": { "humidity@500m": 12.317322158348519, "lapserate": 0.0065108184, "timestamp": "20260608T02" }, "geometry": { "type": "Point", "coordinates": [ -102.25, 51.75 ] } },
{ "type": "Feature", "properties": { "humidity@500m": 12.299746988387323, "lapserate": 0.0064737522, "timestamp": "20260608T02" }, "geometry": { "type": "Point", "coordinates": [ -102.25, 52.0 ] } },
{ "type": "Feature", "properties": { "humidity@500m": 11.943059492255507, "lapserate": 0.0064969938, "timestamp": "20260608T02" }, "geometry": { "type": "Point", "coordinates": [ -102.25, 52.25 ] } },
{ "type": "Feature", "properties": { "humidity@500m": 11.634934948686372, "lapserate": 0.0065103178, "timestamp": "20260608T02" }, "geometry": { "type": "Point", "coordinates": [ -102.25, 52.5 ] } },
{ "type": "Feature", "properties": { "humidity@500m": 11.558041431144346, "lapserate": 0.0063986322, "timestamp": "20260608T02" }, "geometry": { "type": "Point", "coordinates": [ -102.25, 52.75 ] } },
{ "type": "Feature", "properties": { "humidity@500m": 11.523537694874364, "lapserate": 0.0061217598, "timestamp": "20260608T02" }, "geometry": { "type": "Point", "coordinates": [ -102.25, 53.0 ] } },
{ "type": "Feature", "properties": { "humidity@500m": 11.779025652410734, "lapserate": 0.0058299671, "timestamp": "20260608T02" }, "geometry": { "type": "Point", "coordinates": [ -102.25, 53.25 ] } },
{ "type": "Feature", "properties": { "humidity@500m": 12.048276944268359, "lapserate": 0.0057460354, "timestamp": "20260608T02" }, "geometry": { "type": "Point", "coordinates": [ -102.25, 53.5 ] } },
{ "type": "Feature", "properties": { "humidity@500m": 11.751690344275278, "lapserate": 0.0057673771, "timestamp": "20260608T02" }, "geometry": { "type": "Point", "coordinates": [ -102.25, 53.75 ] } },
{ "type": "Feature", "properties": { "humidity@500m": 11.35946991333943, "lapserate": 0.0057394947, "timestamp": "20260608T02" }, "geometry": { "type": "Point", "coordinates": [ -102.25, 54.0 ] } },
{ "type": "Feature", "properties": { "humidity@500m": 11.051742235315098, "lapserate": 0.0057030353, "timestamp": "20260608T02" }, "geometry": { "type": "Point", "coordinates": [ -102.25, 54.25 ] } },
{ "type": "Feature", "properties": { "humidity@500m": 12.265094325722732, "lapserate": 0.0066200797, "timestamp": "20260608T02" }, "geometry": { "type": "Point", "coordinates": [ -102.0, 49.25 ] } },
{ "type": "Feature", "properties": { "humidity@500m": 12.043497763948286, "lapserate": 0.0067037786, "timestamp": "20260608T02" }, "geometry": { "type": "Point", "coordinates": [ -102.0, 49.5 ] } },
{ "type": "Feature", "properties": { "humidity@500m": 11.750287211569006, "lapserate": 0.0067664725, "timestamp": "20260608T02" }, "geometry": { "type": "Point", "coordinates": [ -102.0, 49.75 ] } },
{ "type": "Feature", "properties": { "humidity@500m": 11.467422177828317, "lapserate": 0.0068131834, "timestamp": "20260608T02" }, "geometry": { "type": "Point", "coordinates": [ -102.0, 50.0 ] } },
{ "type": "Feature", "properties": { "humidity@500m": 11.420083321275657, "lapserate": 0.0068382993, "timestamp": "20260608T02" }, "geometry": { "type": "Point", "coordinates": [ -102.0, 50.25 ] } },
{ "type": "Feature", "properties": { "humidity@500m": 11.541953574531306, "lapserate": 0.0068315202, "timestamp": "20260608T02" }, "geometry": { "type": "Point", "coordinates": [ -102.0, 50.5 ] } },
{ "type": "Feature", "properties": { "humidity@500m": 11.679093023680027, "lapserate": 0.0067984532, "timestamp": "20260608T02" }, "geometry": { "type": "Point", "coordinates": [ -102.0, 50.75 ] } },
{ "type": "Feature", "properties": { "humidity@500m": 11.809013640812413, "lapserate": 0.0067501469, "timestamp": "20260608T02" }, "geometry": { "type": "Point", "coordinates": [ -102.0, 51.0 ] } },
{ "type": "Feature", "properties": { "humidity@500m": 11.924195386331652, "lapserate": 0.0066943816, "timestamp": "20260608T02" }, "geometry": { "type": "Point", "coordinates": [ -102.0, 51.25 ] } },
{ "type": "Feature", "properties": { "humidity@500m": 12.050646062522114, "lapserate": 0.0066442662, "timestamp": "20260608T02" }, "geometry": { "type": "Point", "coordinates": [ -102.0, 51.5 ] } },
{ "type": "Feature", "properties": { "humidity@500m": 12.269477087272625, "lapserate": 0.0065861689, "timestamp": "20260608T02" }, "geometry": { "type": "Point", "coordinates": [ -102.0, 51.75 ] } },
{ "type": "Feature", "properties": { "humidity@500m": 12.355789037264406, "lapserate": 0.0065289852, "timestamp": "20260608T02" }, "geometry": { "type": "Point", "coordinates": [ -102.0, 52.0 ] } },
{ "type": "Feature", "properties": { "humidity@500m": 12.032976847932972, "lapserate": 0.0065220483, "timestamp": "20260608T02" }, "geometry": { "type": "Point", "coordinates": [ -102.0, 52.25 ] } },
{ "type": "Feature", "properties": { "humidity@500m": 11.647148560060252, "lapserate": 0.0065450659, "timestamp": "20260608T02" }, "geometry": { "type": "Point", "coordinates": [ -102.0, 52.5 ] } },
{ "type": "Feature", "properties": { "humidity@500m": 11.455348796057169, "lapserate": 0.0065017724, "timestamp": "20260608T02" }, "geometry": { "type": "Point", "coordinates": [ -102.0, 52.75 ] } },
{ "type": "Feature", "properties": { "humidity@500m": 11.46471146887, "lapserate": 0.0062683392, "timestamp": "20260608T02" }, "geometry": { "type": "Point", "coordinates": [ -102.0, 53.0 ] } },
{ "type": "Feature", "properties": { "humidity@500m": 11.710843352035125, "lapserate": 0.0059223166, "timestamp": "20260608T02" }, "geometry": { "type": "Point", "coordinates": [ -102.0, 53.25 ] } },
{ "type": "Feature", "properties": { "humidity@500m": 11.893351124817142, "lapserate": 0.0057380465, "timestamp": "20260608T02" }, "geometry": { "type": "Point", "coordinates": [ -102.0, 53.5 ] } },
{ "type": "Feature", "properties": { "humidity@500m": 11.714617833582931, "lapserate": 0.0057099494, "timestamp": "20260608T02" }, "geometry": { "type": "Point", "coordinates": [ -102.0, 53.75 ] } },
{ "type": "Feature", "properties": { "humidity@500m": 11.354468161570326, "lapserate": 0.0057057044, "timestamp": "20260608T02" }, "geometry": { "type": "Point", "coordinates": [ -102.0, 54.0 ] } },
{ "type": "Feature", "properties": { "humidity@500m": 11.039427353658668, "lapserate": 0.0057074735, "timestamp": "20260608T02" }, "geometry": { "type": "Point", "coordinates": [ -102.0, 54.25 ] } },
{ "type": "Feature", "properties": { "humidity@500m": 12.352979477708038, "lapserate": 0.0066061881, "timestamp": "20260608T02" }, "geometry": { "type": "Point", "coordinates": [ -101.75, 49.25 ] } },
{ "type": "Feature", "properties": { "humidity@500m": 12.169316992750142, "lapserate": 0.0066341539, "timestamp": "20260608T02" }, "geometry": { "type": "Point", "coordinates": [ -101.75, 49.5 ] } },
{ "type": "Feature", "properties": { "humidity@500m": 11.949351086064835, "lapserate": 0.0066721556, "timestamp": "20260608T02" }, "geometry": { "type": "Point", "coordinates": [ -101.75, 49.75 ] } },
{ "type": "Feature", "properties": { "humidity@500m": 11.657484673455016, "lapserate": 0.0067332233, "timestamp": "20260608T02" }, "geometry": { "type": "Point", "coordinates": [ -101.75, 50.0 ] } },
{ "type": "Feature", "properties": { "humidity@500m": 11.563368231070285, "lapserate": 0.0067939791, "timestamp": "20260608T02" }, "geometry": { "type": "Point", "coordinates": [ -101.75, 50.25 ] } },
{ "type": "Feature", "properties": { "humidity@500m": 11.661262901839191, "lapserate": 0.006818675, "timestamp": "20260608T02" }, "geometry": { "type": "Point", "coordinates": [ -101.75, 50.5 ] } },
{ "type": "Feature", "properties": { "humidity@500m": 11.769896376631609, "lapserate": 0.0068001323, "timestamp": "20260608T02" }, "geometry": { "type": "Point", "coordinates": [ -101.75, 50.75 ] } },
{ "type": "Feature", "properties": { "humidity@500m": 11.910532324861441, "lapserate": 0.0067628301, "timestamp": "20260608T02" }, "geometry": { "type": "Point", "coordinates": [ -101.75, 51.0 ] } },
{ "type": "Feature", "properties": { "humidity@500m": 11.873199739482603, "lapserate": 0.0067165131, "timestamp": "20260608T02" }, "geometry": { "type": "Point", "coordinates": [ -101.75, 51.25 ] } },
{ "type": "Feature", "properties": { "humidity@500m": 11.863780432740493, "lapserate": 0.0066743316, "timestamp": "20260608T02" }, "geometry": { "type": "Point", "coordinates": [ -101.75, 51.5 ] } },
{ "type": "Feature", "properties": { "humidity@500m": 12.150994304437932, "lapserate": 0.0066212746, "timestamp": "20260608T02" }, "geometry": { "type": "Point", "coordinates": [ -101.75, 51.75 ] } },
{ "type": "Feature", "properties": { "humidity@500m": 12.332098593883966, "lapserate": 0.0065518068, "timestamp": "20260608T02" }, "geometry": { "type": "Point", "coordinates": [ -101.75, 52.0 ] } },
{ "type": "Feature", "properties": { "humidity@500m": 12.102109908877411, "lapserate": 0.0065018325, "timestamp": "20260608T02" }, "geometry": { "type": "Point", "coordinates": [ -101.75, 52.25 ] } },
{ "type": "Feature", "properties": { "humidity@500m": 11.678309540872803, "lapserate": 0.0064967764, "timestamp": "20260608T02" }, "geometry": { "type": "Point", "coordinates": [ -101.75, 52.5 ] } },
{ "type": "Feature", "properties": { "humidity@500m": 11.497569002610449, "lapserate": 0.0065209181, "timestamp": "20260608T02" }, "geometry": { "type": "Point", "coordinates": [ -101.75, 52.75 ] } },
{ "type": "Feature", "properties": { "humidity@500m": 11.411820399068674, "lapserate": 0.006397394, "timestamp": "20260608T02" }, "geometry": { "type": "Point", "coordinates": [ -101.75, 53.0 ] } },
{ "type": "Feature", "properties": { "humidity@500m": 11.494672984760866, "lapserate": 0.0060839513, "timestamp": "20260608T02" }, "geometry": { "type": "Point", "coordinates": [ -101.75, 53.25 ] } },
{ "type": "Feature", "properties": { "humidity@500m": 11.728683648638951, "lapserate": 0.0058361483, "timestamp": "20260608T02" }, "geometry": { "type": "Point", "coordinates": [ -101.75, 53.5 ] } },
{ "type": "Feature", "properties": { "humidity@500m": 11.719473135860969, "lapserate": 0.0057299668, "timestamp": "20260608T02" }, "geometry": { "type": "Point", "coordinates": [ -101.75, 53.75 ] } },
{ "type": "Feature", "properties": { "humidity@500m": 11.340529604752149, "lapserate": 0.0056981188, "timestamp": "20260608T02" }, "geometry": { "type": "Point", "coordinates": [ -101.75, 54.0 ] } },
{ "type": "Feature", "properties": { "humidity@500m": 11.017804288225275, "lapserate": 0.0057017864, "timestamp": "20260608T02" }, "geometry": { "type": "Point", "coordinates": [ -101.75, 54.25 ] } },
{ "type": "Feature", "properties": { "humidity@500m": 12.24145904266503, "lapserate": 0.0063523538, "timestamp": "20260608T02" }, "geometry": { "type": "Point", "coordinates": [ -101.5, 49.25 ] } },
{ "type": "Feature", "properties": { "humidity@500m": 12.025547025571074, "lapserate": 0.0063327197, "timestamp": "20260608T02" }, "geometry": { "type": "Point", "coordinates": [ -101.5, 49.5 ] } },
{ "type": "Feature", "properties": { "humidity@500m": 11.907715525949781, "lapserate": 0.0063464334, "timestamp": "20260608T02" }, "geometry": { "type": "Point", "coordinates": [ -101.5, 49.75 ] } },
{ "type": "Feature", "properties": { "humidity@500m": 11.6944293240775, "lapserate": 0.0064325938, "timestamp": "20260608T02" }, "geometry": { "type": "Point", "coordinates": [ -101.5, 50.0 ] } },
{ "type": "Feature", "properties": { "humidity@500m": 11.836311203406359, "lapserate": 0.0065780967, "timestamp": "20260608T02" }, "geometry": { "type": "Point", "coordinates": [ -101.5, 50.25 ] } },
{ "type": "Feature", "properties": { "humidity@500m": 11.974642030258636, "lapserate": 0.0067110481, "timestamp": "20260608T02" }, "geometry": { "type": "Point", "coordinates": [ -101.5, 50.5 ] } },
{ "type": "Feature", "properties": { "humidity@500m": 12.004906896020486, "lapserate": 0.0067629227, "timestamp": "20260608T02" }, "geometry": { "type": "Point", "coordinates": [ -101.5, 50.75 ] } },
{ "type": "Feature", "properties": { "humidity@500m": 12.106312908091169, "lapserate": 0.0067539471, "timestamp": "20260608T02" }, "geometry": { "type": "Point", "coordinates": [ -101.5, 51.0 ] } },
{ "type": "Feature", "properties": { "humidity@500m": 12.004757705048497, "lapserate": 0.0067291502, "timestamp": "20260608T02" }, "geometry": { "type": "Point", "coordinates": [ -101.5, 51.25 ] } },
{ "type": "Feature", "properties": { "humidity@500m": 11.712207822853252, "lapserate": 0.0067090089, "timestamp": "20260608T02" }, "geometry": { "type": "Point", "coordinates": [ -101.5, 51.5 ] } },
{ "type": "Feature", "properties": { "humidity@500m": 12.009576078128591, "lapserate": 0.0066600116, "timestamp": "20260608T02" }, "geometry": { "type": "Point", "coordinates": [ -101.5, 51.75 ] } },
{ "type": "Feature", "properties": { "humidity@500m": 12.48199231652365, "lapserate": 0.0065800408, "timestamp": "20260608T02" }, "geometry": { "type": "Point", "coordinates": [ -101.5, 52.0 ] } },
{ "type": "Feature", "properties": { "humidity@500m": 12.354853640251452, "lapserate": 0.0064822999, "timestamp": "20260608T02" }, "geometry": { "type": "Point", "coordinates": [ -101.5, 52.25 ] } },
{ "type": "Feature", "properties": { "humidity@500m": 11.940277163282426, "lapserate": 0.0064086006, "timestamp": "20260608T02" }, "geometry": { "type": "Point", "coordinates": [ -101.5, 52.5 ] } },
{ "type": "Feature", "properties": { "humidity@500m": 11.709889970028701, "lapserate": 0.0064361617, "timestamp": "20260608T02" }, "geometry": { "type": "Point", "coordinates": [ -101.5, 52.75 ] } },
{ "type": "Feature", "properties": { "humidity@500m": 11.447874448643901, "lapserate": 0.0064113885, "timestamp": "20260608T02" }, "geometry": { "type": "Point", "coordinates": [ -101.5, 53.0 ] } },
{ "type": "Feature", "properties": { "humidity@500m": 11.429748272218497, "lapserate": 0.0062021241, "timestamp": "20260608T02" }, "geometry": { "type": "Point", "coordinates": [ -101.5, 53.25 ] } },
{ "type": "Feature", "properties": { "humidity@500m": 11.660437187551835, "lapserate": 0.0059717209, "timestamp": "20260608T02" }, "geometry": { "type": "Point", "coordinates": [ -101.5, 53.5 ] } },
{ "type": "Feature", "properties": { "humidity@500m": 11.698431319531457, "lapserate": 0.0058117104, "timestamp": "20260608T02" }, "geometry": { "type": "Point", "coordinates": [ -101.5, 53.75 ] } },
{ "type": "Feature", "properties": { "humidity@500m": 11.342591229107066, "lapserate": 0.0057266899, "timestamp": "20260608T02" }, "geometry": { "type": "Point", "coordinates": [ -101.5, 54.0 ] } },
{ "type": "Feature", "properties": { "humidity@500m": 11.115497484312952, "lapserate": 0.0056995996, "timestamp": "20260608T02" }, "geometry": { "type": "Point", "coordinates": [ -101.5, 54.25 ] } },
{ "type": "Feature", "properties": { "humidity@500m": 12.152368367311361, "lapserate": 0.0061356258, "timestamp": "20260608T02" }, "geometry": { "type": "Point", "coordinates": [ -101.25, 49.25 ] } },
{ "type": "Feature", "properties": { "humidity@500m": 11.807356811487825, "lapserate": 0.006131398, "timestamp": "20260608T02" }, "geometry": { "type": "Point", "coordinates": [ -101.25, 49.5 ] } },
{ "type": "Feature", "properties": { "humidity@500m": 11.756658123981762, "lapserate": 0.0061144922, "timestamp": "20260608T02" }, "geometry": { "type": "Point", "coordinates": [ -101.25, 49.75 ] } },
{ "type": "Feature", "properties": { "humidity@500m": 11.942418075067561, "lapserate": 0.0061371303, "timestamp": "20260608T02" }, "geometry": { "type": "Point", "coordinates": [ -101.25, 50.0 ] } },
{ "type": "Feature", "properties": { "humidity@500m": 12.191886710033708, "lapserate": 0.0062922137, "timestamp": "20260608T02" }, "geometry": { "type": "Point", "coordinates": [ -101.25, 50.25 ] } },
{ "type": "Feature", "properties": { "humidity@500m": 12.35085397062794, "lapserate": 0.0065240827, "timestamp": "20260608T02" }, "geometry": { "type": "Point", "coordinates": [ -101.25, 50.5 ] } },
{ "type": "Feature", "properties": { "humidity@500m": 12.374996057280738, "lapserate": 0.0066697085, "timestamp": "20260608T02" }, "geometry": { "type": "Point", "coordinates": [ -101.25, 50.75 ] } },
{ "type": "Feature", "properties": { "humidity@500m": 12.400001447277031, "lapserate": 0.0067059803, "timestamp": "20260608T02" }, "geometry": { "type": "Point", "coordinates": [ -101.25, 51.0 ] } },
{ "type": "Feature", "properties": { "humidity@500m": 12.158848690209105, "lapserate": 0.0067270887, "timestamp": "20260608T02" }, "geometry": { "type": "Point", "coordinates": [ -101.25, 51.25 ] } },
{ "type": "Feature", "properties": { "humidity@500m": 11.739181586017072, "lapserate": 0.0067605483, "timestamp": "20260608T02" }, "geometry": { "type": "Point", "coordinates": [ -101.25, 51.5 ] } },
{ "type": "Feature", "properties": { "humidity@500m": 11.825216181513699, "lapserate": 0.0067384765, "timestamp": "20260608T02" }, "geometry": { "type": "Point", "coordinates": [ -101.25, 51.75 ] } },
{ "type": "Feature", "properties": { "humidity@500m": 12.392518183818348, "lapserate": 0.0066608135, "timestamp": "20260608T02" }, "geometry": { "type": "Point", "coordinates": [ -101.25, 52.0 ] } },
{ "type": "Feature", "properties": { "humidity@500m": 12.456560630058307, "lapserate": 0.0065291906, "timestamp": "20260608T02" }, "geometry": { "type": "Point", "coordinates": [ -101.25, 52.25 ] } },
{ "type": "Feature", "properties": { "humidity@500m": 12.220277444344376, "lapserate": 0.0063718571, "timestamp": "20260608T02" }, "geometry": { "type": "Point", "coordinates": [ -101.25, 52.5 ] } },
{ "type": "Feature", "properties": { "humidity@500m": 11.921918709423542, "lapserate": 0.0063230507, "timestamp": "20260608T02" }, "geometry": { "type": "Point", "coordinates": [ -101.25, 52.75 ] } },
{ "type": "Feature", "properties": { "humidity@500m": 11.584679130888716, "lapserate": 0.0063210255, "timestamp": "20260608T02" }, "geometry": { "type": "Point", "coordinates": [ -101.25, 53.0 ] } },
{ "type": "Feature", "properties": { "humidity@500m": 11.364320431877882, "lapserate": 0.0062296363, "timestamp": "20260608T02" }, "geometry": { "type": "Point", "coordinates": [ -101.25, 53.25 ] } },
{ "type": "Feature", "properties": { "humidity@500m": 11.571370120748167, "lapserate": 0.0060848626, "timestamp": "20260608T02" }, "geometry": { "type": "Point", "coordinates": [ -101.25, 53.5 ] } },
{ "type": "Feature", "properties": { "humidity@500m": 11.640878124307472, "lapserate": 0.0059151719, "timestamp": "20260608T02" }, "geometry": { "type": "Point", "coordinates": [ -101.25, 53.75 ] } },
{ "type": "Feature", "properties": { "humidity@500m": 11.473479645902998, "lapserate": 0.0057772491, "timestamp": "20260608T02" }, "geometry": { "type": "Point", "coordinates": [ -101.25, 54.0 ] } },
{ "type": "Feature", "properties": { "humidity@500m": 11.236089071332627, "lapserate": 0.0057039731, "timestamp": "20260608T02" }, "geometry": { "type": "Point", "coordinates": [ -101.25, 54.25 ] } },
{ "type": "Feature", "properties": { "humidity@500m": 12.291244599621949, "lapserate": 0.0061175292, "timestamp": "20260608T02" }, "geometry": { "type": "Point", "coordinates": [ -101.0, 49.25 ] } },
{ "type": "Feature", "properties": { "humidity@500m": 12.093596031798713, "lapserate": 0.0061180927, "timestamp": "20260608T02" }, "geometry": { "type": "Point", "coordinates": [ -101.0, 49.5 ] } },
{ "type": "Feature", "properties": { "humidity@500m": 12.086645126616657, "lapserate": 0.0060835513, "timestamp": "20260608T02" }, "geometry": { "type": "Point", "coordinates": [ -101.0, 49.75 ] } },
{ "type": "Feature", "properties": { "humidity@500m": 12.354674809667063, "lapserate": 0.0060345754, "timestamp": "20260608T02" }, "geometry": { "type": "Point", "coordinates": [ -101.0, 50.0 ] } },
{ "type": "Feature", "properties": { "humidity@500m": 12.627632138928526, "lapserate": 0.0061463118, "timestamp": "20260608T02" }, "geometry": { "type": "Point", "coordinates": [ -101.0, 50.25 ] } },
{ "type": "Feature", "properties": { "humidity@500m": 12.700917829650347, "lapserate": 0.0064064651, "timestamp": "20260608T02" }, "geometry": { "type": "Point", "coordinates": [ -101.0, 50.5 ] } },
{ "type": "Feature", "properties": { "humidity@500m": 12.733262310860875, "lapserate": 0.0066021038, "timestamp": "20260608T02" }, "geometry": { "type": "Point", "coordinates": [ -101.0, 50.75 ] } },
{ "type": "Feature", "properties": { "humidity@500m": 12.680542502283167, "lapserate": 0.0066718934, "timestamp": "20260608T02" }, "geometry": { "type": "Point", "coordinates": [ -101.0, 51.0 ] } },
{ "type": "Feature", "properties": { "humidity@500m": 12.524093168722374, "lapserate": 0.0067284633, "timestamp": "20260608T02" }, "geometry": { "type": "Point", "coordinates": [ -101.0, 51.25 ] } },
{ "type": "Feature", "properties": { "humidity@500m": 12.121127412241814, "lapserate": 0.00680512, "timestamp": "20260608T02" }, "geometry": { "type": "Point", "coordinates": [ -101.0, 51.5 ] } },
{ "type": "Feature", "properties": { "humidity@500m": 11.941380851529956, "lapserate": 0.0068207718, "timestamp": "20260608T02" }, "geometry": { "type": "Point", "coordinates": [ -101.0, 51.75 ] } },
{ "type": "Feature", "properties": { "humidity@500m": 12.437662706857443, "lapserate": 0.0067740604, "timestamp": "20260608T02" }, "geometry": { "type": "Point", "coordinates": [ -101.0, 52.0 ] } },
{ "type": "Feature", "properties": { "humidity@500m": 12.554665605549644, "lapserate": 0.0066492693, "timestamp": "20260608T02" }, "geometry": { "type": "Point", "coordinates": [ -101.0, 52.25 ] } },
{ "type": "Feature", "properties": { "humidity@500m": 12.423033343796606, "lapserate": 0.0064417156, "timestamp": "20260608T02" }, "geometry": { "type": "Point", "coordinates": [ -101.0, 52.5 ] } },
{ "type": "Feature", "properties": { "humidity@500m": 12.053557860772498, "lapserate": 0.0062908153, "timestamp": "20260608T02" }, "geometry": { "type": "Point", "coordinates": [ -101.0, 52.75 ] } },
{ "type": "Feature", "properties": { "humidity@500m": 11.634543239590895, "lapserate": 0.0062400559, "timestamp": "20260608T02" }, "geometry": { "type": "Point", "coordinates": [ -101.0, 53.0 ] } },
{ "type": "Feature", "properties": { "humidity@500m": 11.374286451728047, "lapserate": 0.0062243193, "timestamp": "20260608T02" }, "geometry": { "type": "Point", "coordinates": [ -101.0, 53.25 ] } },
{ "type": "Feature", "properties": { "humidity@500m": 11.401870764996167, "lapserate": 0.0061707268, "timestamp": "20260608T02" }, "geometry": { "type": "Point", "coordinates": [ -101.0, 53.5 ] } },
{ "type": "Feature", "properties": { "humidity@500m": 11.504123156418677, "lapserate": 0.0060111415, "timestamp": "20260608T02" }, "geometry": { "type": "Point", "coordinates": [ -101.0, 53.75 ] } },
{ "type": "Feature", "properties": { "humidity@500m": 11.51693463061201, "lapserate": 0.0058303932, "timestamp": "20260608T02" }, "geometry": { "type": "Point", "coordinates": [ -101.0, 54.0 ] } },
{ "type": "Feature", "properties": { "humidity@500m": 11.263339293901684, "lapserate": 0.0057167448, "timestamp": "20260608T02" }, "geometry": { "type": "Point", "coordinates": [ -101.0, 54.25 ] } },
{ "type": "Feature", "properties": { "humidity@500m": 12.580719909713396, "lapserate": 0.0062653581, "timestamp": "20260608T02" }, "geometry": { "type": "Point", "coordinates": [ -100.75, 49.25 ] } },
{ "type": "Feature", "properties": { "humidity@500m": 12.385853957285846, "lapserate": 0.0061571142, "timestamp": "20260608T02" }, "geometry": { "type": "Point", "coordinates": [ -100.75, 49.5 ] } },
{ "type": "Feature", "properties": { "humidity@500m": 12.430432892023559, "lapserate": 0.0061011179, "timestamp": "20260608T02" }, "geometry": { "type": "Point", "coordinates": [ -100.75, 49.75 ] } },
{ "type": "Feature", "properties": { "humidity@500m": 12.722856728083059, "lapserate": 0.0060657104, "timestamp": "20260608T02" }, "geometry": { "type": "Point", "coordinates": [ -100.75, 50.0 ] } },
{ "type": "Feature", "properties": { "humidity@500m": 12.868942543693237, "lapserate": 0.0061597633, "timestamp": "20260608T02" }, "geometry": { "type": "Point", "coordinates": [ -100.75, 50.25 ] } },
{ "type": "Feature", "properties": { "humidity@500m": 13.002581948220032, "lapserate": 0.0063827038, "timestamp": "20260608T02" }, "geometry": { "type": "Point", "coordinates": [ -100.75, 50.5 ] } },
{ "type": "Feature", "properties": { "humidity@500m": 12.950862241998925, "lapserate": 0.0065739448, "timestamp": "20260608T02" }, "geometry": { "type": "Point", "coordinates": [ -100.75, 50.75 ] } },
{ "type": "Feature", "properties": { "humidity@500m": 12.830075496602722, "lapserate": 0.0066766725, "timestamp": "20260608T02" }, "geometry": { "type": "Point", "coordinates": [ -100.75, 51.0 ] } },
{ "type": "Feature", "properties": { "humidity@500m": 12.716832543839518, "lapserate": 0.0067525567, "timestamp": "20260608T02" }, "geometry": { "type": "Point", "coordinates": [ -100.75, 51.25 ] } },
{ "type": "Feature", "properties": { "humidity@500m": 12.439151412938672, "lapserate": 0.0068237707, "timestamp": "20260608T02" }, "geometry": { "type": "Point", "coordinates": [ -100.75, 51.5 ] } },
{ "type": "Feature", "properties": { "humidity@500m": 12.313437312400689, "lapserate": 0.0068535926, "timestamp": "20260608T02" }, "geometry": { "type": "Point", "coordinates": [ -100.75, 51.75 ] } },
{ "type": "Feature", "properties": { "humidity@500m": 12.461254962700666, "lapserate": 0.0068526184, "timestamp": "20260608T02" }, "geometry": { "type": "Point", "coordinates": [ -100.75, 52.0 ] } },
{ "type": "Feature", "properties": { "humidity@500m": 12.664359194718326, "lapserate": 0.0067728176, "timestamp": "20260608T02" }, "geometry": { "type": "Point", "coordinates": [ -100.75, 52.25 ] } },
{ "type": "Feature", "properties": { "humidity@500m": 12.518563623428532, "lapserate": 0.0065693511, "timestamp": "20260608T02" }, "geometry": { "type": "Point", "coordinates": [ -100.75, 52.5 ] } },
{ "type": "Feature", "properties": { "humidity@500m": 12.157748100258832, "lapserate": 0.00635282, "timestamp": "20260608T02" }, "geometry": { "type": "Point", "coordinates": [ -100.75, 52.75 ] } },
{ "type": "Feature", "properties": { "humidity@500m": 11.644259648173835, "lapserate": 0.006238726, "timestamp": "20260608T02" }, "geometry": { "type": "Point", "coordinates": [ -100.75, 53.0 ] } },
{ "type": "Feature", "properties": { "humidity@500m": 11.375019738518043, "lapserate": 0.0062439344, "timestamp": "20260608T02" }, "geometry": { "type": "Point", "coordinates": [ -100.75, 53.25 ] } },
{ "type": "Feature", "properties": { "humidity@500m": 11.293580456144724, "lapserate": 0.0062426296, "timestamp": "20260608T02" }, "geometry": { "type": "Point", "coordinates": [ -100.75, 53.5 ] } },
{ "type": "Feature", "properties": { "humidity@500m": 11.391569471105557, "lapserate": 0.0060921921, "timestamp": "20260608T02" }, "geometry": { "type": "Point", "coordinates": [ -100.75, 53.75 ] } },
{ "type": "Feature", "properties": { "humidity@500m": 11.428691087878896, "lapserate": 0.00588209, "timestamp": "20260608T02" }, "geometry": { "type": "Point", "coordinates": [ -100.75, 54.0 ] } },
{ "type": "Feature", "properties": { "humidity@500m": 11.253771722811276, "lapserate": 0.0057417075, "timestamp": "20260608T02" }, "geometry": { "type": "Point", "coordinates": [ -100.75, 54.25 ] } },
{ "type": "Feature", "properties": { "humidity@500m": 12.923928730687036, "lapserate": 0.0065119052, "timestamp": "20260608T02" }, "geometry": { "type": "Point", "coordinates": [ -100.5, 49.25 ] } },
{ "type": "Feature", "properties": { "humidity@500m": 13.109378371880474, "lapserate": 0.0062618419, "timestamp": "20260608T02" }, "geometry": { "type": "Point", "coordinates": [ -100.5, 49.5 ] } },
{ "type": "Feature", "properties": { "humidity@500m": 13.047234651735073, "lapserate": 0.0061492687, "timestamp": "20260608T02" }, "geometry": { "type": "Point", "coordinates": [ -100.5, 49.75 ] } },
{ "type": "Feature", "properties": { "humidity@500m": 13.015829601894556, "lapserate": 0.0061230906, "timestamp": "20260608T02" }, "geometry": { "type": "Point", "coordinates": [ -100.5, 50.0 ] } },
{ "type": "Feature", "properties": { "humidity@500m": 12.905444388109084, "lapserate": 0.0061635179, "timestamp": "20260608T02" }, "geometry": { "type": "Point", "coordinates": [ -100.5, 50.25 ] } },
{ "type": "Feature", "properties": { "humidity@500m": 12.94840939049938, "lapserate": 0.0062778015, "timestamp": "20260608T02" }, "geometry": { "type": "Point", "coordinates": [ -100.5, 50.5 ] } },
{ "type": "Feature", "properties": { "humidity@500m": 12.851320211261855, "lapserate": 0.0064420868, "timestamp": "20260608T02" }, "geometry": { "type": "Point", "coordinates": [ -100.5, 50.75 ] } },
{ "type": "Feature", "properties": { "humidity@500m": 12.73869862111636, "lapserate": 0.0066237352, "timestamp": "20260608T02" }, "geometry": { "type": "Point", "coordinates": [ -100.5, 51.0 ] } },
{ "type": "Feature", "properties": { "humidity@500m": 12.766266770445872, "lapserate": 0.0067595961, "timestamp": "20260608T02" }, "geometry": { "type": "Point", "coordinates": [ -100.5, 51.25 ] } },
{ "type": "Feature", "properties": { "humidity@500m": 12.68034665248798, "lapserate": 0.0068189343, "timestamp": "20260608T02" }, "geometry": { "type": "Point", "coordinates": [ -100.5, 51.5 ] } },
{ "type": "Feature", "properties": { "humidity@500m": 12.577095834185238, "lapserate": 0.0068402113, "timestamp": "20260608T02" }, "geometry": { "type": "Point", "coordinates": [ -100.5, 51.75 ] } },
{ "type": "Feature", "properties": { "humidity@500m": 12.50089755221617, "lapserate": 0.0068696905, "timestamp": "20260608T02" }, "geometry": { "type": "Point", "coordinates": [ -100.5, 52.0 ] } },
{ "type": "Feature", "properties": { "humidity@500m": 12.564457493317848, "lapserate": 0.0068396335, "timestamp": "20260608T02" }, "geometry": { "type": "Point", "coordinates": [ -100.5, 52.25 ] } },
{ "type": "Feature", "properties": { "humidity@500m": 12.437499395054569, "lapserate": 0.0066750022, "timestamp": "20260608T02" }, "geometry": { "type": "Point", "coordinates": [ -100.5, 52.5 ] } },
{ "type": "Feature", "properties": { "humidity@500m": 12.072469819978904, "lapserate": 0.0064487676, "timestamp": "20260608T02" }, "geometry": { "type": "Point", "coordinates": [ -100.5, 52.75 ] } },
{ "type": "Feature", "properties": { "humidity@500m": 11.612348911432221, "lapserate": 0.0062945378, "timestamp": "20260608T02" }, "geometry": { "type": "Point", "coordinates": [ -100.5, 53.0 ] } },
{ "type": "Feature", "properties": { "humidity@500m": 11.336200123405749, "lapserate": 0.0062859743, "timestamp": "20260608T02" }, "geometry": { "type": "Point", "coordinates": [ -100.5, 53.25 ] } },
{ "type": "Feature", "properties": { "humidity@500m": 11.184367195362857, "lapserate": 0.0063015143, "timestamp": "20260608T02" }, "geometry": { "type": "Point", "coordinates": [ -100.5, 53.5 ] } },
{ "type": "Feature", "properties": { "humidity@500m": 11.224270868242748, "lapserate": 0.0061655305, "timestamp": "20260608T02" }, "geometry": { "type": "Point", "coordinates": [ -100.5, 53.75 ] } },
{ "type": "Feature", "properties": { "humidity@500m": 11.301410972805149, "lapserate": 0.0059416457, "timestamp": "20260608T02" }, "geometry": { "type": "Point", "coordinates": [ -100.5, 54.0 ] } },
{ "type": "Feature", "properties": { "humidity@500m": 11.155316612275984, "lapserate": 0.0057778922, "timestamp": "20260608T02" }, "geometry": { "type": "Point", "coordinates": [ -100.5, 54.25 ] } },
{ "type": "Feature", "properties": { "humidity@500m": 13.178642151542929, "lapserate": 0.0067628156, "timestamp": "20260608T02" }, "geometry": { "type": "Point", "coordinates": [ -100.25, 49.25 ] } },
{ "type": "Feature", "properties": { "humidity@500m": 13.352296208250086, "lapserate": 0.0065297675, "timestamp": "20260608T02" }, "geometry": { "type": "Point", "coordinates": [ -100.25, 49.5 ] } },
{ "type": "Feature", "properties": { "humidity@500m": 13.299523881356905, "lapserate": 0.0063691004, "timestamp": "20260608T02" }, "geometry": { "type": "Point", "coordinates": [ -100.25, 49.75 ] } },
{ "type": "Feature", "properties": { "humidity@500m": 13.28402794794299, "lapserate": 0.0062506087, "timestamp": "20260608T02" }, "geometry": { "type": "Point", "coordinates": [ -100.25, 50.0 ] } },
{ "type": "Feature", "properties": { "humidity@500m": 13.141332814358613, "lapserate": 0.0061308038, "timestamp": "20260608T02" }, "geometry": { "type": "Point", "coordinates": [ -100.25, 50.25 ] } },
{ "type": "Feature", "properties": { "humidity@500m": 13.021773290126756, "lapserate": 0.0060730912, "timestamp": "20260608T02" }, "geometry": { "type": "Point", "coordinates": [ -100.25, 50.5 ] } },
{ "type": "Feature", "properties": { "humidity@500m": 13.085683448469172, "lapserate": 0.0061835181, "timestamp": "20260608T02" }, "geometry": { "type": "Point", "coordinates": [ -100.25, 50.75 ] } },
{ "type": "Feature", "properties": { "humidity@500m": 12.795452828303546, "lapserate": 0.0064559467, "timestamp": "20260608T02" }, "geometry": { "type": "Point", "coordinates": [ -100.25, 51.0 ] } },
{ "type": "Feature", "properties": { "humidity@500m": 12.781666668047885, "lapserate": 0.0067002857, "timestamp": "20260608T02" }, "geometry": { "type": "Point", "coordinates": [ -100.25, 51.25 ] } },
{ "type": "Feature", "properties": { "humidity@500m": 12.687719185109087, "lapserate": 0.006800733, "timestamp": "20260608T02" }, "geometry": { "type": "Point", "coordinates": [ -100.25, 51.5 ] } },
{ "type": "Feature", "properties": { "humidity@500m": 12.545981174559444, "lapserate": 0.0068250988, "timestamp": "20260608T02" }, "geometry": { "type": "Point", "coordinates": [ -100.25, 51.75 ] } },
{ "type": "Feature", "properties": { "humidity@500m": 12.407426833001677, "lapserate": 0.0068612285, "timestamp": "20260608T02" }, "geometry": { "type": "Point", "coordinates": [ -100.25, 52.0 ] } },
{ "type": "Feature", "properties": { "humidity@500m": 12.393351996857575, "lapserate": 0.0068621831, "timestamp": "20260608T02" }, "geometry": { "type": "Point", "coordinates": [ -100.25, 52.25 ] } },
{ "type": "Feature", "properties": { "humidity@500m": 12.264679321502992, "lapserate": 0.0067431717, "timestamp": "20260608T02" }, "geometry": { "type": "Point", "coordinates": [ -100.25, 52.5 ] } },
{ "type": "Feature", "properties": { "humidity@500m": 12.007719819609033, "lapserate": 0.0065424484, "timestamp": "20260608T02" }, "geometry": { "type": "Point", "coordinates": [ -100.25, 52.75 ] } },
{ "type": "Feature", "properties": { "humidity@500m": 11.566641875709012, "lapserate": 0.0063749305, "timestamp": "20260608T02" }, "geometry": { "type": "Point", "coordinates": [ -100.25, 53.0 ] } },
{ "type": "Feature", "properties": { "humidity@500m": 11.293098366143084, "lapserate": 0.0063375705, "timestamp": "20260608T02" }, "geometry": { "type": "Point", "coordinates": [ -100.25, 53.25 ] } },
{ "type": "Feature", "properties": { "humidity@500m": 11.049640160468877, "lapserate": 0.0063546426, "timestamp": "20260608T02" }, "geometry": { "type": "Point", "coordinates": [ -100.25, 53.5 ] } },
{ "type": "Feature", "properties": { "humidity@500m": 11.082536049213882, "lapserate": 0.0062439623, "timestamp": "20260608T02" }, "geometry": { "type": "Point", "coordinates": [ -100.25, 53.75 ] } },
{ "type": "Feature", "properties": { "humidity@500m": 11.162432847855143, "lapserate": 0.0060145273, "timestamp": "20260608T02" }, "geometry": { "type": "Point", "coordinates": [ -100.25, 54.0 ] } },
{ "type": "Feature", "properties": { "humidity@500m": 11.027229485600802, "lapserate": 0.0058179037, "timestamp": "20260608T02" }, "geometry": { "type": "Point", "coordinates": [ -100.25, 54.25 ] } },
{ "type": "Feature", "properties": { "humidity@500m": 13.422777966220115, "lapserate": 0.0068576592, "timestamp": "20260608T02" }, "geometry": { "type": "Point", "coordinates": [ -100.0, 49.25 ] } },
{ "type": "Feature", "properties": { "humidity@500m": 13.496396725798528, "lapserate": 0.0068058595, "timestamp": "20260608T02" }, "geometry": { "type": "Point", "coordinates": [ -100.0, 49.5 ] } },
{ "type": "Feature", "properties": { "humidity@500m": 13.451038864283436, "lapserate": 0.0066834032, "timestamp": "20260608T02" }, "geometry": { "type": "Point", "coordinates": [ -100.0, 49.75 ] } },
{ "type": "Feature", "properties": { "humidity@500m": 13.429804872242388, "lapserate": 0.0064774086, "timestamp": "20260608T02" }, "geometry": { "type": "Point", "coordinates": [ -100.0, 50.0 ] } },
{ "type": "Feature", "properties": { "humidity@500m": 13.258272427134726, "lapserate": 0.0062226499, "timestamp": "20260608T02" }, "geometry": { "type": "Point", "coordinates": [ -100.0, 50.25 ] } },
{ "type": "Feature", "properties": { "humidity@500m": 12.93115295026187, "lapserate": 0.0060282815, "timestamp": "20260608T02" }, "geometry": { "type": "Point", "coordinates": [ -100.0, 50.5 ] } },
{ "type": "Feature", "properties": { "humidity@500m": 13.446903922263251, "lapserate": 0.0060423063, "timestamp": "20260608T02" }, "geometry": { "type": "Point", "coordinates": [ -100.0, 50.75 ] } },
{ "type": "Feature", "properties": { "humidity@500m": 12.87995050239855, "lapserate": 0.0063066604, "timestamp": "20260608T02" }, "geometry": { "type": "Point", "coordinates": [ -100.0, 51.0 ] } },
{ "type": "Feature", "properties": { "humidity@500m": 12.794782068154275, "lapserate": 0.0066133495, "timestamp": "20260608T02" }, "geometry": { "type": "Point", "coordinates": [ -100.0, 51.25 ] } },
{ "type": "Feature", "properties": { "humidity@500m": 12.684192267745621, "lapserate": 0.0067836749, "timestamp": "20260608T02" }, "geometry": { "type": "Point", "coordinates": [ -100.0, 51.5 ] } },
{ "type": "Feature", "properties": { "humidity@500m": 12.51581332373665, "lapserate": 0.0068338378, "timestamp": "20260608T02" }, "geometry": { "type": "Point", "coordinates": [ -100.0, 51.75 ] } },
{ "type": "Feature", "properties": { "humidity@500m": 12.32143912834532, "lapserate": 0.0068624942, "timestamp": "20260608T02" }, "geometry": { "type": "Point", "coordinates": [ -100.0, 52.0 ] } },
{ "type": "Feature", "properties": { "humidity@500m": 12.178129842320649, "lapserate": 0.0068705496, "timestamp": "20260608T02" }, "geometry": { "type": "Point", "coordinates": [ -100.0, 52.25 ] } },
{ "type": "Feature", "properties": { "humidity@500m": 12.078360676116775, "lapserate": 0.0067876335, "timestamp": "20260608T02" }, "geometry": { "type": "Point", "coordinates": [ -100.0, 52.5 ] } },
{ "type": "Feature", "properties": { "humidity@500m": 11.868712444989754, "lapserate": 0.006624856, "timestamp": "20260608T02" }, "geometry": { "type": "Point", "coordinates": [ -100.0, 52.75 ] } },
{ "type": "Feature", "properties": { "humidity@500m": 11.497909894057958, "lapserate": 0.006462357, "timestamp": "20260608T02" }, "geometry": { "type": "Point", "coordinates": [ -100.0, 53.0 ] } },
{ "type": "Feature", "properties": { "humidity@500m": 11.248386393367698, "lapserate": 0.0063966685, "timestamp": "20260608T02" }, "geometry": { "type": "Point", "coordinates": [ -100.0, 53.25 ] } },
{ "type": "Feature", "properties": { "humidity@500m": 10.898148893669266, "lapserate": 0.0064081857, "timestamp": "20260608T02" }, "geometry": { "type": "Point", "coordinates": [ -100.0, 53.5 ] } },
{ "type": "Feature", "properties": { "humidity@500m": 10.89777244022188, "lapserate": 0.0063208127, "timestamp": "20260608T02" }, "geometry": { "type": "Point", "coordinates": [ -100.0, 53.75 ] } },
{ "type": "Feature", "properties": { "humidity@500m": 10.966671918039998, "lapserate": 0.006088444, "timestamp": "20260608T02" }, "geometry": { "type": "Point", "coordinates": [ -100.0, 54.0 ] } },
{ "type": "Feature", "properties": { "humidity@500m": 10.86150628238738, "lapserate": 0.0058547519, "timestamp": "20260608T02" }, "geometry": { "type": "Point", "coordinates": [ -100.0, 54.25 ] } },
{ "type": "Feature", "properties": { "humidity@500m": 13.06407167139556, "lapserate": 0.0067383852, "timestamp": "20260608T02" }, "geometry": { "type": "Point", "coordinates": [ -99.75, 49.25 ] } },
{ "type": "Feature", "properties": { "humidity@500m": 13.103467191633507, "lapserate": 0.0068285423, "timestamp": "20260608T02" }, "geometry": { "type": "Point", "coordinates": [ -99.75, 49.5 ] } },
{ "type": "Feature", "properties": { "humidity@500m": 12.964159667297057, "lapserate": 0.0068105157, "timestamp": "20260608T02" }, "geometry": { "type": "Point", "coordinates": [ -99.75, 49.75 ] } },
{ "type": "Feature", "properties": { "humidity@500m": 12.906763631627371, "lapserate": 0.0066596307, "timestamp": "20260608T02" }, "geometry": { "type": "Point", "coordinates": [ -99.75, 50.0 ] } },
{ "type": "Feature", "properties": { "humidity@500m": 12.826272860937229, "lapserate": 0.0064561721, "timestamp": "20260608T02" }, "geometry": { "type": "Point", "coordinates": [ -99.75, 50.25 ] } },
{ "type": "Feature", "properties": { "humidity@500m": 12.691591867616115, "lapserate": 0.0062659606, "timestamp": "20260608T02" }, "geometry": { "type": "Point", "coordinates": [ -99.75, 50.5 ] } },
{ "type": "Feature", "properties": { "humidity@500m": 13.064815544265807, "lapserate": 0.0061875628, "timestamp": "20260608T02" }, "geometry": { "type": "Point", "coordinates": [ -99.75, 50.75 ] } },
{ "type": "Feature", "properties": { "humidity@500m": 13.01146727756802, "lapserate": 0.0063288971, "timestamp": "20260608T02" }, "geometry": { "type": "Point", "coordinates": [ -99.75, 51.0 ] } },
{ "type": "Feature", "properties": { "humidity@500m": 12.872830611416434, "lapserate": 0.0065815924, "timestamp": "20260608T02" }, "geometry": { "type": "Point", "coordinates": [ -99.75, 51.25 ] } },
{ "type": "Feature", "properties": { "humidity@500m": 12.721964577969665, "lapserate": 0.0067732683, "timestamp": "20260608T02" }, "geometry": { "type": "Point", "coordinates": [ -99.75, 51.5 ] } },
{ "type": "Feature", "properties": { "humidity@500m": 12.538120261678658, "lapserate": 0.006842813, "timestamp": "20260608T02" }, "geometry": { "type": "Point", "coordinates": [ -99.75, 51.75 ] } },
{ "type": "Feature", "properties": { "humidity@500m": 12.322994267474149, "lapserate": 0.0068574389, "timestamp": "20260608T02" }, "geometry": { "type": "Point", "coordinates": [ -99.75, 52.0 ] } },
{ "type": "Feature", "properties": { "humidity@500m": 12.131469229411126, "lapserate": 0.0068539646, "timestamp": "20260608T02" }, "geometry": { "type": "Point", "coordinates": [ -99.75, 52.25 ] } },
{ "type": "Feature", "properties": { "humidity@500m": 11.99342096008135, "lapserate": 0.0067837881, "timestamp": "20260608T02" }, "geometry": { "type": "Point", "coordinates": [ -99.75, 52.5 ] } },
{ "type": "Feature", "properties": { "humidity@500m": 11.784361699922423, "lapserate": 0.0066567934, "timestamp": "20260608T02" }, "geometry": { "type": "Point", "coordinates": [ -99.75, 52.75 ] } },
{ "type": "Feature", "properties": { "humidity@500m": 11.480394517734933, "lapserate": 0.0065146643, "timestamp": "20260608T02" }, "geometry": { "type": "Point", "coordinates": [ -99.75, 53.0 ] } },
{ "type": "Feature", "properties": { "humidity@500m": 11.237914889689041, "lapserate": 0.0064378865, "timestamp": "20260608T02" }, "geometry": { "type": "Point", "coordinates": [ -99.75, 53.25 ] } },
{ "type": "Feature", "properties": { "humidity@500m": 10.888789568905098, "lapserate": 0.0064423489, "timestamp": "20260608T02" }, "geometry": { "type": "Point", "coordinates": [ -99.75, 53.5 ] } },
{ "type": "Feature", "properties": { "humidity@500m": 10.825224728282166, "lapserate": 0.0063679041, "timestamp": "20260608T02" }, "geometry": { "type": "Point", "coordinates": [ -99.75, 53.75 ] } },
{ "type": "Feature", "properties": { "humidity@500m": 10.891846906258703, "lapserate": 0.0061386805, "timestamp": "20260608T02" }, "geometry": { "type": "Point", "coordinates": [ -99.75, 54.0 ] } },
{ "type": "Feature", "properties": { "humidity@500m": 10.76368759422269, "lapserate": 0.0058855573, "timestamp": "20260608T02" }, "geometry": { "type": "Point", "coordinates": [ -99.75, 54.25 ] } },
{ "type": "Feature", "properties": { "humidity@500m": 12.828710340594, "lapserate": 0.006547173, "timestamp": "20260608T02" }, "geometry": { "type": "Point", "coordinates": [ -99.5, 49.25 ] } },
{ "type": "Feature", "properties": { "humidity@500m": 12.763483357199116, "lapserate": 0.0066364654, "timestamp": "20260608T02" }, "geometry": { "type": "Point", "coordinates": [ -99.5, 49.5 ] } },
{ "type": "Feature", "properties": { "humidity@500m": 12.629239412758732, "lapserate": 0.0066881878, "timestamp": "20260608T02" }, "geometry": { "type": "Point", "coordinates": [ -99.5, 49.75 ] } },
{ "type": "Feature", "properties": { "humidity@500m": 12.476538473934255, "lapserate": 0.0066645285, "timestamp": "20260608T02" }, "geometry": { "type": "Point", "coordinates": [ -99.5, 50.0 ] } },
{ "type": "Feature", "properties": { "humidity@500m": 12.355400796091867, "lapserate": 0.0066190274, "timestamp": "20260608T02" }, "geometry": { "type": "Point", "coordinates": [ -99.5, 50.25 ] } },
{ "type": "Feature", "properties": { "humidity@500m": 12.297998897647654, "lapserate": 0.0065391725, "timestamp": "20260608T02" }, "geometry": { "type": "Point", "coordinates": [ -99.5, 50.5 ] } },
{ "type": "Feature", "properties": { "humidity@500m": 12.618259516300954, "lapserate": 0.0064489408, "timestamp": "20260608T02" }, "geometry": { "type": "Point", "coordinates": [ -99.5, 50.75 ] } },
{ "type": "Feature", "properties": { "humidity@500m": 12.874772452189685, "lapserate": 0.0064779823, "timestamp": "20260608T02" }, "geometry": { "type": "Point", "coordinates": [ -99.5, 51.0 ] } },
{ "type": "Feature", "properties": { "humidity@500m": 12.801361402815447, "lapserate": 0.0066151628, "timestamp": "20260608T02" }, "geometry": { "type": "Point", "coordinates": [ -99.5, 51.25 ] } },
{ "type": "Feature", "properties": { "humidity@500m": 12.651838699728428, "lapserate": 0.0067533469, "timestamp": "20260608T02" }, "geometry": { "type": "Point", "coordinates": [ -99.5, 51.5 ] } },
{ "type": "Feature", "properties": { "humidity@500m": 12.565192748948897, "lapserate": 0.006804903, "timestamp": "20260608T02" }, "geometry": { "type": "Point", "coordinates": [ -99.5, 51.75 ] } },
{ "type": "Feature", "properties": { "humidity@500m": 12.381175657015239, "lapserate": 0.0068043997, "timestamp": "20260608T02" }, "geometry": { "type": "Point", "coordinates": [ -99.5, 52.0 ] } },
{ "type": "Feature", "properties": { "humidity@500m": 12.177532945618731, "lapserate": 0.0067825257, "timestamp": "20260608T02" }, "geometry": { "type": "Point", "coordinates": [ -99.5, 52.25 ] } },
{ "type": "Feature", "properties": { "humidity@500m": 11.944602891361297, "lapserate": 0.0067074317, "timestamp": "20260608T02" }, "geometry": { "type": "Point", "coordinates": [ -99.5, 52.5 ] } },
{ "type": "Feature", "properties": { "humidity@500m": 11.746970198686858, "lapserate": 0.0066074957, "timestamp": "20260608T02" }, "geometry": { "type": "Point", "coordinates": [ -99.5, 52.75 ] } },
{ "type": "Feature", "properties": { "humidity@500m": 11.490535428053187, "lapserate": 0.006499317, "timestamp": "20260608T02" }, "geometry": { "type": "Point", "coordinates": [ -99.5, 53.0 ] } },
{ "type": "Feature", "properties": { "humidity@500m": 11.251661774511959, "lapserate": 0.0064334129, "timestamp": "20260608T02" }, "geometry": { "type": "Point", "coordinates": [ -99.5, 53.25 ] } },
{ "type": "Feature", "properties": { "humidity@500m": 10.950776222373864, "lapserate": 0.0064362772, "timestamp": "20260608T02" }, "geometry": { "type": "Point", "coordinates": [ -99.5, 53.5 ] } },
{ "type": "Feature", "properties": { "humidity@500m": 10.840910478549469, "lapserate": 0.0063649989, "timestamp": "20260608T02" }, "geometry": { "type": "Point", "coordinates": [ -99.5, 53.75 ] } },
{ "type": "Feature", "properties": { "humidity@500m": 10.838551527715738, "lapserate": 0.0061512962, "timestamp": "20260608T02" }, "geometry": { "type": "Point", "coordinates": [ -99.5, 54.0 ] } },
{ "type": "Feature", "properties": { "humidity@500m": 10.759663631370541, "lapserate": 0.0059065223, "timestamp": "20260608T02" }, "geometry": { "type": "Point", "coordinates": [ -99.5, 54.25 ] } },
{ "type": "Feature", "properties": { "humidity@500m": 12.625618362806252, "lapserate": 0.0064327484, "timestamp": "20260608T02" }, "geometry": { "type": "Point", "coordinates": [ -99.25, 49.25 ] } },
{ "type": "Feature", "properties": { "humidity@500m": 12.593608477256176, "lapserate": 0.0064794305, "timestamp": "20260608T02" }, "geometry": { "type": "Point", "coordinates": [ -99.25, 49.5 ] } },
{ "type": "Feature", "properties": { "humidity@500m": 12.48843960239611, "lapserate": 0.0065342905, "timestamp": "20260608T02" }, "geometry": { "type": "Point", "coordinates": [ -99.25, 49.75 ] } },
{ "type": "Feature", "properties": { "humidity@500m": 12.360265642978094, "lapserate": 0.006559636, "timestamp": "20260608T02" }, "geometry": { "type": "Point", "coordinates": [ -99.25, 50.0 ] } },
{ "type": "Feature", "properties": { "humidity@500m": 12.22335229554127, "lapserate": 0.006589782, "timestamp": "20260608T02" }, "geometry": { "type": "Point", "coordinates": [ -99.25, 50.25 ] } },
{ "type": "Feature", "properties": { "humidity@500m": 12.075139744431569, "lapserate": 0.0065992069, "timestamp": "20260608T02" }, "geometry": { "type": "Point", "coordinates": [ -99.25, 50.5 ] } },
{ "type": "Feature", "properties": { "humidity@500m": 12.117059598312313, "lapserate": 0.0065826876, "timestamp": "20260608T02" }, "geometry": { "type": "Point", "coordinates": [ -99.25, 50.75 ] } },
{ "type": "Feature", "properties": { "humidity@500m": 12.102714997574381, "lapserate": 0.0066053905, "timestamp": "20260608T02" }, "geometry": { "type": "Point", "coordinates": [ -99.25, 51.0 ] } },
{ "type": "Feature", "properties": { "humidity@500m": 12.51781248469144, "lapserate": 0.0066613476, "timestamp": "20260608T02" }, "geometry": { "type": "Point", "coordinates": [ -99.25, 51.25 ] } },
{ "type": "Feature", "properties": { "humidity@500m": 12.728247295411027, "lapserate": 0.0067096781, "timestamp": "20260608T02" }, "geometry": { "type": "Point", "coordinates": [ -99.25, 51.5 ] } },
{ "type": "Feature", "properties": { "humidity@500m": 12.660695722223856, "lapserate": 0.0067070774, "timestamp": "20260608T02" }, "geometry": { "type": "Point", "coordinates": [ -99.25, 51.75 ] } },
{ "type": "Feature", "properties": { "humidity@500m": 12.455761465302073, "lapserate": 0.0066882945, "timestamp": "20260608T02" }, "geometry": { "type": "Point", "coordinates": [ -99.25, 52.0 ] } },
{ "type": "Feature", "properties": { "humidity@500m": 12.229752642039404, "lapserate": 0.0066576367, "timestamp": "20260608T02" }, "geometry": { "type": "Point", "coordinates": [ -99.25, 52.25 ] } },
{ "type": "Feature", "properties": { "humidity@500m": 11.988058642505361, "lapserate": 0.006588331, "timestamp": "20260608T02" }, "geometry": { "type": "Point", "coordinates": [ -99.25, 52.5 ] } },
{ "type": "Feature", "properties": { "humidity@500m": 11.768136398620324, "lapserate": 0.0065211956, "timestamp": "20260608T02" }, "geometry": { "type": "Point", "coordinates": [ -99.25, 52.75 ] } },
{ "type": "Feature", "properties": { "humidity@500m": 11.517126449249645, "lapserate": 0.0064540245, "timestamp": "20260608T02" }, "geometry": { "type": "Point", "coordinates": [ -99.25, 53.0 ] } },
{ "type": "Feature", "properties": { "humidity@500m": 11.295383904606906, "lapserate": 0.006411138, "timestamp": "20260608T02" }, "geometry": { "type": "Point", "coordinates": [ -99.25, 53.25 ] } },
{ "type": "Feature", "properties": { "humidity@500m": 11.042156965730584, "lapserate": 0.0064101284, "timestamp": "20260608T02" }, "geometry": { "type": "Point", "coordinates": [ -99.25, 53.5 ] } },
{ "type": "Feature", "properties": { "humidity@500m": 10.947400004364258, "lapserate": 0.0063333097, "timestamp": "20260608T02" }, "geometry": { "type": "Point", "coordinates": [ -99.25, 53.75 ] } },
{ "type": "Feature", "properties": { "humidity@500m": 10.946068041953334, "lapserate": 0.0061383378, "timestamp": "20260608T02" }, "geometry": { "type": "Point", "coordinates": [ -99.25, 54.0 ] } },
{ "type": "Feature", "properties": { "humidity@500m": 10.865400857066406, "lapserate": 0.0059157619, "timestamp": "20260608T02" }, "geometry": { "type": "Point", "coordinates": [ -99.25, 54.25 ] } },
{ "type": "Feature", "properties": { "humidity@500m": 12.4099537031128, "lapserate": 0.0063808803, "timestamp": "20260608T02" }, "geometry": { "type": "Point", "coordinates": [ -99.0, 49.25 ] } },
{ "type": "Feature", "properties": { "humidity@500m": 12.372415503018495, "lapserate": 0.006433317, "timestamp": "20260608T02" }, "geometry": { "type": "Point", "coordinates": [ -99.0, 49.5 ] } },
{ "type": "Feature", "properties": { "humidity@500m": 12.309837449372814, "lapserate": 0.0064723874, "timestamp": "20260608T02" }, "geometry": { "type": "Point", "coordinates": [ -99.0, 49.75 ] } },
{ "type": "Feature", "properties": { "humidity@500m": 12.182241290680004, "lapserate": 0.0064748321, "timestamp": "20260608T02" }, "geometry": { "type": "Point", "coordinates": [ -99.0, 50.0 ] } },
{ "type": "Feature", "properties": { "humidity@500m": 12.056576329953655, "lapserate": 0.0064793057, "timestamp": "20260608T02" }, "geometry": { "type": "Point", "coordinates": [ -99.0, 50.25 ] } },
{ "type": "Feature", "properties": { "humidity@500m": 11.899828530482674, "lapserate": 0.0065111145, "timestamp": "20260608T02" }, "geometry": { "type": "Point", "coordinates": [ -99.0, 50.5 ] } },
{ "type": "Feature", "properties": { "humidity@500m": 11.719712943786281, "lapserate": 0.006577563, "timestamp": "20260608T02" }, "geometry": { "type": "Point", "coordinates": [ -99.0, 50.75 ] } },
{ "type": "Feature", "properties": { "humidity@500m": 11.614797702771273, "lapserate": 0.0066531575, "timestamp": "20260608T02" }, "geometry": { "type": "Point", "coordinates": [ -99.0, 51.0 ] } },
{ "type": "Feature", "properties": { "humidity@500m": 11.945123941764653, "lapserate": 0.0066880784, "timestamp": "20260608T02" }, "geometry": { "type": "Point", "coordinates": [ -99.0, 51.25 ] } },
{ "type": "Feature", "properties": { "humidity@500m": 12.584463066523428, "lapserate": 0.0066686794, "timestamp": "20260608T02" }, "geometry": { "type": "Point", "coordinates": [ -99.0, 51.5 ] } },
{ "type": "Feature", "properties": { "humidity@500m": 12.531628377929827, "lapserate": 0.0066006961, "timestamp": "20260608T02" }, "geometry": { "type": "Point", "coordinates": [ -99.0, 51.75 ] } },
{ "type": "Feature", "properties": { "humidity@500m": 12.478788162508993, "lapserate": 0.0065478995, "timestamp": "20260608T02" }, "geometry": { "type": "Point", "coordinates": [ -99.0, 52.0 ] } },
{ "type": "Feature", "properties": { "humidity@500m": 12.278349326342061, "lapserate": 0.0065117185, "timestamp": "20260608T02" }, "geometry": { "type": "Point", "coordinates": [ -99.0, 52.25 ] } },
{ "type": "Feature", "properties": { "humidity@500m": 12.014473759284121, "lapserate": 0.0064725834, "timestamp": "20260608T02" }, "geometry": { "type": "Point", "coordinates": [ -99.0, 52.5 ] } },
{ "type": "Feature", "properties": { "humidity@500m": 11.774139797672673, "lapserate": 0.0064528729, "timestamp": "20260608T02" }, "geometry": { "type": "Point", "coordinates": [ -99.0, 52.75 ] } },
{ "type": "Feature", "properties": { "humidity@500m": 11.557391496968432, "lapserate": 0.0064320029, "timestamp": "20260608T02" }, "geometry": { "type": "Point", "coordinates": [ -99.0, 53.0 ] } },
{ "type": "Feature", "properties": { "humidity@500m": 11.342875783099418, "lapserate": 0.0064150989, "timestamp": "20260608T02" }, "geometry": { "type": "Point", "coordinates": [ -99.0, 53.25 ] } },
{ "type": "Feature", "properties": { "humidity@500m": 11.138373924487254, "lapserate": 0.0063998373, "timestamp": "20260608T02" }, "geometry": { "type": "Point", "coordinates": [ -99.0, 53.5 ] } },
{ "type": "Feature", "properties": { "humidity@500m": 11.069650895291607, "lapserate": 0.0063077663, "timestamp": "20260608T02" }, "geometry": { "type": "Point", "coordinates": [ -99.0, 53.75 ] } },
{ "type": "Feature", "properties": { "humidity@500m": 11.095756994760055, "lapserate": 0.0061252438, "timestamp": "20260608T02" }, "geometry": { "type": "Point", "coordinates": [ -99.0, 54.0 ] } },
{ "type": "Feature", "properties": { "humidity@500m": 11.098218116747823, "lapserate": 0.0059251715, "timestamp": "20260608T02" }, "geometry": { "type": "Point", "coordinates": [ -99.0, 54.25 ] } },
{ "type": "Feature", "properties": { "humidity@500m": 12.205256392395681, "lapserate": 0.0063300957, "timestamp": "20260608T02" }, "geometry": { "type": "Point", "coordinates": [ -98.75, 49.25 ] } },
{ "type": "Feature", "properties": { "humidity@500m": 12.135728965111463, "lapserate": 0.0063869823, "timestamp": "20260608T02" }, "geometry": { "type": "Point", "coordinates": [ -98.75, 49.5 ] } },
{ "type": "Feature", "properties": { "humidity@500m": 12.079854599729632, "lapserate": 0.006417607, "timestamp": "20260608T02" }, "geometry": { "type": "Point", "coordinates": [ -98.75, 49.75 ] } },
{ "type": "Feature", "properties": { "humidity@500m": 12.012831016814911, "lapserate": 0.0064138267, "timestamp": "20260608T02" }, "geometry": { "type": "Point", "coordinates": [ -98.75, 50.0 ] } },
{ "type": "Feature", "properties": { "humidity@500m": 11.905550762912425, "lapserate": 0.0064049545, "timestamp": "20260608T02" }, "geometry": { "type": "Point", "coordinates": [ -98.75, 50.25 ] } },
{ "type": "Feature", "properties": { "humidity@500m": 11.71544068789173, "lapserate": 0.0064381314, "timestamp": "20260608T02" }, "geometry": { "type": "Point", "coordinates": [ -98.75, 50.5 ] } },
{ "type": "Feature", "properties": { "humidity@500m": 11.477644263269559, "lapserate": 0.0065340134, "timestamp": "20260608T02" }, "geometry": { "type": "Point", "coordinates": [ -98.75, 50.75 ] } },
{ "type": "Feature", "properties": { "humidity@500m": 11.27116423067439, "lapserate": 0.006639252, "timestamp": "20260608T02" }, "geometry": { "type": "Point", "coordinates": [ -98.75, 51.0 ] } },
{ "type": "Feature", "properties": { "humidity@500m": 11.272142386947339, "lapserate": 0.0066935108, "timestamp": "20260608T02" }, "geometry": { "type": "Point", "coordinates": [ -98.75, 51.25 ] } },
{ "type": "Feature", "properties": { "humidity@500m": 12.142538766205668, "lapserate": 0.0066690026, "timestamp": "20260608T02" }, "geometry": { "type": "Point", "coordinates": [ -98.75, 51.5 ] } },
{ "type": "Feature", "properties": { "humidity@500m": 12.528276677544284, "lapserate": 0.0065633766, "timestamp": "20260608T02" }, "geometry": { "type": "Point", "coordinates": [ -98.75, 51.75 ] } },
{ "type": "Feature", "properties": { "humidity@500m": 12.435588656710323, "lapserate": 0.0064626108, "timestamp": "20260608T02" }, "geometry": { "type": "Point", "coordinates": [ -98.75, 52.0 ] } },
{ "type": "Feature", "properties": { "humidity@500m": 12.25534133921925, "lapserate": 0.0063994802, "timestamp": "20260608T02" }, "geometry": { "type": "Point", "coordinates": [ -98.75, 52.25 ] } },
{ "type": "Feature", "properties": { "humidity@500m": 12.08050156372405, "lapserate": 0.0063776746, "timestamp": "20260608T02" }, "geometry": { "type": "Point", "coordinates": [ -98.75, 52.5 ] } },
{ "type": "Feature", "properties": { "humidity@500m": 11.952706436554289, "lapserate": 0.0063879658, "timestamp": "20260608T02" }, "geometry": { "type": "Point", "coordinates": [ -98.75, 52.75 ] } },
{ "type": "Feature", "properties": { "humidity@500m": 11.704427700857075, "lapserate": 0.006407151, "timestamp": "20260608T02" }, "geometry": { "type": "Point", "coordinates": [ -98.75, 53.0 ] } },
{ "type": "Feature", "properties": { "humidity@500m": 11.466471153822912, "lapserate": 0.0064240475, "timestamp": "20260608T02" }, "geometry": { "type": "Point", "coordinates": [ -98.75, 53.25 ] } },
{ "type": "Feature", "properties": { "humidity@500m": 11.251146135628751, "lapserate": 0.0063976049, "timestamp": "20260608T02" }, "geometry": { "type": "Point", "coordinates": [ -98.75, 53.5 ] } },
{ "type": "Feature", "properties": { "humidity@500m": 11.186851989924433, "lapserate": 0.0062936046, "timestamp": "20260608T02" }, "geometry": { "type": "Point", "coordinates": [ -98.75, 53.75 ] } },
{ "type": "Feature", "properties": { "humidity@500m": 11.223523058298401, "lapserate": 0.0061246455, "timestamp": "20260608T02" }, "geometry": { "type": "Point", "coordinates": [ -98.75, 54.0 ] } },
{ "type": "Feature", "properties": { "humidity@500m": 11.257264588186821, "lapserate": 0.0059490255, "timestamp": "20260608T02" }, "geometry": { "type": "Point", "coordinates": [ -98.75, 54.25 ] } }
]
}
