{
"type": "FeatureCollection",
"name": "geojson_lapse_rate_20260608T02",
"crs": { "type": "name", "properties": { "name": "urn:ogc:def:crs:OGC:1.3:CRS84" } },
"features": [
{ "type": "Feature", "properties": { "level": 6.5, "color": "red", "line_style": "dashed", "line_width": 1.0 }, "geometry": { "type": "LineString", "coordinates": [ [ -98.75, 50.661314707154901 ], [ -98.961927582534614, 50.5 ], [ -99.0, 50.412645409845894 ], [ -99.046829747286182, 50.25 ], [ -99.074194391808689, 50.0 ], [ -99.111515945154821, 49.75 ], [ -99.25, 49.59373614720684 ], [ -99.282746427552027, 49.5 ], [ -99.396934357367286, 49.25 ], [ -102.108204600688182, 49.25 ], [ -102.197902677570823, 49.5 ], [ -102.25, 49.617237325863492 ], [ -102.308238233772116, 49.75 ], [ -102.488495096903719, 50.0 ], [ -102.5, 50.016100752576854 ], [ -102.641072742562812, 50.25 ], [ -102.681627443892097, 50.5 ], [ -102.669471615997281, 50.75 ], [ -102.619753003187057, 51.0 ], [ -102.55391489427096, 51.25 ], [ -102.5, 51.382655877793326 ], [ -102.431422333594085, 51.5 ], [ -102.27634745002949, 51.75 ], [ -102.25, 51.822966784161373 ], [ -102.131194315905788, 52.0 ], [ -102.220005519288961, 52.25 ], [ -102.25, 52.306402548135424 ], [ -102.269639485913459, 52.5 ], [ -102.25, 52.523095610147635 ], [ -102.004296096643102, 52.75 ], [ -102.0, 52.751898191177524 ], [ -101.75, 52.792335783329733 ], [ -101.688299943177668, 52.75 ], [ -101.75, 52.53338073793158 ], [ -101.766688061617458, 52.5 ], [ -101.75, 52.340611147788366 ], [ -101.726545907282187, 52.25 ], [ -101.5, 52.204726848734978 ], [ -101.405630637501645, 52.25 ], [ -101.25, 52.296383261807776 ], [ -101.0, 52.429796035113753 ], [ -100.885838398631151, 52.5 ], [ -100.75, 52.580070645387906 ], [ -100.5, 52.693385787272788 ], [ -100.363279599721068, 52.75 ], [ -100.25, 52.813349140789789 ], [ -100.0, 52.942087386475343 ], [ -99.820086876458589, 53.0 ], [ -99.75, 53.047748953507153 ], [ -99.511123194034482, 53.0 ], [ -99.5, 52.998421982923915 ], [ -99.25, 52.828885907374278 ], [ -99.172443695344185, 52.75 ], [ -99.059216651561343, 52.5 ], [ -99.0, 52.324858051467004 ], [ -98.973898589514818, 52.25 ], [ -98.85959645091495, 52.0 ], [ -98.75, 51.907237094278372 ], [ -100.51207191996086, 49.25 ], [ -100.5, 49.261902174016676 ], [ -100.277775899167253, 49.5 ], [ -100.25, 49.546318665174823 ], [ -100.145880996449918, 49.75 ], [ -100.0, 49.972582302859713 ], [ -99.969005463851701, 50.0 ], [ -99.75, 50.196146328430409 ], [ -99.682719335230672, 50.25 ], [ -99.535844559983374, 50.5 ], [ -99.5, 50.608533266395398 ], [ -99.404559747867097, 50.75 ], [ -99.456796534366291, 51.0 ], [ -99.5, 51.040125795563966 ], [ -99.75, 51.169277806397318 ], [ -100.0, 51.157602375096005 ], [ -100.25, 51.045073729157558 ], [ -100.315637992821351, 51.0 ], [ -100.5, 50.829705284766263 ], [ -100.609802116972304, 50.75 ], [ -100.75, 50.653335394527531 ], [ -101.0, 50.619525133809752 ], [ -101.198811531569518, 50.5 ], [ -101.25, 50.474034166625536 ], [ -101.431705557594157, 50.25 ], [ -101.5, 50.115815751355107 ], [ -101.556054172627853, 50.0 ], [ -101.617866219286526, 49.75 ], [ -101.638736982977221, 49.5 ], [ -101.645415710960705, 49.25 ] ] } },
{ "type": "Feature", "properties": { "level": 6.0, "color": "red", "line_style": "dotted", "line_width": 0.5 }, "geometry": { "type": "LineString", "coordinates": [ [ -103.75, 53.889145097609131 ], [ -103.5, 53.800343805101079 ], [ -103.25, 53.780942092360974 ], [ -103.0, 53.76549176564788 ], [ -102.931700672441423, 53.75 ], [ -102.851062444124736, 53.5 ], [ -103.0, 53.381294268093001 ], [ -103.16382233971774, 53.25 ], [ -103.25, 53.104769252140784 ], [ -103.295547388264112, 53.0 ], [ -103.5, 52.815507979758657 ], [ -103.693976348002494, 52.75 ], [ -103.75, 52.730280667304974 ], [ -102.496876657697342, 49.25 ], [ -102.5, 49.258447000668994 ], [ -102.652231273906082, 49.5 ], [ -102.75, 49.596530583454935 ], [ -102.943763960465418, 49.75 ], [ -103.0, 49.82800887016748 ], [ -103.10401994478562, 50.0 ], [ -103.218173377429579, 50.25 ], [ -103.25, 50.336673127650585 ], [ -103.329269198395792, 50.5 ], [ -103.356511405104939, 50.75 ], [ -103.319222750866373, 51.0 ], [ -103.285459836959078, 51.25 ], [ -103.252024213492192, 51.5 ], [ -103.25, 51.5086306043356 ], [ -103.192581463199303, 51.75 ], [ -103.100809289232927, 52.0 ], [ -103.0, 52.212618561571787 ], [ -102.983278870577351, 52.25 ], [ -102.917596844987003, 52.5 ], [ -102.868298690692598, 52.75 ], [ -102.75, 52.893183403415776 ], [ -102.569068531808455, 53.0 ], [ -102.5, 53.027141860360231 ], [ -102.25, 53.104320482274233 ], [ -102.0, 53.193874007458021 ], [ -101.879847362474294, 53.25 ], [ -101.75, 53.334695707559064 ], [ -101.5, 53.469315446686707 ], [ -101.437513697129077, 53.5 ], [ -101.25, 53.625025641602058 ], [ -101.029023114149723, 53.75 ], [ -101.0, 53.765409992191124 ], [ -100.75, 53.859699261942367 ], [ -100.5, 53.934838910293685 ], [ -100.299831854701523, 54.0 ], [ -100.25, 54.018470959136657 ], [ -100.0, 54.094616170973374 ], [ -99.75, 54.136969282530643 ], [ -99.5, 54.154526443131878 ], [ -99.25, 54.155382679020946 ], [ -99.0, 54.156498014690811 ], [ -98.75, 54.177436390343772 ] ] } }
]
}
