{
"type": "FeatureCollection",
"name": "geojson_lapse_rate_20240716T13",
"crs": { "type": "name", "properties": { "name": "urn:ogc:def:crs:OGC:1.3:CRS84" } },
"features": [
{ "type": "Feature", "properties": { "level": 6.5, "color": "red", "line_style": "dashed", "line_width": 1.0 }, "geometry": { "type": "LineString", "coordinates": [ [ -79.336839849490133, 41.0 ], [ -79.25, 41.151507176568842 ], [ -79.188818377047994, 41.25 ], [ -79.075517004901059, 41.5 ], [ -79.011790880639339, 41.75 ], [ -79.0, 41.934743162304898 ], [ -78.99475698535251, 42.0 ], [ -79.0, 42.026849120506938 ], [ -79.029480299958948, 42.25 ], [ -79.066728904473635, 42.5 ], [ -79.098668532234328, 42.75 ], [ -79.059439083371188, 43.0 ], [ -79.0, 43.068400958938831 ], [ -78.75, 43.194171372562124 ], [ -78.5, 43.181162882486134 ], [ -78.25, 43.018380891521041 ], [ -78.232137006664999, 43.0 ], [ -78.023028317964645, 42.75 ], [ -78.0, 42.709916082125631 ], [ -77.874743837615441, 42.5 ], [ -77.761733145458479, 42.25 ], [ -77.75, 42.074592200496923 ], [ -77.743851373312026, 42.0 ], [ -77.75, 41.989416245794473 ], [ -77.892219303556871, 41.75 ], [ -77.993550792171476, 41.5 ], [ -78.0, 41.4565773951457 ], [ -78.029688300351339, 41.25 ], [ -78.107769387986821, 41.0 ] ] } },
{ "type": "Feature", "properties": { "level": 6.0, "color": "red", "line_style": "dotted", "line_width": 0.5 }, "geometry": { "type": "LineString", "coordinates": [ [ -77.711759649316832, 46.0 ], [ -77.5, 45.88797033073412 ], [ -77.25, 45.777979403677826 ], [ -77.25, 45.455528435138149 ], [ -77.5, 45.343944556621238 ], [ -77.75, 45.301995944247921 ], [ -78.0, 45.320740802536079 ], [ -78.25, 45.370008874435669 ], [ -78.5, 45.431225475067237 ], [ -78.75, 45.494557268504792 ], [ -78.775254107756979, 45.5 ], [ -79.0, 45.737145990581254 ], [ -79.006701477352024, 45.75 ], [ -79.0, 45.75542767638246 ], [ -78.75, 45.952984123453831 ], [ -78.690010368915082, 46.0 ], [ -79.895813109036382, 41.0 ], [ -79.75, 41.160188505483859 ], [ -79.682088831960741, 41.25 ], [ -79.5399793698937, 41.5 ], [ -79.5, 41.689985391981821 ], [ -79.487075203266244, 41.75 ], [ -79.461342528416964, 42.0 ], [ -79.429386044449814, 42.25 ], [ -79.447481478741011, 42.5 ], [ -79.5, 42.695720736247068 ], [ -79.51543617441375, 42.75 ], [ -79.582468947781209, 43.0 ], [ -79.546866187828314, 43.25 ], [ -79.5, 43.335447932423477 ], [ -79.390739350987175, 43.5 ], [ -79.287759047711603, 43.75 ], [ -79.25, 43.893935651900577 ], [ -79.116094079963716, 44.0 ], [ -79.0, 44.052654161872375 ], [ -78.75, 44.020311328461595 ], [ -78.688545405295599, 44.0 ], [ -78.5, 43.952934762856621 ], [ -78.25, 43.830281549475444 ], [ -78.156330112926128, 43.75 ], [ -78.0, 43.554297374894738 ], [ -77.974434204076786, 43.5 ], [ -77.815320364388981, 43.25 ], [ -77.75, 43.169921951513508 ], [ -77.614319452732488, 43.0 ], [ -77.5, 42.869432497423574 ], [ -77.377118200762879, 42.75 ], [ -77.25, 42.626966327496838 ], [ -77.25, 41.135630441266279 ], [ -77.319887702530622, 41.0 ], [ -81.5, 45.512077737544111 ], [ -81.25, 45.618113344196999 ], [ -81.0, 45.640688126212027 ], [ -80.75, 45.618087785801762 ], [ -80.5, 45.560647481420652 ], [ -80.350161081488892, 45.5 ], [ -80.457497693301349, 45.25 ], [ -80.5, 45.233733498314869 ], [ -80.75, 45.130850020068678 ], [ -81.0, 45.031831301310397 ], [ -81.25, 45.004800088314404 ], [ -81.5, 45.102753148705659 ], [ -81.696190338583051, 45.25 ], [ -81.519430720448341, 45.5 ], [ -81.5, 45.512077737544111 ] ] } },
{ "type": "Feature", "properties": { "level": 5.0, "color": "gray", "line_style": "dotted", "line_width": 0.1 }, "geometry": { "type": "LineString", "coordinates": [ [ -82.25, 41.323621284896731 ], [ -82.197396386822518, 41.25 ], [ -82.0, 41.150476518952694 ], [ -81.75, 41.12454604462917 ], [ -81.5, 41.141801624012459 ], [ -81.25, 41.175851525300033 ], [ -81.0, 41.234769928043335 ], [ -80.95798714546892, 41.25 ], [ -80.75, 41.347042840314437 ], [ -80.562347924624774, 41.5 ], [ -80.5, 41.593400262262733 ], [ -80.416181672249166, 41.75 ], [ -80.297128944067893, 42.0 ], [ -80.25, 42.101541232021972 ], [ -80.182573773720463, 42.25 ], [ -80.244789528891317, 42.5 ], [ -80.25, 42.505165734220803 ], [ -80.5, 42.650607603530212 ], [ -80.75, 42.749757845298475 ], [ -80.751314174963056, 42.75 ], [ -81.0, 42.812255658256653 ], [ -81.25, 42.988335783832454 ], [ -81.259164249080939, 43.0 ], [ -81.25, 43.045182175719802 ], [ -81.156836726944391, 43.25 ], [ -81.0, 43.358425845443037 ], [ -80.768421504637587, 43.5 ], [ -80.75, 43.52638448502077 ], [ -80.696523356299593, 43.75 ], [ -80.75, 43.850419193283088 ], [ -81.0, 43.807364585256707 ], [ -81.043445178379002, 43.75 ], [ -81.185390168442765, 43.5 ], [ -81.25, 43.391557575679869 ], [ -81.5, 43.306674369354283 ], [ -81.596061590280286, 43.25 ], [ -81.75, 43.172516475292511 ], [ -82.0, 43.016611175292169 ], [ -82.030683298566984, 43.0 ], [ -82.25, 42.898040499744553 ] ] } }
]
}
