{
"type": "FeatureCollection",
"name": "geojson_q500m_points_20240716T13",
"crs": { "type": "name", "properties": { "name": "urn:ogc:def:crs:OGC:1.3:CRS84" } },
"features": [
{ "type": "Feature", "properties": { "humidity@500m": 13.204762355516234, "lapserate": 0.0052801548, "timestamp": "20240716T13" }, "geometry": { "type": "Point", "coordinates": [ -82.25, 41.0 ] } },
{ "type": "Feature", "properties": { "humidity@500m": 13.146384026734657, "lapserate": 0.0050390875, "timestamp": "20240716T13" }, "geometry": { "type": "Point", "coordinates": [ -82.25, 41.25 ] } },
{ "type": "Feature", "properties": { "humidity@500m": 13.151205218075198, "lapserate": 0.0049063563, "timestamp": "20240716T13" }, "geometry": { "type": "Point", "coordinates": [ -82.25, 41.5 ] } },
{ "type": "Feature", "properties": { "humidity@500m": 13.039015521283849, "lapserate": 0.0048822761, "timestamp": "20240716T13" }, "geometry": { "type": "Point", "coordinates": [ -82.25, 41.75 ] } },
{ "type": "Feature", "properties": { "humidity@500m": 13.255332390458745, "lapserate": 0.0048588682, "timestamp": "20240716T13" }, "geometry": { "type": "Point", "coordinates": [ -82.25, 42.0 ] } },
{ "type": "Feature", "properties": { "humidity@500m": 13.256211302732247, "lapserate": 0.0047165006, "timestamp": "20240716T13" }, "geometry": { "type": "Point", "coordinates": [ -82.25, 42.25 ] } },
{ "type": "Feature", "properties": { "humidity@500m": 12.491767663067302, "lapserate": 0.0046550394, "timestamp": "20240716T13" }, "geometry": { "type": "Point", "coordinates": [ -82.25, 42.5 ] } },
{ "type": "Feature", "properties": { "humidity@500m": 11.47891022522902, "lapserate": 0.0048480099, "timestamp": "20240716T13" }, "geometry": { "type": "Point", "coordinates": [ -82.25, 42.75 ] } },
{ "type": "Feature", "properties": { "humidity@500m": 10.687440200242909, "lapserate": 0.0051046796, "timestamp": "20240716T13" }, "geometry": { "type": "Point", "coordinates": [ -82.25, 43.0 ] } },
{ "type": "Feature", "properties": { "humidity@500m": 10.741865912199243, "lapserate": 0.0052503133, "timestamp": "20240716T13" }, "geometry": { "type": "Point", "coordinates": [ -82.25, 43.25 ] } },
{ "type": "Feature", "properties": { "humidity@500m": 11.06508268267102, "lapserate": 0.005291211, "timestamp": "20240716T13" }, "geometry": { "type": "Point", "coordinates": [ -82.25, 43.5 ] } },
{ "type": "Feature", "properties": { "humidity@500m": 12.459581893607629, "lapserate": 0.0053161876, "timestamp": "20240716T13" }, "geometry": { "type": "Point", "coordinates": [ -82.25, 43.75 ] } },
{ "type": "Feature", "properties": { "humidity@500m": 13.533129034810543, "lapserate": 0.005359984, "timestamp": "20240716T13" }, "geometry": { "type": "Point", "coordinates": [ -82.25, 44.0 ] } },
{ "type": "Feature", "properties": { "humidity@500m": 13.910795376169549, "lapserate": 0.0054434123, "timestamp": "20240716T13" }, "geometry": { "type": "Point", "coordinates": [ -82.25, 44.25 ] } },
{ "type": "Feature", "properties": { "humidity@500m": 13.787358331889859, "lapserate": 0.0055744862, "timestamp": "20240716T13" }, "geometry": { "type": "Point", "coordinates": [ -82.25, 44.5 ] } },
{ "type": "Feature", "properties": { "humidity@500m": 13.484212317295357, "lapserate": 0.0057170927, "timestamp": "20240716T13" }, "geometry": { "type": "Point", "coordinates": [ -82.25, 44.75 ] } },
{ "type": "Feature", "properties": { "humidity@500m": 13.445734835634378, "lapserate": 0.0058539491, "timestamp": "20240716T13" }, "geometry": { "type": "Point", "coordinates": [ -82.25, 45.0 ] } },
{ "type": "Feature", "properties": { "humidity@500m": 13.629203573389457, "lapserate": 0.0058742915, "timestamp": "20240716T13" }, "geometry": { "type": "Point", "coordinates": [ -82.25, 45.25 ] } },
{ "type": "Feature", "properties": { "humidity@500m": 13.562092915324166, "lapserate": 0.0058123656, "timestamp": "20240716T13" }, "geometry": { "type": "Point", "coordinates": [ -82.25, 45.5 ] } },
{ "type": "Feature", "properties": { "humidity@500m": 13.165376519705854, "lapserate": 0.0057787667, "timestamp": "20240716T13" }, "geometry": { "type": "Point", "coordinates": [ -82.25, 45.75 ] } },
{ "type": "Feature", "properties": { "humidity@500m": 12.621452498962054, "lapserate": 0.0057438398, "timestamp": "20240716T13" }, "geometry": { "type": "Point", "coordinates": [ -82.25, 46.0 ] } },
{ "type": "Feature", "properties": { "humidity@500m": 13.32041408697302, "lapserate": 0.0052217697, "timestamp": "20240716T13" }, "geometry": { "type": "Point", "coordinates": [ -82.0, 41.0 ] } },
{ "type": "Feature", "properties": { "humidity@500m": 13.26021192035715, "lapserate": 0.004853324, "timestamp": "20240716T13" }, "geometry": { "type": "Point", "coordinates": [ -82.0, 41.25 ] } },
{ "type": "Feature", "properties": { "humidity@500m": 13.251207495853693, "lapserate": 0.0046669967, "timestamp": "20240716T13" }, "geometry": { "type": "Point", "coordinates": [ -82.0, 41.5 ] } },
{ "type": "Feature", "properties": { "humidity@500m": 13.236019837171257, "lapserate": 0.004641558, "timestamp": "20240716T13" }, "geometry": { "type": "Point", "coordinates": [ -82.0, 41.75 ] } },
{ "type": "Feature", "properties": { "humidity@500m": 13.629852491009967, "lapserate": 0.0046553076, "timestamp": "20240716T13" }, "geometry": { "type": "Point", "coordinates": [ -82.0, 42.0 ] } },
{ "type": "Feature", "properties": { "humidity@500m": 13.793478490369342, "lapserate": 0.0045445543, "timestamp": "20240716T13" }, "geometry": { "type": "Point", "coordinates": [ -82.0, 42.25 ] } },
{ "type": "Feature", "properties": { "humidity@500m": 13.464143832094342, "lapserate": 0.0045034802, "timestamp": "20240716T13" }, "geometry": { "type": "Point", "coordinates": [ -82.0, 42.5 ] } },
{ "type": "Feature", "properties": { "humidity@500m": 12.342302656675471, "lapserate": 0.004712644, "timestamp": "20240716T13" }, "geometry": { "type": "Point", "coordinates": [ -82.0, 42.75 ] } },
{ "type": "Feature", "properties": { "humidity@500m": 11.602267708530409, "lapserate": 0.0049853548, "timestamp": "20240716T13" }, "geometry": { "type": "Point", "coordinates": [ -82.0, 43.0 ] } },
{ "type": "Feature", "properties": { "humidity@500m": 10.9987616256556, "lapserate": 0.0052057654, "timestamp": "20240716T13" }, "geometry": { "type": "Point", "coordinates": [ -82.0, 43.25 ] } },
{ "type": "Feature", "properties": { "humidity@500m": 11.330656553691274, "lapserate": 0.0053175315, "timestamp": "20240716T13" }, "geometry": { "type": "Point", "coordinates": [ -82.0, 43.5 ] } },
{ "type": "Feature", "properties": { "humidity@500m": 11.955068828822949, "lapserate": 0.005317972, "timestamp": "20240716T13" }, "geometry": { "type": "Point", "coordinates": [ -82.0, 43.75 ] } },
{ "type": "Feature", "properties": { "humidity@500m": 13.012954831950221, "lapserate": 0.0053333659, "timestamp": "20240716T13" }, "geometry": { "type": "Point", "coordinates": [ -82.0, 44.0 ] } },
{ "type": "Feature", "properties": { "humidity@500m": 13.650877422344719, "lapserate": 0.0054377713, "timestamp": "20240716T13" }, "geometry": { "type": "Point", "coordinates": [ -82.0, 44.25 ] } },
{ "type": "Feature", "properties": { "humidity@500m": 13.709959794707421, "lapserate": 0.0055887708, "timestamp": "20240716T13" }, "geometry": { "type": "Point", "coordinates": [ -82.0, 44.5 ] } },
{ "type": "Feature", "properties": { "humidity@500m": 13.444540277206585, "lapserate": 0.0057305051, "timestamp": "20240716T13" }, "geometry": { "type": "Point", "coordinates": [ -82.0, 44.75 ] } },
{ "type": "Feature", "properties": { "humidity@500m": 13.556749145430445, "lapserate": 0.0058761332, "timestamp": "20240716T13" }, "geometry": { "type": "Point", "coordinates": [ -82.0, 45.0 ] } },
{ "type": "Feature", "properties": { "humidity@500m": 13.742870298506922, "lapserate": 0.0059283609, "timestamp": "20240716T13" }, "geometry": { "type": "Point", "coordinates": [ -82.0, 45.25 ] } },
{ "type": "Feature", "properties": { "humidity@500m": 13.739549828945243, "lapserate": 0.0058790217, "timestamp": "20240716T13" }, "geometry": { "type": "Point", "coordinates": [ -82.0, 45.5 ] } },
{ "type": "Feature", "properties": { "humidity@500m": 13.345462402516633, "lapserate": 0.005822212, "timestamp": "20240716T13" }, "geometry": { "type": "Point", "coordinates": [ -82.0, 45.75 ] } },
{ "type": "Feature", "properties": { "humidity@500m": 12.753128759458244, "lapserate": 0.0057572741, "timestamp": "20240716T13" }, "geometry": { "type": "Point", "coordinates": [ -82.0, 46.0 ] } },
{ "type": "Feature", "properties": { "humidity@500m": 13.427277162812134, "lapserate": 0.0052177561, "timestamp": "20240716T13" }, "geometry": { "type": "Point", "coordinates": [ -81.75, 41.0 ] } },
{ "type": "Feature", "properties": { "humidity@500m": 13.278524213764095, "lapserate": 0.0047806562, "timestamp": "20240716T13" }, "geometry": { "type": "Point", "coordinates": [ -81.75, 41.25 ] } },
{ "type": "Feature", "properties": { "humidity@500m": 13.198278849880953, "lapserate": 0.0045385794, "timestamp": "20240716T13" }, "geometry": { "type": "Point", "coordinates": [ -81.75, 41.5 ] } },
{ "type": "Feature", "properties": { "humidity@500m": 13.32650874650232, "lapserate": 0.0044614659, "timestamp": "20240716T13" }, "geometry": { "type": "Point", "coordinates": [ -81.75, 41.75 ] } },
{ "type": "Feature", "properties": { "humidity@500m": 13.683750297578161, "lapserate": 0.0044791726, "timestamp": "20240716T13" }, "geometry": { "type": "Point", "coordinates": [ -81.75, 42.0 ] } },
{ "type": "Feature", "properties": { "humidity@500m": 14.058759205630437, "lapserate": 0.0044567371, "timestamp": "20240716T13" }, "geometry": { "type": "Point", "coordinates": [ -81.75, 42.25 ] } },
{ "type": "Feature", "properties": { "humidity@500m": 13.896571774506791, "lapserate": 0.0045023137, "timestamp": "20240716T13" }, "geometry": { "type": "Point", "coordinates": [ -81.75, 42.5 ] } },
{ "type": "Feature", "properties": { "humidity@500m": 13.46260308777657, "lapserate": 0.0046940735, "timestamp": "20240716T13" }, "geometry": { "type": "Point", "coordinates": [ -81.75, 42.75 ] } },
{ "type": "Feature", "properties": { "humidity@500m": 13.011467977691526, "lapserate": 0.0048641386, "timestamp": "20240716T13" }, "geometry": { "type": "Point", "coordinates": [ -81.75, 43.0 ] } },
{ "type": "Feature", "properties": { "humidity@500m": 12.329166037299968, "lapserate": 0.0050610206, "timestamp": "20240716T13" }, "geometry": { "type": "Point", "coordinates": [ -81.75, 43.25 ] } },
{ "type": "Feature", "properties": { "humidity@500m": 11.582191206589723, "lapserate": 0.0052537406, "timestamp": "20240716T13" }, "geometry": { "type": "Point", "coordinates": [ -81.75, 43.5 ] } },
{ "type": "Feature", "properties": { "humidity@500m": 11.675497944068464, "lapserate": 0.0052936622, "timestamp": "20240716T13" }, "geometry": { "type": "Point", "coordinates": [ -81.75, 43.75 ] } },
{ "type": "Feature", "properties": { "humidity@500m": 12.516779565842741, "lapserate": 0.0052893721, "timestamp": "20240716T13" }, "geometry": { "type": "Point", "coordinates": [ -81.75, 44.0 ] } },
{ "type": "Feature", "properties": { "humidity@500m": 13.474939067220388, "lapserate": 0.0053982539, "timestamp": "20240716T13" }, "geometry": { "type": "Point", "coordinates": [ -81.75, 44.25 ] } },
{ "type": "Feature", "properties": { "humidity@500m": 13.638265420082135, "lapserate": 0.0055844225, "timestamp": "20240716T13" }, "geometry": { "type": "Point", "coordinates": [ -81.75, 44.5 ] } },
{ "type": "Feature", "properties": { "humidity@500m": 13.51855387594633, "lapserate": 0.0057558599, "timestamp": "20240716T13" }, "geometry": { "type": "Point", "coordinates": [ -81.75, 44.75 ] } },
{ "type": "Feature", "properties": { "humidity@500m": 13.635631750861538, "lapserate": 0.005913164, "timestamp": "20240716T13" }, "geometry": { "type": "Point", "coordinates": [ -81.75, 45.0 ] } },
{ "type": "Feature", "properties": { "humidity@500m": 13.817570576387865, "lapserate": 0.0059850831, "timestamp": "20240716T13" }, "geometry": { "type": "Point", "coordinates": [ -81.75, 45.25 ] } },
{ "type": "Feature", "properties": { "humidity@500m": 13.831128606285123, "lapserate": 0.0059403619, "timestamp": "20240716T13" }, "geometry": { "type": "Point", "coordinates": [ -81.75, 45.5 ] } },
{ "type": "Feature", "properties": { "humidity@500m": 13.515740700938606, "lapserate": 0.0058619264, "timestamp": "20240716T13" }, "geometry": { "type": "Point", "coordinates": [ -81.75, 45.75 ] } },
{ "type": "Feature", "properties": { "humidity@500m": 12.833533062728238, "lapserate": 0.0057769446, "timestamp": "20240716T13" }, "geometry": { "type": "Point", "coordinates": [ -81.75, 46.0 ] } },
{ "type": "Feature", "properties": { "humidity@500m": 13.391041742363708, "lapserate": 0.0052510775, "timestamp": "20240716T13" }, "geometry": { "type": "Point", "coordinates": [ -81.5, 41.0 ] } },
{ "type": "Feature", "properties": { "humidity@500m": 13.323824122531178, "lapserate": 0.0048084212, "timestamp": "20240716T13" }, "geometry": { "type": "Point", "coordinates": [ -81.5, 41.25 ] } },
{ "type": "Feature", "properties": { "humidity@500m": 13.115062354262824, "lapserate": 0.0045121443, "timestamp": "20240716T13" }, "geometry": { "type": "Point", "coordinates": [ -81.5, 41.5 ] } },
{ "type": "Feature", "properties": { "humidity@500m": 13.293259635536248, "lapserate": 0.0043588239, "timestamp": "20240716T13" }, "geometry": { "type": "Point", "coordinates": [ -81.5, 41.75 ] } },
{ "type": "Feature", "properties": { "humidity@500m": 13.591717174430375, "lapserate": 0.0043621399, "timestamp": "20240716T13" }, "geometry": { "type": "Point", "coordinates": [ -81.5, 42.0 ] } },
{ "type": "Feature", "properties": { "humidity@500m": 14.06168520443255, "lapserate": 0.0044370452, "timestamp": "20240716T13" }, "geometry": { "type": "Point", "coordinates": [ -81.5, 42.25 ] } },
{ "type": "Feature", "properties": { "humidity@500m": 14.005419959315217, "lapserate": 0.0045870868, "timestamp": "20240716T13" }, "geometry": { "type": "Point", "coordinates": [ -81.5, 42.5 ] } },
{ "type": "Feature", "properties": { "humidity@500m": 13.769577582840361, "lapserate": 0.004790708, "timestamp": "20240716T13" }, "geometry": { "type": "Point", "coordinates": [ -81.5, 42.75 ] } },
{ "type": "Feature", "properties": { "humidity@500m": 13.842437320729355, "lapserate": 0.0048779207, "timestamp": "20240716T13" }, "geometry": { "type": "Point", "coordinates": [ -81.5, 43.0 ] } },
{ "type": "Feature", "properties": { "humidity@500m": 13.248078405935688, "lapserate": 0.0049619218, "timestamp": "20240716T13" }, "geometry": { "type": "Point", "coordinates": [ -81.5, 43.25 ] } },
{ "type": "Feature", "properties": { "humidity@500m": 12.421443034917015, "lapserate": 0.0051298914, "timestamp": "20240716T13" }, "geometry": { "type": "Point", "coordinates": [ -81.5, 43.5 ] } },
{ "type": "Feature", "properties": { "humidity@500m": 12.308733349988495, "lapserate": 0.0052153394, "timestamp": "20240716T13" }, "geometry": { "type": "Point", "coordinates": [ -81.5, 43.75 ] } },
{ "type": "Feature", "properties": { "humidity@500m": 12.48194937935993, "lapserate": 0.0052259183, "timestamp": "20240716T13" }, "geometry": { "type": "Point", "coordinates": [ -81.5, 44.0 ] } },
{ "type": "Feature", "properties": { "humidity@500m": 13.371651015975855, "lapserate": 0.0053219004, "timestamp": "20240716T13" }, "geometry": { "type": "Point", "coordinates": [ -81.5, 44.25 ] } },
{ "type": "Feature", "properties": { "humidity@500m": 13.638465168923936, "lapserate": 0.0055323537, "timestamp": "20240716T13" }, "geometry": { "type": "Point", "coordinates": [ -81.5, 44.5 ] } },
{ "type": "Feature", "properties": { "humidity@500m": 13.550456514317858, "lapserate": 0.0057635112, "timestamp": "20240716T13" }, "geometry": { "type": "Point", "coordinates": [ -81.5, 44.75 ] } },
{ "type": "Feature", "properties": { "humidity@500m": 13.642465545804754, "lapserate": 0.0059620473, "timestamp": "20240716T13" }, "geometry": { "type": "Point", "coordinates": [ -81.5, 45.0 ] } },
{ "type": "Feature", "properties": { "humidity@500m": 13.77808401588522, "lapserate": 0.006054387, "timestamp": "20240716T13" }, "geometry": { "type": "Point", "coordinates": [ -81.5, 45.25 ] } },
{ "type": "Feature", "properties": { "humidity@500m": 13.792358024779224, "lapserate": 0.0060050259, "timestamp": "20240716T13" }, "geometry": { "type": "Point", "coordinates": [ -81.5, 45.5 ] } },
{ "type": "Feature", "properties": { "humidity@500m": 13.520372151300521, "lapserate": 0.0059009944, "timestamp": "20240716T13" }, "geometry": { "type": "Point", "coordinates": [ -81.5, 45.75 ] } },
{ "type": "Feature", "properties": { "humidity@500m": 12.862611370632701, "lapserate": 0.0057990444, "timestamp": "20240716T13" }, "geometry": { "type": "Point", "coordinates": [ -81.5, 46.0 ] } },
{ "type": "Feature", "properties": { "humidity@500m": 13.2874281756855, "lapserate": 0.0052849324, "timestamp": "20240716T13" }, "geometry": { "type": "Point", "coordinates": [ -81.25, 41.0 ] } },
{ "type": "Feature", "properties": { "humidity@500m": 13.354485581066788, "lapserate": 0.0048798569, "timestamp": "20240716T13" }, "geometry": { "type": "Point", "coordinates": [ -81.25, 41.25 ] } },
{ "type": "Feature", "properties": { "humidity@500m": 13.156951035937984, "lapserate": 0.0045440304, "timestamp": "20240716T13" }, "geometry": { "type": "Point", "coordinates": [ -81.25, 41.5 ] } },
{ "type": "Feature", "properties": { "humidity@500m": 13.259380069869042, "lapserate": 0.0043390039, "timestamp": "20240716T13" }, "geometry": { "type": "Point", "coordinates": [ -81.25, 41.75 ] } },
{ "type": "Feature", "properties": { "humidity@500m": 13.515552599335866, "lapserate": 0.0043363702, "timestamp": "20240716T13" }, "geometry": { "type": "Point", "coordinates": [ -81.25, 42.0 ] } },
{ "type": "Feature", "properties": { "humidity@500m": 13.934742164627497, "lapserate": 0.0044716513, "timestamp": "20240716T13" }, "geometry": { "type": "Point", "coordinates": [ -81.25, 42.25 ] } },
{ "type": "Feature", "properties": { "humidity@500m": 13.822793194895336, "lapserate": 0.0046691676, "timestamp": "20240716T13" }, "geometry": { "type": "Point", "coordinates": [ -81.25, 42.5 ] } },
{ "type": "Feature", "properties": { "humidity@500m": 13.838813978437225, "lapserate": 0.0049050814, "timestamp": "20240716T13" }, "geometry": { "type": "Point", "coordinates": [ -81.25, 42.75 ] } },
{ "type": "Feature", "properties": { "humidity@500m": 14.138063964561507, "lapserate": 0.0050046453, "timestamp": "20240716T13" }, "geometry": { "type": "Point", "coordinates": [ -81.25, 43.0 ] } },
{ "type": "Feature", "properties": { "humidity@500m": 13.777935797711423, "lapserate": 0.0049789418, "timestamp": "20240716T13" }, "geometry": { "type": "Point", "coordinates": [ -81.25, 43.25 ] } },
{ "type": "Feature", "properties": { "humidity@500m": 12.913662827845792, "lapserate": 0.0050161318, "timestamp": "20240716T13" }, "geometry": { "type": "Point", "coordinates": [ -81.25, 43.5 ] } },
{ "type": "Feature", "properties": { "humidity@500m": 12.545760614332659, "lapserate": 0.0050957878, "timestamp": "20240716T13" }, "geometry": { "type": "Point", "coordinates": [ -81.25, 43.75 ] } },
{ "type": "Feature", "properties": { "humidity@500m": 12.584784688298846, "lapserate": 0.0051502963, "timestamp": "20240716T13" }, "geometry": { "type": "Point", "coordinates": [ -81.25, 44.0 ] } },
{ "type": "Feature", "properties": { "humidity@500m": 13.244823303824873, "lapserate": 0.0052531944, "timestamp": "20240716T13" }, "geometry": { "type": "Point", "coordinates": [ -81.25, 44.25 ] } },
{ "type": "Feature", "properties": { "humidity@500m": 13.619156757147765, "lapserate": 0.0054702479, "timestamp": "20240716T13" }, "geometry": { "type": "Point", "coordinates": [ -81.25, 44.5 ] } },
{ "type": "Feature", "properties": { "humidity@500m": 13.578019363292327, "lapserate": 0.0057489956, "timestamp": "20240716T13" }, "geometry": { "type": "Point", "coordinates": [ -81.25, 44.75 ] } },
{ "type": "Feature", "properties": { "humidity@500m": 13.569966303588819, "lapserate": 0.0059977192, "timestamp": "20240716T13" }, "geometry": { "type": "Point", "coordinates": [ -81.25, 45.0 ] } },
{ "type": "Feature", "properties": { "humidity@500m": 13.706447624021903, "lapserate": 0.0061165043, "timestamp": "20240716T13" }, "geometry": { "type": "Point", "coordinates": [ -81.25, 45.25 ] } },
{ "type": "Feature", "properties": { "humidity@500m": 13.783589259489652, "lapserate": 0.0060622119, "timestamp": "20240716T13" }, "geometry": { "type": "Point", "coordinates": [ -81.25, 45.5 ] } },
{ "type": "Feature", "properties": { "humidity@500m": 13.517619621498591, "lapserate": 0.0059305336, "timestamp": "20240716T13" }, "geometry": { "type": "Point", "coordinates": [ -81.25, 45.75 ] } },
{ "type": "Feature", "properties": { "humidity@500m": 12.866295409665073, "lapserate": 0.0058014398, "timestamp": "20240716T13" }, "geometry": { "type": "Point", "coordinates": [ -81.25, 46.0 ] } },
{ "type": "Feature", "properties": { "humidity@500m": 13.247642156231086, "lapserate": 0.0053263353, "timestamp": "20240716T13" }, "geometry": { "type": "Point", "coordinates": [ -81.0, 41.0 ] } },
{ "type": "Feature", "properties": { "humidity@500m": 13.273475339651693, "lapserate": 0.00497883, "timestamp": "20240716T13" }, "geometry": { "type": "Point", "coordinates": [ -81.0, 41.25 ] } },
{ "type": "Feature", "properties": { "humidity@500m": 13.329424569111964, "lapserate": 0.004652326, "timestamp": "20240716T13" }, "geometry": { "type": "Point", "coordinates": [ -81.0, 41.5 ] } },
{ "type": "Feature", "properties": { "humidity@500m": 13.210038496720653, "lapserate": 0.0044396291, "timestamp": "20240716T13" }, "geometry": { "type": "Point", "coordinates": [ -81.0, 41.75 ] } },
{ "type": "Feature", "properties": { "humidity@500m": 13.493745406289717, "lapserate": 0.0044230153, "timestamp": "20240716T13" }, "geometry": { "type": "Point", "coordinates": [ -81.0, 42.0 ] } },
{ "type": "Feature", "properties": { "humidity@500m": 13.775674802179301, "lapserate": 0.004558099, "timestamp": "20240716T13" }, "geometry": { "type": "Point", "coordinates": [ -81.0, 42.25 ] } },
{ "type": "Feature", "properties": { "humidity@500m": 13.625137302920573, "lapserate": 0.0047388654, "timestamp": "20240716T13" }, "geometry": { "type": "Point", "coordinates": [ -81.0, 42.5 ] } },
{ "type": "Feature", "properties": { "humidity@500m": 13.880444398394596, "lapserate": 0.0049659819, "timestamp": "20240716T13" }, "geometry": { "type": "Point", "coordinates": [ -81.0, 42.75 ] } },
{ "type": "Feature", "properties": { "humidity@500m": 14.207487647635663, "lapserate": 0.0051025883, "timestamp": "20240716T13" }, "geometry": { "type": "Point", "coordinates": [ -81.0, 43.0 ] } },
{ "type": "Feature", "properties": { "humidity@500m": 13.883773428907704, "lapserate": 0.0050354507, "timestamp": "20240716T13" }, "geometry": { "type": "Point", "coordinates": [ -81.0, 43.25 ] } },
{ "type": "Feature", "properties": { "humidity@500m": 13.112477251011956, "lapserate": 0.0049537113, "timestamp": "20240716T13" }, "geometry": { "type": "Point", "coordinates": [ -81.0, 43.5 ] } },
{ "type": "Feature", "properties": { "humidity@500m": 13.011403099588513, "lapserate": 0.0049798526, "timestamp": "20240716T13" }, "geometry": { "type": "Point", "coordinates": [ -81.0, 43.75 ] } },
{ "type": "Feature", "properties": { "humidity@500m": 12.834909837413594, "lapserate": 0.0050676567, "timestamp": "20240716T13" }, "geometry": { "type": "Point", "coordinates": [ -81.0, 44.0 ] } },
{ "type": "Feature", "properties": { "humidity@500m": 13.085845422467258, "lapserate": 0.0052069994, "timestamp": "20240716T13" }, "geometry": { "type": "Point", "coordinates": [ -81.0, 44.25 ] } },
{ "type": "Feature", "properties": { "humidity@500m": 13.5457979548633, "lapserate": 0.0054261484, "timestamp": "20240716T13" }, "geometry": { "type": "Point", "coordinates": [ -81.0, 44.5 ] } },
{ "type": "Feature", "properties": { "humidity@500m": 13.535991668625748, "lapserate": 0.0057115769, "timestamp": "20240716T13" }, "geometry": { "type": "Point", "coordinates": [ -81.0, 44.75 ] } },
{ "type": "Feature", "properties": { "humidity@500m": 13.511185539687007, "lapserate": 0.0059818886, "timestamp": "20240716T13" }, "geometry": { "type": "Point", "coordinates": [ -81.0, 45.0 ] } },
{ "type": "Feature", "properties": { "humidity@500m": 13.61167267762419, "lapserate": 0.0061241328, "timestamp": "20240716T13" }, "geometry": { "type": "Point", "coordinates": [ -81.0, 45.25 ] } },
{ "type": "Feature", "properties": { "humidity@500m": 13.705759841638042, "lapserate": 0.006079704, "timestamp": "20240716T13" }, "geometry": { "type": "Point", "coordinates": [ -81.0, 45.5 ] } },
{ "type": "Feature", "properties": { "humidity@500m": 13.561126393176298, "lapserate": 0.0059380718, "timestamp": "20240716T13" }, "geometry": { "type": "Point", "coordinates": [ -81.0, 45.75 ] } },
{ "type": "Feature", "properties": { "humidity@500m": 12.96004598991779, "lapserate": 0.0057854126, "timestamp": "20240716T13" }, "geometry": { "type": "Point", "coordinates": [ -81.0, 46.0 ] } },
{ "type": "Feature", "properties": { "humidity@500m": 13.214483888249237, "lapserate": 0.005403555, "timestamp": "20240716T13" }, "geometry": { "type": "Point", "coordinates": [ -80.75, 41.0 ] } },
{ "type": "Feature", "properties": { "humidity@500m": 13.264743581252604, "lapserate": 0.0051048039, "timestamp": "20240716T13" }, "geometry": { "type": "Point", "coordinates": [ -80.75, 41.25 ] } },
{ "type": "Feature", "properties": { "humidity@500m": 13.314487719621845, "lapserate": 0.0048348098, "timestamp": "20240716T13" }, "geometry": { "type": "Point", "coordinates": [ -80.75, 41.5 ] } },
{ "type": "Feature", "properties": { "humidity@500m": 13.238461231899098, "lapserate": 0.0046492368, "timestamp": "20240716T13" }, "geometry": { "type": "Point", "coordinates": [ -80.75, 41.75 ] } },
{ "type": "Feature", "properties": { "humidity@500m": 13.519443540327806, "lapserate": 0.0045877914, "timestamp": "20240716T13" }, "geometry": { "type": "Point", "coordinates": [ -80.75, 42.0 ] } },
{ "type": "Feature", "properties": { "humidity@500m": 13.534517170777111, "lapserate": 0.0046676374, "timestamp": "20240716T13" }, "geometry": { "type": "Point", "coordinates": [ -80.75, 42.25 ] } },
{ "type": "Feature", "properties": { "humidity@500m": 13.44541661771709, "lapserate": 0.004814588, "timestamp": "20240716T13" }, "geometry": { "type": "Point", "coordinates": [ -80.75, 42.5 ] } },
{ "type": "Feature", "properties": { "humidity@500m": 13.740807083185439, "lapserate": 0.0050001796, "timestamp": "20240716T13" }, "geometry": { "type": "Point", "coordinates": [ -80.75, 42.75 ] } },
{ "type": "Feature", "properties": { "humidity@500m": 14.03356233709121, "lapserate": 0.0051381728, "timestamp": "20240716T13" }, "geometry": { "type": "Point", "coordinates": [ -80.75, 43.0 ] } },
{ "type": "Feature", "properties": { "humidity@500m": 13.698064126406715, "lapserate": 0.0051055793, "timestamp": "20240716T13" }, "geometry": { "type": "Point", "coordinates": [ -80.75, 43.25 ] } },
{ "type": "Feature", "properties": { "humidity@500m": 12.759015925806876, "lapserate": 0.0050036823, "timestamp": "20240716T13" }, "geometry": { "type": "Point", "coordinates": [ -80.75, 43.5 ] } },
{ "type": "Feature", "properties": { "humidity@500m": 12.661966716715909, "lapserate": 0.0049687931, "timestamp": "20240716T13" }, "geometry": { "type": "Point", "coordinates": [ -80.75, 43.75 ] } },
{ "type": "Feature", "properties": { "humidity@500m": 12.591864431884959, "lapserate": 0.005046485, "timestamp": "20240716T13" }, "geometry": { "type": "Point", "coordinates": [ -80.75, 44.0 ] } },
{ "type": "Feature", "properties": { "humidity@500m": 12.742472822492388, "lapserate": 0.0052101933, "timestamp": "20240716T13" }, "geometry": { "type": "Point", "coordinates": [ -80.75, 44.25 ] } },
{ "type": "Feature", "properties": { "humidity@500m": 13.382631957087535, "lapserate": 0.0054135555, "timestamp": "20240716T13" }, "geometry": { "type": "Point", "coordinates": [ -80.75, 44.5 ] } },
{ "type": "Feature", "properties": { "humidity@500m": 13.453131011583798, "lapserate": 0.0056624706, "timestamp": "20240716T13" }, "geometry": { "type": "Point", "coordinates": [ -80.75, 44.75 ] } },
{ "type": "Feature", "properties": { "humidity@500m": 13.398743601118582, "lapserate": 0.0059160562, "timestamp": "20240716T13" }, "geometry": { "type": "Point", "coordinates": [ -80.75, 45.0 ] } },
{ "type": "Feature", "properties": { "humidity@500m": 13.524092491173921, "lapserate": 0.0060764379, "timestamp": "20240716T13" }, "geometry": { "type": "Point", "coordinates": [ -80.75, 45.25 ] } },
{ "type": "Feature", "properties": { "humidity@500m": 13.655223251798709, "lapserate": 0.0060619726, "timestamp": "20240716T13" }, "geometry": { "type": "Point", "coordinates": [ -80.75, 45.5 ] } },
{ "type": "Feature", "properties": { "humidity@500m": 13.675101014329647, "lapserate": 0.0059307725, "timestamp": "20240716T13" }, "geometry": { "type": "Point", "coordinates": [ -80.75, 45.75 ] } },
{ "type": "Feature", "properties": { "humidity@500m": 13.126567641894757, "lapserate": 0.0057697324, "timestamp": "20240716T13" }, "geometry": { "type": "Point", "coordinates": [ -80.75, 46.0 ] } },
{ "type": "Feature", "properties": { "humidity@500m": 13.062993499065247, "lapserate": 0.0055320258, "timestamp": "20240716T13" }, "geometry": { "type": "Point", "coordinates": [ -80.5, 41.0 ] } },
{ "type": "Feature", "properties": { "humidity@500m": 13.149890717344709, "lapserate": 0.0052641323, "timestamp": "20240716T13" }, "geometry": { "type": "Point", "coordinates": [ -80.5, 41.25 ] } },
{ "type": "Feature", "properties": { "humidity@500m": 13.197153170675927, "lapserate": 0.0050548851, "timestamp": "20240716T13" }, "geometry": { "type": "Point", "coordinates": [ -80.5, 41.5 ] } },
{ "type": "Feature", "properties": { "humidity@500m": 13.148857110175296, "lapserate": 0.0049079773, "timestamp": "20240716T13" }, "geometry": { "type": "Point", "coordinates": [ -80.5, 41.75 ] } },
{ "type": "Feature", "properties": { "humidity@500m": 13.363430669240694, "lapserate": 0.0047923662, "timestamp": "20240716T13" }, "geometry": { "type": "Point", "coordinates": [ -80.5, 42.0 ] } },
{ "type": "Feature", "properties": { "humidity@500m": 13.179593006644641, "lapserate": 0.0047765793, "timestamp": "20240716T13" }, "geometry": { "type": "Point", "coordinates": [ -80.5, 42.25 ] } },
{ "type": "Feature", "properties": { "humidity@500m": 13.193103308353153, "lapserate": 0.0048942161, "timestamp": "20240716T13" }, "geometry": { "type": "Point", "coordinates": [ -80.5, 42.5 ] } },
{ "type": "Feature", "properties": { "humidity@500m": 13.538631021888481, "lapserate": 0.0050698114, "timestamp": "20240716T13" }, "geometry": { "type": "Point", "coordinates": [ -80.5, 42.75 ] } },
{ "type": "Feature", "properties": { "humidity@500m": 13.861250097766332, "lapserate": 0.0052153883, "timestamp": "20240716T13" }, "geometry": { "type": "Point", "coordinates": [ -80.5, 43.0 ] } },
{ "type": "Feature", "properties": { "humidity@500m": 13.504932961067924, "lapserate": 0.0052559809, "timestamp": "20240716T13" }, "geometry": { "type": "Point", "coordinates": [ -80.5, 43.25 ] } },
{ "type": "Feature", "properties": { "humidity@500m": 12.554471333858904, "lapserate": 0.0051915832, "timestamp": "20240716T13" }, "geometry": { "type": "Point", "coordinates": [ -80.5, 43.5 ] } },
{ "type": "Feature", "properties": { "humidity@500m": 12.619890005130884, "lapserate": 0.0051146839, "timestamp": "20240716T13" }, "geometry": { "type": "Point", "coordinates": [ -80.5, 43.75 ] } },
{ "type": "Feature", "properties": { "humidity@500m": 12.58699592480383, "lapserate": 0.0051605981, "timestamp": "20240716T13" }, "geometry": { "type": "Point", "coordinates": [ -80.5, 44.0 ] } },
{ "type": "Feature", "properties": { "humidity@500m": 12.512779304850365, "lapserate": 0.0053001507, "timestamp": "20240716T13" }, "geometry": { "type": "Point", "coordinates": [ -80.5, 44.25 ] } },
{ "type": "Feature", "properties": { "humidity@500m": 13.291386988750647, "lapserate": 0.0054427744, "timestamp": "20240716T13" }, "geometry": { "type": "Point", "coordinates": [ -80.5, 44.5 ] } },
{ "type": "Feature", "properties": { "humidity@500m": 13.416063070938261, "lapserate": 0.0056254989, "timestamp": "20240716T13" }, "geometry": { "type": "Point", "coordinates": [ -80.5, 44.75 ] } },
{ "type": "Feature", "properties": { "humidity@500m": 13.289248067614448, "lapserate": 0.0058421921, "timestamp": "20240716T13" }, "geometry": { "type": "Point", "coordinates": [ -80.5, 45.0 ] } },
{ "type": "Feature", "properties": { "humidity@500m": 13.416680894272439, "lapserate": 0.0060109827, "timestamp": "20240716T13" }, "geometry": { "type": "Point", "coordinates": [ -80.5, 45.25 ] } },
{ "type": "Feature", "properties": { "humidity@500m": 13.698737809921367, "lapserate": 0.0060280329, "timestamp": "20240716T13" }, "geometry": { "type": "Point", "coordinates": [ -80.5, 45.5 ] } },
{ "type": "Feature", "properties": { "humidity@500m": 13.71308204207863, "lapserate": 0.0059124767, "timestamp": "20240716T13" }, "geometry": { "type": "Point", "coordinates": [ -80.5, 45.75 ] } },
{ "type": "Feature", "properties": { "humidity@500m": 13.439219274725302, "lapserate": 0.0057561295, "timestamp": "20240716T13" }, "geometry": { "type": "Point", "coordinates": [ -80.5, 46.0 ] } },
{ "type": "Feature", "properties": { "humidity@500m": 12.875475120518356, "lapserate": 0.0057071098, "timestamp": "20240716T13" }, "geometry": { "type": "Point", "coordinates": [ -80.25, 41.0 ] } },
{ "type": "Feature", "properties": { "humidity@500m": 12.988306097814124, "lapserate": 0.0054639294, "timestamp": "20240716T13" }, "geometry": { "type": "Point", "coordinates": [ -80.25, 41.25 ] } },
{ "type": "Feature", "properties": { "humidity@500m": 13.029985201597473, "lapserate": 0.0052877311, "timestamp": "20240716T13" }, "geometry": { "type": "Point", "coordinates": [ -80.25, 41.5 ] } },
{ "type": "Feature", "properties": { "humidity@500m": 13.022719334698664, "lapserate": 0.0051824483, "timestamp": "20240716T13" }, "geometry": { "type": "Point", "coordinates": [ -80.25, 41.75 ] } },
{ "type": "Feature", "properties": { "humidity@500m": 13.114254234915549, "lapserate": 0.0050482354, "timestamp": "20240716T13" }, "geometry": { "type": "Point", "coordinates": [ -80.25, 42.0 ] } },
{ "type": "Feature", "properties": { "humidity@500m": 12.851076777293679, "lapserate": 0.0049294773, "timestamp": "20240716T13" }, "geometry": { "type": "Point", "coordinates": [ -80.25, 42.25 ] } },
{ "type": "Feature", "properties": { "humidity@500m": 12.844577904449464, "lapserate": 0.0049958597, "timestamp": "20240716T13" }, "geometry": { "type": "Point", "coordinates": [ -80.25, 42.5 ] } },
{ "type": "Feature", "properties": { "humidity@500m": 13.297022844541836, "lapserate": 0.0051962365, "timestamp": "20240716T13" }, "geometry": { "type": "Point", "coordinates": [ -80.25, 42.75 ] } },
{ "type": "Feature", "properties": { "humidity@500m": 13.8611148591361, "lapserate": 0.0053817639, "timestamp": "20240716T13" }, "geometry": { "type": "Point", "coordinates": [ -80.25, 43.0 ] } },
{ "type": "Feature", "properties": { "humidity@500m": 13.581239257313396, "lapserate": 0.0054669809, "timestamp": "20240716T13" }, "geometry": { "type": "Point", "coordinates": [ -80.25, 43.25 ] } },
{ "type": "Feature", "properties": { "humidity@500m": 12.472982337335345, "lapserate": 0.0054064239, "timestamp": "20240716T13" }, "geometry": { "type": "Point", "coordinates": [ -80.25, 43.5 ] } },
{ "type": "Feature", "properties": { "humidity@500m": 12.547899105266756, "lapserate": 0.0053069345, "timestamp": "20240716T13" }, "geometry": { "type": "Point", "coordinates": [ -80.25, 43.75 ] } },
{ "type": "Feature", "properties": { "humidity@500m": 12.782835324159, "lapserate": 0.0053376225, "timestamp": "20240716T13" }, "geometry": { "type": "Point", "coordinates": [ -80.25, 44.0 ] } },
{ "type": "Feature", "properties": { "humidity@500m": 12.45176827665356, "lapserate": 0.0054251705, "timestamp": "20240716T13" }, "geometry": { "type": "Point", "coordinates": [ -80.25, 44.25 ] } },
{ "type": "Feature", "properties": { "humidity@500m": 13.299254469870798, "lapserate": 0.0054886993, "timestamp": "20240716T13" }, "geometry": { "type": "Point", "coordinates": [ -80.25, 44.5 ] } },
{ "type": "Feature", "properties": { "humidity@500m": 13.473983566189659, "lapserate": 0.0056096776, "timestamp": "20240716T13" }, "geometry": { "type": "Point", "coordinates": [ -80.25, 44.75 ] } },
{ "type": "Feature", "properties": { "humidity@500m": 13.292428210478089, "lapserate": 0.0057849078, "timestamp": "20240716T13" }, "geometry": { "type": "Point", "coordinates": [ -80.25, 45.0 ] } },
{ "type": "Feature", "properties": { "humidity@500m": 13.370830775583773, "lapserate": 0.0059463829, "timestamp": "20240716T13" }, "geometry": { "type": "Point", "coordinates": [ -80.25, 45.25 ] } },
{ "type": "Feature", "properties": { "humidity@500m": 13.664003353642592, "lapserate": 0.0059812614, "timestamp": "20240716T13" }, "geometry": { "type": "Point", "coordinates": [ -80.25, 45.5 ] } },
{ "type": "Feature", "properties": { "humidity@500m": 13.732351512308846, "lapserate": 0.005885337, "timestamp": "20240716T13" }, "geometry": { "type": "Point", "coordinates": [ -80.25, 45.75 ] } },
{ "type": "Feature", "properties": { "humidity@500m": 13.499675798737119, "lapserate": 0.0057464545, "timestamp": "20240716T13" }, "geometry": { "type": "Point", "coordinates": [ -80.25, 46.0 ] } },
{ "type": "Feature", "properties": { "humidity@500m": 12.62739848433416, "lapserate": 0.0059084967, "timestamp": "20240716T13" }, "geometry": { "type": "Point", "coordinates": [ -80.0, 41.0 ] } },
{ "type": "Feature", "properties": { "humidity@500m": 12.756986468737651, "lapserate": 0.0056872959, "timestamp": "20240716T13" }, "geometry": { "type": "Point", "coordinates": [ -80.0, 41.25 ] } },
{ "type": "Feature", "properties": { "humidity@500m": 12.838994337361283, "lapserate": 0.0055209319, "timestamp": "20240716T13" }, "geometry": { "type": "Point", "coordinates": [ -80.0, 41.5 ] } },
{ "type": "Feature", "properties": { "humidity@500m": 12.841839381536754, "lapserate": 0.0054577254, "timestamp": "20240716T13" }, "geometry": { "type": "Point", "coordinates": [ -80.0, 41.75 ] } },
{ "type": "Feature", "properties": { "humidity@500m": 12.849539288681655, "lapserate": 0.0053608413, "timestamp": "20240716T13" }, "geometry": { "type": "Point", "coordinates": [ -80.0, 42.0 ] } },
{ "type": "Feature", "properties": { "humidity@500m": 12.528399379624254, "lapserate": 0.0051909587, "timestamp": "20240716T13" }, "geometry": { "type": "Point", "coordinates": [ -80.0, 42.25 ] } },
{ "type": "Feature", "properties": { "humidity@500m": 12.546073629372787, "lapserate": 0.0051945164, "timestamp": "20240716T13" }, "geometry": { "type": "Point", "coordinates": [ -80.0, 42.5 ] } },
{ "type": "Feature", "properties": { "humidity@500m": 13.138673728507616, "lapserate": 0.0053932574, "timestamp": "20240716T13" }, "geometry": { "type": "Point", "coordinates": [ -80.0, 42.75 ] } },
{ "type": "Feature", "properties": { "humidity@500m": 13.847916582986295, "lapserate": 0.00559083, "timestamp": "20240716T13" }, "geometry": { "type": "Point", "coordinates": [ -80.0, 43.0 ] } },
{ "type": "Feature", "properties": { "humidity@500m": 13.595696305149595, "lapserate": 0.0056554903, "timestamp": "20240716T13" }, "geometry": { "type": "Point", "coordinates": [ -80.0, 43.25 ] } },
{ "type": "Feature", "properties": { "humidity@500m": 12.397107686438387, "lapserate": 0.0055573904, "timestamp": "20240716T13" }, "geometry": { "type": "Point", "coordinates": [ -80.0, 43.5 ] } },
{ "type": "Feature", "properties": { "humidity@500m": 12.079273939510193, "lapserate": 0.0054555112, "timestamp": "20240716T13" }, "geometry": { "type": "Point", "coordinates": [ -80.0, 43.75 ] } },
{ "type": "Feature", "properties": { "humidity@500m": 12.780997102005694, "lapserate": 0.0054871207, "timestamp": "20240716T13" }, "geometry": { "type": "Point", "coordinates": [ -80.0, 44.0 ] } },
{ "type": "Feature", "properties": { "humidity@500m": 12.77944743732948, "lapserate": 0.0055292766, "timestamp": "20240716T13" }, "geometry": { "type": "Point", "coordinates": [ -80.0, 44.25 ] } },
{ "type": "Feature", "properties": { "humidity@500m": 13.57040398562704, "lapserate": 0.0055404622, "timestamp": "20240716T13" }, "geometry": { "type": "Point", "coordinates": [ -80.0, 44.5 ] } },
{ "type": "Feature", "properties": { "humidity@500m": 13.645406467398924, "lapserate": 0.0056202295, "timestamp": "20240716T13" }, "geometry": { "type": "Point", "coordinates": [ -80.0, 44.75 ] } },
{ "type": "Feature", "properties": { "humidity@500m": 13.430884734869588, "lapserate": 0.0057548755, "timestamp": "20240716T13" }, "geometry": { "type": "Point", "coordinates": [ -80.0, 45.0 ] } },
{ "type": "Feature", "properties": { "humidity@500m": 13.403266752561844, "lapserate": 0.0058935392, "timestamp": "20240716T13" }, "geometry": { "type": "Point", "coordinates": [ -80.0, 45.25 ] } },
{ "type": "Feature", "properties": { "humidity@500m": 13.644099926609289, "lapserate": 0.0059360582, "timestamp": "20240716T13" }, "geometry": { "type": "Point", "coordinates": [ -80.0, 45.5 ] } },
{ "type": "Feature", "properties": { "humidity@500m": 13.724152858642071, "lapserate": 0.0058659855, "timestamp": "20240716T13" }, "geometry": { "type": "Point", "coordinates": [ -80.0, 45.75 ] } },
{ "type": "Feature", "properties": { "humidity@500m": 13.579204178703767, "lapserate": 0.0057556191, "timestamp": "20240716T13" }, "geometry": { "type": "Point", "coordinates": [ -80.0, 46.0 ] } },
{ "type": "Feature", "properties": { "humidity@500m": 12.348043497584504, "lapserate": 0.0061280616, "timestamp": "20240716T13" }, "geometry": { "type": "Point", "coordinates": [ -79.75, 41.0 ] } },
{ "type": "Feature", "properties": { "humidity@500m": 12.600724998131922, "lapserate": 0.0059282007, "timestamp": "20240716T13" }, "geometry": { "type": "Point", "coordinates": [ -79.75, 41.25 ] } },
{ "type": "Feature", "properties": { "humidity@500m": 12.712845883616513, "lapserate": 0.0057654381, "timestamp": "20240716T13" }, "geometry": { "type": "Point", "coordinates": [ -79.75, 41.5 ] } },
{ "type": "Feature", "properties": { "humidity@500m": 12.702933973133764, "lapserate": 0.0057220259, "timestamp": "20240716T13" }, "geometry": { "type": "Point", "coordinates": [ -79.75, 41.75 ] } },
{ "type": "Feature", "properties": { "humidity@500m": 12.714211741055363, "lapserate": 0.0056775971, "timestamp": "20240716T13" }, "geometry": { "type": "Point", "coordinates": [ -79.75, 42.0 ] } },
{ "type": "Feature", "properties": { "humidity@500m": 12.39326248507045, "lapserate": 0.0055443356, "timestamp": "20240716T13" }, "geometry": { "type": "Point", "coordinates": [ -79.75, 42.25 ] } },
{ "type": "Feature", "properties": { "humidity@500m": 12.293254030954495, "lapserate": 0.0055289357, "timestamp": "20240716T13" }, "geometry": { "type": "Point", "coordinates": [ -79.75, 42.5 ] } },
{ "type": "Feature", "properties": { "humidity@500m": 12.941236625971866, "lapserate": 0.005680507, "timestamp": "20240716T13" }, "geometry": { "type": "Point", "coordinates": [ -79.75, 42.75 ] } },
{ "type": "Feature", "properties": { "humidity@500m": 13.691781112750546, "lapserate": 0.0058248057, "timestamp": "20240716T13" }, "geometry": { "type": "Point", "coordinates": [ -79.75, 43.0 ] } },
{ "type": "Feature", "properties": { "humidity@500m": 13.489639188441855, "lapserate": 0.0058337487, "timestamp": "20240716T13" }, "geometry": { "type": "Point", "coordinates": [ -79.75, 43.25 ] } },
{ "type": "Feature", "properties": { "humidity@500m": 12.403970970833619, "lapserate": 0.0057163327, "timestamp": "20240716T13" }, "geometry": { "type": "Point", "coordinates": [ -79.75, 43.5 ] } },
{ "type": "Feature", "properties": { "humidity@500m": 11.792190692140831, "lapserate": 0.0056328429, "timestamp": "20240716T13" }, "geometry": { "type": "Point", "coordinates": [ -79.75, 43.75 ] } },
{ "type": "Feature", "properties": { "humidity@500m": 12.626125105461758, "lapserate": 0.0056520728, "timestamp": "20240716T13" }, "geometry": { "type": "Point", "coordinates": [ -79.75, 44.0 ] } },
{ "type": "Feature", "properties": { "humidity@500m": 13.145226102158471, "lapserate": 0.0056533576, "timestamp": "20240716T13" }, "geometry": { "type": "Point", "coordinates": [ -79.75, 44.25 ] } },
{ "type": "Feature", "properties": { "humidity@500m": 13.633324441191847, "lapserate": 0.0056312429, "timestamp": "20240716T13" }, "geometry": { "type": "Point", "coordinates": [ -79.75, 44.5 ] } },
{ "type": "Feature", "properties": { "humidity@500m": 13.711018805347271, "lapserate": 0.0056615509, "timestamp": "20240716T13" }, "geometry": { "type": "Point", "coordinates": [ -79.75, 44.75 ] } },
{ "type": "Feature", "properties": { "humidity@500m": 13.553130597279393, "lapserate": 0.0057442305, "timestamp": "20240716T13" }, "geometry": { "type": "Point", "coordinates": [ -79.75, 45.0 ] } },
{ "type": "Feature", "properties": { "humidity@500m": 13.510867824061261, "lapserate": 0.005861301, "timestamp": "20240716T13" }, "geometry": { "type": "Point", "coordinates": [ -79.75, 45.25 ] } },
{ "type": "Feature", "properties": { "humidity@500m": 13.520848716850137, "lapserate": 0.0059153195, "timestamp": "20240716T13" }, "geometry": { "type": "Point", "coordinates": [ -79.75, 45.5 ] } },
{ "type": "Feature", "properties": { "humidity@500m": 13.650804668792443, "lapserate": 0.0058679408, "timestamp": "20240716T13" }, "geometry": { "type": "Point", "coordinates": [ -79.75, 45.75 ] } },
{ "type": "Feature", "properties": { "humidity@500m": 13.575519261514049, "lapserate": 0.0057758419, "timestamp": "20240716T13" }, "geometry": { "type": "Point", "coordinates": [ -79.75, 46.0 ] } },
{ "type": "Feature", "properties": { "humidity@500m": 12.18207048530693, "lapserate": 0.0063602263, "timestamp": "20240716T13" }, "geometry": { "type": "Point", "coordinates": [ -79.5, 41.0 ] } },
{ "type": "Feature", "properties": { "humidity@500m": 12.467625880894143, "lapserate": 0.0061925137, "timestamp": "20240716T13" }, "geometry": { "type": "Point", "coordinates": [ -79.5, 41.25 ] } },
{ "type": "Feature", "properties": { "humidity@500m": 12.629833591663314, "lapserate": 0.0060446509, "timestamp": "20240716T13" }, "geometry": { "type": "Point", "coordinates": [ -79.5, 41.5 ] } },
{ "type": "Feature", "properties": { "humidity@500m": 12.652802495150096, "lapserate": 0.0059858952, "timestamp": "20240716T13" }, "geometry": { "type": "Point", "coordinates": [ -79.5, 41.75 ] } },
{ "type": "Feature", "properties": { "humidity@500m": 12.621242755433412, "lapserate": 0.005958511, "timestamp": "20240716T13" }, "geometry": { "type": "Point", "coordinates": [ -79.5, 42.0 ] } },
{ "type": "Feature", "properties": { "humidity@500m": 12.393140445573442, "lapserate": 0.0059064198, "timestamp": "20240716T13" }, "geometry": { "type": "Point", "coordinates": [ -79.5, 42.25 ] } },
{ "type": "Feature", "properties": { "humidity@500m": 12.280854016331649, "lapserate": 0.0059241871, "timestamp": "20240716T13" }, "geometry": { "type": "Point", "coordinates": [ -79.5, 42.5 ] } },
{ "type": "Feature", "properties": { "humidity@500m": 12.776816765862815, "lapserate": 0.0060210251, "timestamp": "20240716T13" }, "geometry": { "type": "Point", "coordinates": [ -79.5, 42.75 ] } },
{ "type": "Feature", "properties": { "humidity@500m": 13.464397354279855, "lapserate": 0.0060862415, "timestamp": "20240716T13" }, "geometry": { "type": "Point", "coordinates": [ -79.5, 43.0 ] } },
{ "type": "Feature", "properties": { "humidity@500m": 13.311281574586692, "lapserate": 0.0060383566, "timestamp": "20240716T13" }, "geometry": { "type": "Point", "coordinates": [ -79.5, 43.25 ] } },
{ "type": "Feature", "properties": { "humidity@500m": 12.458001508368705, "lapserate": 0.0059261341, "timestamp": "20240716T13" }, "geometry": { "type": "Point", "coordinates": [ -79.5, 43.5 ] } },
{ "type": "Feature", "properties": { "humidity@500m": 11.755390922133724, "lapserate": 0.0058625396, "timestamp": "20240716T13" }, "geometry": { "type": "Point", "coordinates": [ -79.5, 43.75 ] } },
{ "type": "Feature", "properties": { "humidity@500m": 12.340565433699906, "lapserate": 0.005849171, "timestamp": "20240716T13" }, "geometry": { "type": "Point", "coordinates": [ -79.5, 44.0 ] } },
{ "type": "Feature", "properties": { "humidity@500m": 13.167474414700791, "lapserate": 0.0058089849, "timestamp": "20240716T13" }, "geometry": { "type": "Point", "coordinates": [ -79.5, 44.25 ] } },
{ "type": "Feature", "properties": { "humidity@500m": 13.527158584833565, "lapserate": 0.005741219, "timestamp": "20240716T13" }, "geometry": { "type": "Point", "coordinates": [ -79.5, 44.5 ] } },
{ "type": "Feature", "properties": { "humidity@500m": 13.707650368577092, "lapserate": 0.0056944853, "timestamp": "20240716T13" }, "geometry": { "type": "Point", "coordinates": [ -79.5, 44.75 ] } },
{ "type": "Feature", "properties": { "humidity@500m": 13.61215928986349, "lapserate": 0.0057224897, "timestamp": "20240716T13" }, "geometry": { "type": "Point", "coordinates": [ -79.5, 45.0 ] } },
{ "type": "Feature", "properties": { "humidity@500m": 13.517154545557846, "lapserate": 0.0058378549, "timestamp": "20240716T13" }, "geometry": { "type": "Point", "coordinates": [ -79.5, 45.25 ] } },
{ "type": "Feature", "properties": { "humidity@500m": 13.529815806252572, "lapserate": 0.0059219669, "timestamp": "20240716T13" }, "geometry": { "type": "Point", "coordinates": [ -79.5, 45.5 ] } },
{ "type": "Feature", "properties": { "humidity@500m": 13.562784860830563, "lapserate": 0.0058945166, "timestamp": "20240716T13" }, "geometry": { "type": "Point", "coordinates": [ -79.5, 45.75 ] } },
{ "type": "Feature", "properties": { "humidity@500m": 13.509591311447794, "lapserate": 0.0058023627, "timestamp": "20240716T13" }, "geometry": { "type": "Point", "coordinates": [ -79.5, 46.0 ] } },
{ "type": "Feature", "properties": { "humidity@500m": 12.013783716242528, "lapserate": 0.0065743928, "timestamp": "20240716T13" }, "geometry": { "type": "Point", "coordinates": [ -79.25, 41.0 ] } },
{ "type": "Feature", "properties": { "humidity@500m": 12.442806403826715, "lapserate": 0.0064516384, "timestamp": "20240716T13" }, "geometry": { "type": "Point", "coordinates": [ -79.25, 41.25 ] } },
{ "type": "Feature", "properties": { "humidity@500m": 12.627243165028892, "lapserate": 0.006334519, "timestamp": "20240716T13" }, "geometry": { "type": "Point", "coordinates": [ -79.25, 41.5 ] } },
{ "type": "Feature", "properties": { "humidity@500m": 12.634862621759542, "lapserate": 0.0062587205, "timestamp": "20240716T13" }, "geometry": { "type": "Point", "coordinates": [ -79.25, 41.75 ] } },
{ "type": "Feature", "properties": { "humidity@500m": 12.593276521094268, "lapserate": 0.0062268232, "timestamp": "20240716T13" }, "geometry": { "type": "Point", "coordinates": [ -79.25, 42.0 ] } },
{ "type": "Feature", "properties": { "humidity@500m": 12.3380381942209, "lapserate": 0.006237729, "timestamp": "20240716T13" }, "geometry": { "type": "Point", "coordinates": [ -79.25, 42.25 ] } },
{ "type": "Feature", "properties": { "humidity@500m": 12.310226577409043, "lapserate": 0.0062850732, "timestamp": "20240716T13" }, "geometry": { "type": "Point", "coordinates": [ -79.25, 42.5 ] } },
{ "type": "Feature", "properties": { "humidity@500m": 12.794802635073408, "lapserate": 0.006342907, "timestamp": "20240716T13" }, "geometry": { "type": "Point", "coordinates": [ -79.25, 42.75 ] } },
{ "type": "Feature", "properties": { "humidity@500m": 13.407914676379834, "lapserate": 0.0063415803, "timestamp": "20240716T13" }, "geometry": { "type": "Point", "coordinates": [ -79.25, 43.0 ] } },
{ "type": "Feature", "properties": { "humidity@500m": 13.255296325717911, "lapserate": 0.0062289843, "timestamp": "20240716T13" }, "geometry": { "type": "Point", "coordinates": [ -79.25, 43.25 ] } },
{ "type": "Feature", "properties": { "humidity@500m": 12.558491783299695, "lapserate": 0.0060951472, "timestamp": "20240716T13" }, "geometry": { "type": "Point", "coordinates": [ -79.25, 43.5 ] } },
{ "type": "Feature", "properties": { "humidity@500m": 11.845409153984736, "lapserate": 0.0060244552, "timestamp": "20240716T13" }, "geometry": { "type": "Point", "coordinates": [ -79.25, 43.75 ] } },
{ "type": "Feature", "properties": { "humidity@500m": 12.021844162138686, "lapserate": 0.0059819794, "timestamp": "20240716T13" }, "geometry": { "type": "Point", "coordinates": [ -79.25, 44.0 ] } },
{ "type": "Feature", "properties": { "humidity@500m": 12.835289295121504, "lapserate": 0.0059153028, "timestamp": "20240716T13" }, "geometry": { "type": "Point", "coordinates": [ -79.25, 44.25 ] } },
{ "type": "Feature", "properties": { "humidity@500m": 13.244962529238213, "lapserate": 0.0058064312, "timestamp": "20240716T13" }, "geometry": { "type": "Point", "coordinates": [ -79.25, 44.5 ] } },
{ "type": "Feature", "properties": { "humidity@500m": 13.550598818512764, "lapserate": 0.0056993999, "timestamp": "20240716T13" }, "geometry": { "type": "Point", "coordinates": [ -79.25, 44.75 ] } },
{ "type": "Feature", "properties": { "humidity@500m": 13.513061282880848, "lapserate": 0.0056943414, "timestamp": "20240716T13" }, "geometry": { "type": "Point", "coordinates": [ -79.25, 45.0 ] } },
{ "type": "Feature", "properties": { "humidity@500m": 13.445156277797098, "lapserate": 0.0058195405, "timestamp": "20240716T13" }, "geometry": { "type": "Point", "coordinates": [ -79.25, 45.25 ] } },
{ "type": "Feature", "properties": { "humidity@500m": 13.516247339496809, "lapserate": 0.0059441142, "timestamp": "20240716T13" }, "geometry": { "type": "Point", "coordinates": [ -79.25, 45.5 ] } },
{ "type": "Feature", "properties": { "humidity@500m": 13.414234576997965, "lapserate": 0.0059448103, "timestamp": "20240716T13" }, "geometry": { "type": "Point", "coordinates": [ -79.25, 45.75 ] } },
{ "type": "Feature", "properties": { "humidity@500m": 13.34011977005332, "lapserate": 0.0058568385, "timestamp": "20240716T13" }, "geometry": { "type": "Point", "coordinates": [ -79.25, 46.0 ] } },
{ "type": "Feature", "properties": { "humidity@500m": 12.075905867379221, "lapserate": 0.0067220759, "timestamp": "20240716T13" }, "geometry": { "type": "Point", "coordinates": [ -79.0, 41.0 ] } },
{ "type": "Feature", "properties": { "humidity@500m": 12.421963992174732, "lapserate": 0.0066492539, "timestamp": "20240716T13" }, "geometry": { "type": "Point", "coordinates": [ -79.0, 41.25 ] } },
{ "type": "Feature", "properties": { "humidity@500m": 12.627766495747986, "lapserate": 0.0065716207, "timestamp": "20240716T13" }, "geometry": { "type": "Point", "coordinates": [ -79.0, 41.5 ] } },
{ "type": "Feature", "properties": { "humidity@500m": 12.632316179176048, "lapserate": 0.0065119429, "timestamp": "20240716T13" }, "geometry": { "type": "Point", "coordinates": [ -79.0, 41.75 ] } },
{ "type": "Feature", "properties": { "humidity@500m": 12.613740777806436, "lapserate": 0.0064957812, "timestamp": "20240716T13" }, "geometry": { "type": "Point", "coordinates": [ -79.0, 42.0 ] } },
{ "type": "Feature", "properties": { "humidity@500m": 12.463452791872834, "lapserate": 0.0065350616, "timestamp": "20240716T13" }, "geometry": { "type": "Point", "coordinates": [ -79.0, 42.25 ] } },
{ "type": "Feature", "properties": { "humidity@500m": 12.53226257344398, "lapserate": 0.0065782545, "timestamp": "20240716T13" }, "geometry": { "type": "Point", "coordinates": [ -79.0, 42.5 ] } },
{ "type": "Feature", "properties": { "humidity@500m": 12.885529630483992, "lapserate": 0.0066024251, "timestamp": "20240716T13" }, "geometry": { "type": "Point", "coordinates": [ -79.0, 42.75 ] } },
{ "type": "Feature", "properties": { "humidity@500m": 13.466447335860797, "lapserate": 0.0065494138, "timestamp": "20240716T13" }, "geometry": { "type": "Point", "coordinates": [ -79.0, 43.0 ] } },
{ "type": "Feature", "properties": { "humidity@500m": 13.296555466058482, "lapserate": 0.0063688108, "timestamp": "20240716T13" }, "geometry": { "type": "Point", "coordinates": [ -79.0, 43.25 ] } },
{ "type": "Feature", "properties": { "humidity@500m": 12.597441516064674, "lapserate": 0.0061822962, "timestamp": "20240716T13" }, "geometry": { "type": "Point", "coordinates": [ -79.0, 43.5 ] } },
{ "type": "Feature", "properties": { "humidity@500m": 11.939401352917839, "lapserate": 0.0060784495, "timestamp": "20240716T13" }, "geometry": { "type": "Point", "coordinates": [ -79.0, 43.75 ] } },
{ "type": "Feature", "properties": { "humidity@500m": 11.826327258989979, "lapserate": 0.0060156235, "timestamp": "20240716T13" }, "geometry": { "type": "Point", "coordinates": [ -79.0, 44.0 ] } },
{ "type": "Feature", "properties": { "humidity@500m": 12.616603058872863, "lapserate": 0.0059414436, "timestamp": "20240716T13" }, "geometry": { "type": "Point", "coordinates": [ -79.0, 44.25 ] } },
{ "type": "Feature", "properties": { "humidity@500m": 13.076958236274942, "lapserate": 0.0058252774, "timestamp": "20240716T13" }, "geometry": { "type": "Point", "coordinates": [ -79.0, 44.5 ] } },
{ "type": "Feature", "properties": { "humidity@500m": 13.387215781596508, "lapserate": 0.0057153022, "timestamp": "20240716T13" }, "geometry": { "type": "Point", "coordinates": [ -79.0, 44.75 ] } },
{ "type": "Feature", "properties": { "humidity@500m": 13.455362193891776, "lapserate": 0.0057063894, "timestamp": "20240716T13" }, "geometry": { "type": "Point", "coordinates": [ -79.0, 45.0 ] } },
{ "type": "Feature", "properties": { "humidity@500m": 13.470080471274233, "lapserate": 0.0058274101, "timestamp": "20240716T13" }, "geometry": { "type": "Point", "coordinates": [ -79.0, 45.25 ] } },
{ "type": "Feature", "properties": { "humidity@500m": 13.380243766566192, "lapserate": 0.0059719542, "timestamp": "20240716T13" }, "geometry": { "type": "Point", "coordinates": [ -79.0, 45.5 ] } },
{ "type": "Feature", "properties": { "humidity@500m": 13.299894156680271, "lapserate": 0.00600152, "timestamp": "20240716T13" }, "geometry": { "type": "Point", "coordinates": [ -79.0, 45.75 ] } },
{ "type": "Feature", "properties": { "humidity@500m": 13.19237922413992, "lapserate": 0.0059315013, "timestamp": "20240716T13" }, "geometry": { "type": "Point", "coordinates": [ -79.0, 46.0 ] } },
{ "type": "Feature", "properties": { "humidity@500m": 12.094535273425549, "lapserate": 0.0067661796, "timestamp": "20240716T13" }, "geometry": { "type": "Point", "coordinates": [ -78.75, 41.0 ] } },
{ "type": "Feature", "properties": { "humidity@500m": 12.485985782587147, "lapserate": 0.0067430874, "timestamp": "20240716T13" }, "geometry": { "type": "Point", "coordinates": [ -78.75, 41.25 ] } },
{ "type": "Feature", "properties": { "humidity@500m": 12.640977434727755, "lapserate": 0.0067077028, "timestamp": "20240716T13" }, "geometry": { "type": "Point", "coordinates": [ -78.75, 41.5 ] } },
{ "type": "Feature", "properties": { "humidity@500m": 12.665199508055867, "lapserate": 0.0066832476, "timestamp": "20240716T13" }, "geometry": { "type": "Point", "coordinates": [ -78.75, 41.75 ] } },
{ "type": "Feature", "properties": { "humidity@500m": 12.670735634878678, "lapserate": 0.0066969339, "timestamp": "20240716T13" }, "geometry": { "type": "Point", "coordinates": [ -78.75, 42.0 ] } },
{ "type": "Feature", "properties": { "humidity@500m": 12.654934568270223, "lapserate": 0.0067479005, "timestamp": "20240716T13" }, "geometry": { "type": "Point", "coordinates": [ -78.75, 42.25 ] } },
{ "type": "Feature", "properties": { "humidity@500m": 12.785745001548623, "lapserate": 0.0067751566, "timestamp": "20240716T13" }, "geometry": { "type": "Point", "coordinates": [ -78.75, 42.5 ] } },
{ "type": "Feature", "properties": { "humidity@500m": 13.150776919600881, "lapserate": 0.0067626941, "timestamp": "20240716T13" }, "geometry": { "type": "Point", "coordinates": [ -78.75, 42.75 ] } },
{ "type": "Feature", "properties": { "humidity@500m": 13.460579211697295, "lapserate": 0.0066662529, "timestamp": "20240716T13" }, "geometry": { "type": "Point", "coordinates": [ -78.75, 43.0 ] } },
{ "type": "Feature", "properties": { "humidity@500m": 13.26317254067942, "lapserate": 0.0064521986, "timestamp": "20240716T13" }, "geometry": { "type": "Point", "coordinates": [ -78.75, 43.25 ] } },
{ "type": "Feature", "properties": { "humidity@500m": 12.683252803251705, "lapserate": 0.0062368969, "timestamp": "20240716T13" }, "geometry": { "type": "Point", "coordinates": [ -78.75, 43.5 ] } },
{ "type": "Feature", "properties": { "humidity@500m": 12.180932954340971, "lapserate": 0.0060971603, "timestamp": "20240716T13" }, "geometry": { "type": "Point", "coordinates": [ -78.75, 43.75 ] } },
{ "type": "Feature", "properties": { "humidity@500m": 11.841683687386597, "lapserate": 0.0060069235, "timestamp": "20240716T13" }, "geometry": { "type": "Point", "coordinates": [ -78.75, 44.0 ] } },
{ "type": "Feature", "properties": { "humidity@500m": 12.401209139972666, "lapserate": 0.0059217042, "timestamp": "20240716T13" }, "geometry": { "type": "Point", "coordinates": [ -78.75, 44.25 ] } },
{ "type": "Feature", "properties": { "humidity@500m": 12.939099549857428, "lapserate": 0.0058193151, "timestamp": "20240716T13" }, "geometry": { "type": "Point", "coordinates": [ -78.75, 44.5 ] } },
{ "type": "Feature", "properties": { "humidity@500m": 13.206468257431025, "lapserate": 0.0057431585, "timestamp": "20240716T13" }, "geometry": { "type": "Point", "coordinates": [ -78.75, 44.75 ] } },
{ "type": "Feature", "properties": { "humidity@500m": 13.381654266771529, "lapserate": 0.0057478957, "timestamp": "20240716T13" }, "geometry": { "type": "Point", "coordinates": [ -78.75, 45.0 ] } },
{ "type": "Feature", "properties": { "humidity@500m": 13.384234140577277, "lapserate": 0.005858398, "timestamp": "20240716T13" }, "geometry": { "type": "Point", "coordinates": [ -78.75, 45.25 ] } },
{ "type": "Feature", "properties": { "humidity@500m": 13.273036596288843, "lapserate": 0.0060031512, "timestamp": "20240716T13" }, "geometry": { "type": "Point", "coordinates": [ -78.75, 45.5 ] } },
{ "type": "Feature", "properties": { "humidity@500m": 13.195494598074216, "lapserate": 0.00604526, "timestamp": "20240716T13" }, "geometry": { "type": "Point", "coordinates": [ -78.75, 45.75 ] } },
{ "type": "Feature", "properties": { "humidity@500m": 13.107514765114805, "lapserate": 0.0059895166, "timestamp": "20240716T13" }, "geometry": { "type": "Point", "coordinates": [ -78.75, 46.0 ] } },
{ "type": "Feature", "properties": { "humidity@500m": 12.286885533700749, "lapserate": 0.0067036632, "timestamp": "20240716T13" }, "geometry": { "type": "Point", "coordinates": [ -78.5, 41.0 ] } },
{ "type": "Feature", "properties": { "humidity@500m": 12.517671970365981, "lapserate": 0.0067201541, "timestamp": "20240716T13" }, "geometry": { "type": "Point", "coordinates": [ -78.5, 41.25 ] } },
{ "type": "Feature", "properties": { "humidity@500m": 12.638113096707787, "lapserate": 0.006721938, "timestamp": "20240716T13" }, "geometry": { "type": "Point", "coordinates": [ -78.5, 41.5 ] } },
{ "type": "Feature", "properties": { "humidity@500m": 12.691296623640326, "lapserate": 0.0067262412, "timestamp": "20240716T13" }, "geometry": { "type": "Point", "coordinates": [ -78.5, 41.75 ] } },
{ "type": "Feature", "properties": { "humidity@500m": 12.758691653183256, "lapserate": 0.0067562498, "timestamp": "20240716T13" }, "geometry": { "type": "Point", "coordinates": [ -78.5, 42.0 ] } },
{ "type": "Feature", "properties": { "humidity@500m": 12.84251482502993, "lapserate": 0.0068115089, "timestamp": "20240716T13" }, "geometry": { "type": "Point", "coordinates": [ -78.5, 42.25 ] } },
{ "type": "Feature", "properties": { "humidity@500m": 12.915062900407168, "lapserate": 0.0068314942, "timestamp": "20240716T13" }, "geometry": { "type": "Point", "coordinates": [ -78.5, 42.5 ] } },
{ "type": "Feature", "properties": { "humidity@500m": 13.376096641952746, "lapserate": 0.0067823399, "timestamp": "20240716T13" }, "geometry": { "type": "Point", "coordinates": [ -78.5, 42.75 ] } },
{ "type": "Feature", "properties": { "humidity@500m": 13.433667743741756, "lapserate": 0.006649706, "timestamp": "20240716T13" }, "geometry": { "type": "Point", "coordinates": [ -78.5, 43.0 ] } },
{ "type": "Feature", "properties": { "humidity@500m": 13.230814357133953, "lapserate": 0.0064431159, "timestamp": "20240716T13" }, "geometry": { "type": "Point", "coordinates": [ -78.5, 43.25 ] } },
{ "type": "Feature", "properties": { "humidity@500m": 12.807789000292507, "lapserate": 0.0062417756, "timestamp": "20240716T13" }, "geometry": { "type": "Point", "coordinates": [ -78.5, 43.5 ] } },
{ "type": "Feature", "properties": { "humidity@500m": 12.450608797351478, "lapserate": 0.0060915914, "timestamp": "20240716T13" }, "geometry": { "type": "Point", "coordinates": [ -78.5, 43.75 ] } },
{ "type": "Feature", "properties": { "humidity@500m": 12.304569966315976, "lapserate": 0.005978758, "timestamp": "20240716T13" }, "geometry": { "type": "Point", "coordinates": [ -78.5, 44.0 ] } },
{ "type": "Feature", "properties": { "humidity@500m": 12.519545831441574, "lapserate": 0.0058731697, "timestamp": "20240716T13" }, "geometry": { "type": "Point", "coordinates": [ -78.5, 44.25 ] } },
{ "type": "Feature", "properties": { "humidity@500m": 13.101179149860586, "lapserate": 0.0057777227, "timestamp": "20240716T13" }, "geometry": { "type": "Point", "coordinates": [ -78.5, 44.5 ] } },
{ "type": "Feature", "properties": { "humidity@500m": 13.234867752204359, "lapserate": 0.0057334499, "timestamp": "20240716T13" }, "geometry": { "type": "Point", "coordinates": [ -78.5, 44.75 ] } },
{ "type": "Feature", "properties": { "humidity@500m": 13.328032935769214, "lapserate": 0.005765216, "timestamp": "20240716T13" }, "geometry": { "type": "Point", "coordinates": [ -78.5, 45.0 ] } },
{ "type": "Feature", "properties": { "humidity@500m": 13.35805953297219, "lapserate": 0.0058902414, "timestamp": "20240716T13" }, "geometry": { "type": "Point", "coordinates": [ -78.5, 45.25 ] } },
{ "type": "Feature", "properties": { "humidity@500m": 13.226391653888012, "lapserate": 0.006041653, "timestamp": "20240716T13" }, "geometry": { "type": "Point", "coordinates": [ -78.5, 45.5 ] } },
{ "type": "Feature", "properties": { "humidity@500m": 13.22634939855152, "lapserate": 0.0060898382, "timestamp": "20240716T13" }, "geometry": { "type": "Point", "coordinates": [ -78.5, 45.75 ] } },
{ "type": "Feature", "properties": { "humidity@500m": 13.090924480733049, "lapserate": 0.0060332045, "timestamp": "20240716T13" }, "geometry": { "type": "Point", "coordinates": [ -78.5, 46.0 ] } },
{ "type": "Feature", "properties": { "humidity@500m": 12.278541774133807, "lapserate": 0.0065812324, "timestamp": "20240716T13" }, "geometry": { "type": "Point", "coordinates": [ -78.25, 41.0 ] } },
{ "type": "Feature", "properties": { "humidity@500m": 12.423376992202543, "lapserate": 0.0066164918, "timestamp": "20240716T13" }, "geometry": { "type": "Point", "coordinates": [ -78.25, 41.25 ] } },
{ "type": "Feature", "properties": { "humidity@500m": 12.549269811858856, "lapserate": 0.0066346219, "timestamp": "20240716T13" }, "geometry": { "type": "Point", "coordinates": [ -78.25, 41.5 ] } },
{ "type": "Feature", "properties": { "humidity@500m": 12.660588706105301, "lapserate": 0.0066568679, "timestamp": "20240716T13" }, "geometry": { "type": "Point", "coordinates": [ -78.25, 41.75 ] } },
{ "type": "Feature", "properties": { "humidity@500m": 12.733602949065638, "lapserate": 0.0066971509, "timestamp": "20240716T13" }, "geometry": { "type": "Point", "coordinates": [ -78.25, 42.0 ] } },
{ "type": "Feature", "properties": { "humidity@500m": 12.886691854736233, "lapserate": 0.0067459699, "timestamp": "20240716T13" }, "geometry": { "type": "Point", "coordinates": [ -78.25, 42.25 ] } },
{ "type": "Feature", "properties": { "humidity@500m": 13.060005551650503, "lapserate": 0.0067512472, "timestamp": "20240716T13" }, "geometry": { "type": "Point", "coordinates": [ -78.25, 42.5 ] } },
{ "type": "Feature", "properties": { "humidity@500m": 13.498297282400484, "lapserate": 0.0066707013, "timestamp": "20240716T13" }, "geometry": { "type": "Point", "coordinates": [ -78.25, 42.75 ] } },
{ "type": "Feature", "properties": { "humidity@500m": 13.533725400047153, "lapserate": 0.006513935, "timestamp": "20240716T13" }, "geometry": { "type": "Point", "coordinates": [ -78.25, 43.0 ] } },
{ "type": "Feature", "properties": { "humidity@500m": 13.299629101247312, "lapserate": 0.006324403, "timestamp": "20240716T13" }, "geometry": { "type": "Point", "coordinates": [ -78.25, 43.25 ] } },
{ "type": "Feature", "properties": { "humidity@500m": 12.85015045318832, "lapserate": 0.0061565535, "timestamp": "20240716T13" }, "geometry": { "type": "Point", "coordinates": [ -78.25, 43.5 ] } },
{ "type": "Feature", "properties": { "humidity@500m": 12.751348410164118, "lapserate": 0.0060337307, "timestamp": "20240716T13" }, "geometry": { "type": "Point", "coordinates": [ -78.25, 43.75 ] } },
{ "type": "Feature", "properties": { "humidity@500m": 12.792081337151432, "lapserate": 0.0059286924, "timestamp": "20240716T13" }, "geometry": { "type": "Point", "coordinates": [ -78.25, 44.0 ] } },
{ "type": "Feature", "properties": { "humidity@500m": 12.853217329041255, "lapserate": 0.0058183107, "timestamp": "20240716T13" }, "geometry": { "type": "Point", "coordinates": [ -78.25, 44.25 ] } },
{ "type": "Feature", "properties": { "humidity@500m": 13.338518622820494, "lapserate": 0.0057314988, "timestamp": "20240716T13" }, "geometry": { "type": "Point", "coordinates": [ -78.25, 44.5 ] } },
{ "type": "Feature", "properties": { "humidity@500m": 13.391894492490955, "lapserate": 0.0057098516, "timestamp": "20240716T13" }, "geometry": { "type": "Point", "coordinates": [ -78.25, 44.75 ] } },
{ "type": "Feature", "properties": { "humidity@500m": 13.315335841257278, "lapserate": 0.0057720644, "timestamp": "20240716T13" }, "geometry": { "type": "Point", "coordinates": [ -78.25, 45.0 ] } },
{ "type": "Feature", "properties": { "humidity@500m": 13.368252113681345, "lapserate": 0.0059231366, "timestamp": "20240716T13" }, "geometry": { "type": "Point", "coordinates": [ -78.25, 45.25 ] } },
{ "type": "Feature", "properties": { "humidity@500m": 13.362656530083974, "lapserate": 0.0060832566, "timestamp": "20240716T13" }, "geometry": { "type": "Point", "coordinates": [ -78.25, 45.5 ] } },
{ "type": "Feature", "properties": { "humidity@500m": 13.275666937159091, "lapserate": 0.0061336323, "timestamp": "20240716T13" }, "geometry": { "type": "Point", "coordinates": [ -78.25, 45.75 ] } },
{ "type": "Feature", "properties": { "humidity@500m": 13.175924941565505, "lapserate": 0.0060690013, "timestamp": "20240716T13" }, "geometry": { "type": "Point", "coordinates": [ -78.25, 46.0 ] } },
{ "type": "Feature", "properties": { "humidity@500m": 12.14654073778585, "lapserate": 0.0064384495, "timestamp": "20240716T13" }, "geometry": { "type": "Point", "coordinates": [ -78.0, 41.0 ] } },
{ "type": "Feature", "properties": { "humidity@500m": 12.233920983728327, "lapserate": 0.0064843022, "timestamp": "20240716T13" }, "geometry": { "type": "Point", "coordinates": [ -78.0, 41.25 ] } },
{ "type": "Feature", "properties": { "humidity@500m": 12.495985937454025, "lapserate": 0.0065032998, "timestamp": "20240716T13" }, "geometry": { "type": "Point", "coordinates": [ -78.0, 41.5 ] } },
{ "type": "Feature", "properties": { "humidity@500m": 12.587658042077255, "lapserate": 0.0065451562, "timestamp": "20240716T13" }, "geometry": { "type": "Point", "coordinates": [ -78.0, 41.75 ] } },
{ "type": "Feature", "properties": { "humidity@500m": 12.631446258749101, "lapserate": 0.006601301, "timestamp": "20240716T13" }, "geometry": { "type": "Point", "coordinates": [ -78.0, 42.0 ] } },
{ "type": "Feature", "properties": { "humidity@500m": 12.843799725355398, "lapserate": 0.006625785, "timestamp": "20240716T13" }, "geometry": { "type": "Point", "coordinates": [ -78.0, 42.25 ] } },
{ "type": "Feature", "properties": { "humidity@500m": 13.108400950422226, "lapserate": 0.0065906993, "timestamp": "20240716T13" }, "geometry": { "type": "Point", "coordinates": [ -78.0, 42.5 ] } },
{ "type": "Feature", "properties": { "humidity@500m": 13.543664489611745, "lapserate": 0.0064826808, "timestamp": "20240716T13" }, "geometry": { "type": "Point", "coordinates": [ -78.0, 42.75 ] } },
{ "type": "Feature", "properties": { "humidity@500m": 13.501909159430376, "lapserate": 0.0063189077, "timestamp": "20240716T13" }, "geometry": { "type": "Point", "coordinates": [ -78.0, 43.0 ] } },
{ "type": "Feature", "properties": { "humidity@500m": 13.311565639850114, "lapserate": 0.0061433008, "timestamp": "20240716T13" }, "geometry": { "type": "Point", "coordinates": [ -78.0, 43.25 ] } },
{ "type": "Feature", "properties": { "humidity@500m": 12.961994796296777, "lapserate": 0.0060156188, "timestamp": "20240716T13" }, "geometry": { "type": "Point", "coordinates": [ -78.0, 43.5 ] } },
{ "type": "Feature", "properties": { "humidity@500m": 12.951870749553651, "lapserate": 0.0059437053, "timestamp": "20240716T13" }, "geometry": { "type": "Point", "coordinates": [ -78.0, 43.75 ] } },
{ "type": "Feature", "properties": { "humidity@500m": 13.14758243107457, "lapserate": 0.0058718845, "timestamp": "20240716T13" }, "geometry": { "type": "Point", "coordinates": [ -78.0, 44.0 ] } },
{ "type": "Feature", "properties": { "humidity@500m": 13.456460285144599, "lapserate": 0.0057871393, "timestamp": "20240716T13" }, "geometry": { "type": "Point", "coordinates": [ -78.0, 44.25 ] } },
{ "type": "Feature", "properties": { "humidity@500m": 13.692581404600366, "lapserate": 0.0057312618, "timestamp": "20240716T13" }, "geometry": { "type": "Point", "coordinates": [ -78.0, 44.5 ] } },
{ "type": "Feature", "properties": { "humidity@500m": 13.566685553240919, "lapserate": 0.0057315803, "timestamp": "20240716T13" }, "geometry": { "type": "Point", "coordinates": [ -78.0, 44.75 ] } },
{ "type": "Feature", "properties": { "humidity@500m": 13.439773890419223, "lapserate": 0.0058069741, "timestamp": "20240716T13" }, "geometry": { "type": "Point", "coordinates": [ -78.0, 45.0 ] } },
{ "type": "Feature", "properties": { "humidity@500m": 13.464597375482688, "lapserate": 0.0059595658, "timestamp": "20240716T13" }, "geometry": { "type": "Point", "coordinates": [ -78.0, 45.25 ] } },
{ "type": "Feature", "properties": { "humidity@500m": 13.452599955516366, "lapserate": 0.0061024618, "timestamp": "20240716T13" }, "geometry": { "type": "Point", "coordinates": [ -78.0, 45.5 ] } },
{ "type": "Feature", "properties": { "humidity@500m": 13.335935559616267, "lapserate": 0.006135249, "timestamp": "20240716T13" }, "geometry": { "type": "Point", "coordinates": [ -78.0, 45.75 ] } },
{ "type": "Feature", "properties": { "humidity@500m": 13.215698169057262, "lapserate": 0.0060614389, "timestamp": "20240716T13" }, "geometry": { "type": "Point", "coordinates": [ -78.0, 46.0 ] } },
{ "type": "Feature", "properties": { "humidity@500m": 12.024337976689297, "lapserate": 0.0062711551, "timestamp": "20240716T13" }, "geometry": { "type": "Point", "coordinates": [ -77.75, 41.0 ] } },
{ "type": "Feature", "properties": { "humidity@500m": 12.144065382177221, "lapserate": 0.0063373661, "timestamp": "20240716T13" }, "geometry": { "type": "Point", "coordinates": [ -77.75, 41.25 ] } },
{ "type": "Feature", "properties": { "humidity@500m": 12.376334032655144, "lapserate": 0.0063753882, "timestamp": "20240716T13" }, "geometry": { "type": "Point", "coordinates": [ -77.75, 41.5 ] } },
{ "type": "Feature", "properties": { "humidity@500m": 12.456179053112248, "lapserate": 0.006440415, "timestamp": "20240716T13" }, "geometry": { "type": "Point", "coordinates": [ -77.75, 41.75 ] } },
{ "type": "Feature", "properties": { "humidity@500m": 12.46105783801625, "lapserate": 0.0065026339, "timestamp": "20240716T13" }, "geometry": { "type": "Point", "coordinates": [ -77.75, 42.0 ] } },
{ "type": "Feature", "properties": { "humidity@500m": 12.770898503386022, "lapserate": 0.0064938059, "timestamp": "20240716T13" }, "geometry": { "type": "Point", "coordinates": [ -77.75, 42.25 ] } },
{ "type": "Feature", "properties": { "humidity@500m": 13.24110224383165, "lapserate": 0.0064096716, "timestamp": "20240716T13" }, "geometry": { "type": "Point", "coordinates": [ -77.75, 42.5 ] } },
{ "type": "Feature", "properties": { "humidity@500m": 13.570125397336675, "lapserate": 0.0062740613, "timestamp": "20240716T13" }, "geometry": { "type": "Point", "coordinates": [ -77.75, 42.75 ] } },
{ "type": "Feature", "properties": { "humidity@500m": 13.509948273839328, "lapserate": 0.006107551, "timestamp": "20240716T13" }, "geometry": { "type": "Point", "coordinates": [ -77.75, 43.0 ] } },
{ "type": "Feature", "properties": { "humidity@500m": 13.301787216597893, "lapserate": 0.0059493151, "timestamp": "20240716T13" }, "geometry": { "type": "Point", "coordinates": [ -77.75, 43.25 ] } },
{ "type": "Feature", "properties": { "humidity@500m": 12.95171518104822, "lapserate": 0.0058628875, "timestamp": "20240716T13" }, "geometry": { "type": "Point", "coordinates": [ -77.75, 43.5 ] } },
{ "type": "Feature", "properties": { "humidity@500m": 12.986608895765588, "lapserate": 0.0058317431, "timestamp": "20240716T13" }, "geometry": { "type": "Point", "coordinates": [ -77.75, 43.75 ] } },
{ "type": "Feature", "properties": { "humidity@500m": 13.34243189560417, "lapserate": 0.0057917237, "timestamp": "20240716T13" }, "geometry": { "type": "Point", "coordinates": [ -77.75, 44.0 ] } },
{ "type": "Feature", "properties": { "humidity@500m": 13.900352257848379, "lapserate": 0.0057556797, "timestamp": "20240716T13" }, "geometry": { "type": "Point", "coordinates": [ -77.75, 44.25 ] } },
{ "type": "Feature", "properties": { "humidity@500m": 13.856599671047896, "lapserate": 0.0057539186, "timestamp": "20240716T13" }, "geometry": { "type": "Point", "coordinates": [ -77.75, 44.5 ] } },
{ "type": "Feature", "properties": { "humidity@500m": 13.793635330356771, "lapserate": 0.005774531, "timestamp": "20240716T13" }, "geometry": { "type": "Point", "coordinates": [ -77.75, 44.75 ] } },
{ "type": "Feature", "properties": { "humidity@500m": 13.67714100708867, "lapserate": 0.005842363, "timestamp": "20240716T13" }, "geometry": { "type": "Point", "coordinates": [ -77.75, 45.0 ] } },
{ "type": "Feature", "properties": { "humidity@500m": 13.624565067158418, "lapserate": 0.0059760851, "timestamp": "20240716T13" }, "geometry": { "type": "Point", "coordinates": [ -77.75, 45.25 ] } },
{ "type": "Feature", "properties": { "humidity@500m": 13.548734958107739, "lapserate": 0.0060910694, "timestamp": "20240716T13" }, "geometry": { "type": "Point", "coordinates": [ -77.75, 45.5 ] } },
{ "type": "Feature", "properties": { "humidity@500m": 13.470965482636828, "lapserate": 0.0060922136, "timestamp": "20240716T13" }, "geometry": { "type": "Point", "coordinates": [ -77.75, 45.75 ] } },
{ "type": "Feature", "properties": { "humidity@500m": 13.406423185720334, "lapserate": 0.0060072546, "timestamp": "20240716T13" }, "geometry": { "type": "Point", "coordinates": [ -77.75, 46.0 ] } },
{ "type": "Feature", "properties": { "humidity@500m": 12.064218172541608, "lapserate": 0.0060938857, "timestamp": "20240716T13" }, "geometry": { "type": "Point", "coordinates": [ -77.5, 41.0 ] } },
{ "type": "Feature", "properties": { "humidity@500m": 12.260883637930325, "lapserate": 0.0061755013, "timestamp": "20240716T13" }, "geometry": { "type": "Point", "coordinates": [ -77.5, 41.25 ] } },
{ "type": "Feature", "properties": { "humidity@500m": 12.342530363543325, "lapserate": 0.0062601431, "timestamp": "20240716T13" }, "geometry": { "type": "Point", "coordinates": [ -77.5, 41.5 ] } },
{ "type": "Feature", "properties": { "humidity@500m": 12.467349435764854, "lapserate": 0.0063488046, "timestamp": "20240716T13" }, "geometry": { "type": "Point", "coordinates": [ -77.5, 41.75 ] } },
{ "type": "Feature", "properties": { "humidity@500m": 12.53810599100315, "lapserate": 0.0063955351, "timestamp": "20240716T13" }, "geometry": { "type": "Point", "coordinates": [ -77.5, 42.0 ] } },
{ "type": "Feature", "properties": { "humidity@500m": 12.825338702530656, "lapserate": 0.0063574021, "timestamp": "20240716T13" }, "geometry": { "type": "Point", "coordinates": [ -77.5, 42.25 ] } },
{ "type": "Feature", "properties": { "humidity@500m": 13.291869448584173, "lapserate": 0.0062429695, "timestamp": "20240716T13" }, "geometry": { "type": "Point", "coordinates": [ -77.5, 42.5 ] } },
{ "type": "Feature", "properties": { "humidity@500m": 13.696561718100208, "lapserate": 0.0060828906, "timestamp": "20240716T13" }, "geometry": { "type": "Point", "coordinates": [ -77.5, 42.75 ] } },
{ "type": "Feature", "properties": { "humidity@500m": 13.640364648306972, "lapserate": 0.0059093814, "timestamp": "20240716T13" }, "geometry": { "type": "Point", "coordinates": [ -77.5, 43.0 ] } },
{ "type": "Feature", "properties": { "humidity@500m": 13.184500513960568, "lapserate": 0.0057654032, "timestamp": "20240716T13" }, "geometry": { "type": "Point", "coordinates": [ -77.5, 43.25 ] } },
{ "type": "Feature", "properties": { "humidity@500m": 12.803799930702906, "lapserate": 0.00570426, "timestamp": "20240716T13" }, "geometry": { "type": "Point", "coordinates": [ -77.5, 43.5 ] } },
{ "type": "Feature", "properties": { "humidity@500m": 12.942654537174059, "lapserate": 0.0056880703, "timestamp": "20240716T13" }, "geometry": { "type": "Point", "coordinates": [ -77.5, 43.75 ] } },
{ "type": "Feature", "properties": { "humidity@500m": 13.378370612289533, "lapserate": 0.0056765447, "timestamp": "20240716T13" }, "geometry": { "type": "Point", "coordinates": [ -77.5, 44.0 ] } },
{ "type": "Feature", "properties": { "humidity@500m": 14.187379575207542, "lapserate": 0.0056979628, "timestamp": "20240716T13" }, "geometry": { "type": "Point", "coordinates": [ -77.5, 44.25 ] } },
{ "type": "Feature", "properties": { "humidity@500m": 14.005232776137781, "lapserate": 0.0057446808, "timestamp": "20240716T13" }, "geometry": { "type": "Point", "coordinates": [ -77.5, 44.5 ] } },
{ "type": "Feature", "properties": { "humidity@500m": 13.958683262275004, "lapserate": 0.0057796012, "timestamp": "20240716T13" }, "geometry": { "type": "Point", "coordinates": [ -77.5, 44.75 ] } },
{ "type": "Feature", "properties": { "humidity@500m": 13.922257020152673, "lapserate": 0.005839088, "timestamp": "20240716T13" }, "geometry": { "type": "Point", "coordinates": [ -77.5, 45.0 ] } },
{ "type": "Feature", "properties": { "humidity@500m": 13.830063771935214, "lapserate": 0.0059616636, "timestamp": "20240716T13" }, "geometry": { "type": "Point", "coordinates": [ -77.5, 45.25 ] } },
{ "type": "Feature", "properties": { "humidity@500m": 13.792213112797304, "lapserate": 0.006063682, "timestamp": "20240716T13" }, "geometry": { "type": "Point", "coordinates": [ -77.5, 45.5 ] } },
{ "type": "Feature", "properties": { "humidity@500m": 13.852926010591416, "lapserate": 0.0060494752, "timestamp": "20240716T13" }, "geometry": { "type": "Point", "coordinates": [ -77.5, 45.75 ] } },
{ "type": "Feature", "properties": { "humidity@500m": 13.708548194358421, "lapserate": 0.005959827, "timestamp": "20240716T13" }, "geometry": { "type": "Point", "coordinates": [ -77.5, 46.0 ] } },
{ "type": "Feature", "properties": { "humidity@500m": 12.449717198651625, "lapserate": 0.00596357, "timestamp": "20240716T13" }, "geometry": { "type": "Point", "coordinates": [ -77.25, 41.0 ] } },
{ "type": "Feature", "properties": { "humidity@500m": 12.719880460480931, "lapserate": 0.0060307193, "timestamp": "20240716T13" }, "geometry": { "type": "Point", "coordinates": [ -77.25, 41.25 ] } },
{ "type": "Feature", "properties": { "humidity@500m": 12.410888845460994, "lapserate": 0.0061539467, "timestamp": "20240716T13" }, "geometry": { "type": "Point", "coordinates": [ -77.25, 41.5 ] } },
{ "type": "Feature", "properties": { "humidity@500m": 12.492651385280091, "lapserate": 0.0062668761, "timestamp": "20240716T13" }, "geometry": { "type": "Point", "coordinates": [ -77.25, 41.75 ] } },
{ "type": "Feature", "properties": { "humidity@500m": 12.623280263936175, "lapserate": 0.0062889978, "timestamp": "20240716T13" }, "geometry": { "type": "Point", "coordinates": [ -77.25, 42.0 ] } },
{ "type": "Feature", "properties": { "humidity@500m": 12.934329627320032, "lapserate": 0.0062228944, "timestamp": "20240716T13" }, "geometry": { "type": "Point", "coordinates": [ -77.25, 42.25 ] } },
{ "type": "Feature", "properties": { "humidity@500m": 13.463200515699933, "lapserate": 0.0060884892, "timestamp": "20240716T13" }, "geometry": { "type": "Point", "coordinates": [ -77.25, 42.5 ] } },
{ "type": "Feature", "properties": { "humidity@500m": 13.805911365155657, "lapserate": 0.0059142518, "timestamp": "20240716T13" }, "geometry": { "type": "Point", "coordinates": [ -77.25, 42.75 ] } },
{ "type": "Feature", "properties": { "humidity@500m": 13.569494973783248, "lapserate": 0.0057419799, "timestamp": "20240716T13" }, "geometry": { "type": "Point", "coordinates": [ -77.25, 43.0 ] } },
{ "type": "Feature", "properties": { "humidity@500m": 13.009519535499129, "lapserate": 0.0056096381, "timestamp": "20240716T13" }, "geometry": { "type": "Point", "coordinates": [ -77.25, 43.25 ] } },
{ "type": "Feature", "properties": { "humidity@500m": 12.575658772319382, "lapserate": 0.0055479896, "timestamp": "20240716T13" }, "geometry": { "type": "Point", "coordinates": [ -77.25, 43.5 ] } },
{ "type": "Feature", "properties": { "humidity@500m": 12.755370482520958, "lapserate": 0.0055319094, "timestamp": "20240716T13" }, "geometry": { "type": "Point", "coordinates": [ -77.25, 43.75 ] } },
{ "type": "Feature", "properties": { "humidity@500m": 13.335350075950062, "lapserate": 0.0055524828, "timestamp": "20240716T13" }, "geometry": { "type": "Point", "coordinates": [ -77.25, 44.0 ] } },
{ "type": "Feature", "properties": { "humidity@500m": 14.405318568029648, "lapserate": 0.0056168917, "timestamp": "20240716T13" }, "geometry": { "type": "Point", "coordinates": [ -77.25, 44.25 ] } },
{ "type": "Feature", "properties": { "humidity@500m": 14.209889100341289, "lapserate": 0.0056894794, "timestamp": "20240716T13" }, "geometry": { "type": "Point", "coordinates": [ -77.25, 44.5 ] } },
{ "type": "Feature", "properties": { "humidity@500m": 14.250442984211761, "lapserate": 0.0057372041, "timestamp": "20240716T13" }, "geometry": { "type": "Point", "coordinates": [ -77.25, 44.75 ] } },
{ "type": "Feature", "properties": { "humidity@500m": 14.141621620266275, "lapserate": 0.0058021178, "timestamp": "20240716T13" }, "geometry": { "type": "Point", "coordinates": [ -77.25, 45.0 ] } },
{ "type": "Feature", "properties": { "humidity@500m": 14.110135847794036, "lapserate": 0.0059209014, "timestamp": "20240716T13" }, "geometry": { "type": "Point", "coordinates": [ -77.25, 45.25 ] } },
{ "type": "Feature", "properties": { "humidity@500m": 14.227439648334128, "lapserate": 0.006017115, "timestamp": "20240716T13" }, "geometry": { "type": "Point", "coordinates": [ -77.25, 45.5 ] } },
{ "type": "Feature", "properties": { "humidity@500m": 14.213660642821859, "lapserate": 0.0060084625, "timestamp": "20240716T13" }, "geometry": { "type": "Point", "coordinates": [ -77.25, 45.75 ] } },
{ "type": "Feature", "properties": { "humidity@500m": 13.985431973538773, "lapserate": 0.0059328494, "timestamp": "20240716T13" }, "geometry": { "type": "Point", "coordinates": [ -77.25, 46.0 ] } }
]
}
