{
"type": "FeatureCollection",
"name": "geojson_q500m_points_20240716T14",
"crs": { "type": "name", "properties": { "name": "urn:ogc:def:crs:OGC:1.3:CRS84" } },
"features": [
{ "type": "Feature", "properties": { "humidity@500m": 12.815750225458634, "lapserate": 0.0053722877, "timestamp": "20240716T14" }, "geometry": { "type": "Point", "coordinates": [ -82.25, 41.0 ] } },
{ "type": "Feature", "properties": { "humidity@500m": 12.673968377969581, "lapserate": 0.0052408562, "timestamp": "20240716T14" }, "geometry": { "type": "Point", "coordinates": [ -82.25, 41.25 ] } },
{ "type": "Feature", "properties": { "humidity@500m": 12.663376769696482, "lapserate": 0.0051534139, "timestamp": "20240716T14" }, "geometry": { "type": "Point", "coordinates": [ -82.25, 41.5 ] } },
{ "type": "Feature", "properties": { "humidity@500m": 12.518668864776718, "lapserate": 0.0051154895, "timestamp": "20240716T14" }, "geometry": { "type": "Point", "coordinates": [ -82.25, 41.75 ] } },
{ "type": "Feature", "properties": { "humidity@500m": 11.616601695676879, "lapserate": 0.0051296242, "timestamp": "20240716T14" }, "geometry": { "type": "Point", "coordinates": [ -82.25, 42.0 ] } },
{ "type": "Feature", "properties": { "humidity@500m": 11.251162067329728, "lapserate": 0.0051378161, "timestamp": "20240716T14" }, "geometry": { "type": "Point", "coordinates": [ -82.25, 42.25 ] } },
{ "type": "Feature", "properties": { "humidity@500m": 10.747865063590273, "lapserate": 0.005096178, "timestamp": "20240716T14" }, "geometry": { "type": "Point", "coordinates": [ -82.25, 42.5 ] } },
{ "type": "Feature", "properties": { "humidity@500m": 10.248831014837945, "lapserate": 0.0050377897, "timestamp": "20240716T14" }, "geometry": { "type": "Point", "coordinates": [ -82.25, 42.75 ] } },
{ "type": "Feature", "properties": { "humidity@500m": 10.131258035335605, "lapserate": 0.0050079715, "timestamp": "20240716T14" }, "geometry": { "type": "Point", "coordinates": [ -82.25, 43.0 ] } },
{ "type": "Feature", "properties": { "humidity@500m": 10.728946163763446, "lapserate": 0.0050283638, "timestamp": "20240716T14" }, "geometry": { "type": "Point", "coordinates": [ -82.25, 43.25 ] } },
{ "type": "Feature", "properties": { "humidity@500m": 11.912818902247292, "lapserate": 0.0051104301, "timestamp": "20240716T14" }, "geometry": { "type": "Point", "coordinates": [ -82.25, 43.5 ] } },
{ "type": "Feature", "properties": { "humidity@500m": 13.649114756487668, "lapserate": 0.0052352641, "timestamp": "20240716T14" }, "geometry": { "type": "Point", "coordinates": [ -82.25, 43.75 ] } },
{ "type": "Feature", "properties": { "humidity@500m": 14.27526574287805, "lapserate": 0.0053768535, "timestamp": "20240716T14" }, "geometry": { "type": "Point", "coordinates": [ -82.25, 44.0 ] } },
{ "type": "Feature", "properties": { "humidity@500m": 14.263422695844387, "lapserate": 0.0055615506, "timestamp": "20240716T14" }, "geometry": { "type": "Point", "coordinates": [ -82.25, 44.25 ] } },
{ "type": "Feature", "properties": { "humidity@500m": 13.706944127015747, "lapserate": 0.0057172305, "timestamp": "20240716T14" }, "geometry": { "type": "Point", "coordinates": [ -82.25, 44.5 ] } },
{ "type": "Feature", "properties": { "humidity@500m": 13.20377635347571, "lapserate": 0.0057993643, "timestamp": "20240716T14" }, "geometry": { "type": "Point", "coordinates": [ -82.25, 44.75 ] } },
{ "type": "Feature", "properties": { "humidity@500m": 13.243001329952602, "lapserate": 0.0058839335, "timestamp": "20240716T14" }, "geometry": { "type": "Point", "coordinates": [ -82.25, 45.0 ] } },
{ "type": "Feature", "properties": { "humidity@500m": 13.450754384052187, "lapserate": 0.0058682244, "timestamp": "20240716T14" }, "geometry": { "type": "Point", "coordinates": [ -82.25, 45.25 ] } },
{ "type": "Feature", "properties": { "humidity@500m": 13.263201812320903, "lapserate": 0.0057963217, "timestamp": "20240716T14" }, "geometry": { "type": "Point", "coordinates": [ -82.25, 45.5 ] } },
{ "type": "Feature", "properties": { "humidity@500m": 13.015240620531936, "lapserate": 0.0057797907, "timestamp": "20240716T14" }, "geometry": { "type": "Point", "coordinates": [ -82.25, 45.75 ] } },
{ "type": "Feature", "properties": { "humidity@500m": 12.679985440005622, "lapserate": 0.0057384139, "timestamp": "20240716T14" }, "geometry": { "type": "Point", "coordinates": [ -82.25, 46.0 ] } },
{ "type": "Feature", "properties": { "humidity@500m": 12.877524098669042, "lapserate": 0.0053003668, "timestamp": "20240716T14" }, "geometry": { "type": "Point", "coordinates": [ -82.0, 41.0 ] } },
{ "type": "Feature", "properties": { "humidity@500m": 12.953476627219732, "lapserate": 0.0050859628, "timestamp": "20240716T14" }, "geometry": { "type": "Point", "coordinates": [ -82.0, 41.25 ] } },
{ "type": "Feature", "properties": { "humidity@500m": 12.968237970620937, "lapserate": 0.004951553, "timestamp": "20240716T14" }, "geometry": { "type": "Point", "coordinates": [ -82.0, 41.5 ] } },
{ "type": "Feature", "properties": { "humidity@500m": 12.908207164210237, "lapserate": 0.0049422537, "timestamp": "20240716T14" }, "geometry": { "type": "Point", "coordinates": [ -82.0, 41.75 ] } },
{ "type": "Feature", "properties": { "humidity@500m": 12.379368955946701, "lapserate": 0.0049975119, "timestamp": "20240716T14" }, "geometry": { "type": "Point", "coordinates": [ -82.0, 42.0 ] } },
{ "type": "Feature", "properties": { "humidity@500m": 11.894237926601411, "lapserate": 0.0050197961, "timestamp": "20240716T14" }, "geometry": { "type": "Point", "coordinates": [ -82.0, 42.25 ] } },
{ "type": "Feature", "properties": { "humidity@500m": 11.070707436656205, "lapserate": 0.0050130971, "timestamp": "20240716T14" }, "geometry": { "type": "Point", "coordinates": [ -82.0, 42.5 ] } },
{ "type": "Feature", "properties": { "humidity@500m": 10.566033870840849, "lapserate": 0.005017912, "timestamp": "20240716T14" }, "geometry": { "type": "Point", "coordinates": [ -82.0, 42.75 ] } },
{ "type": "Feature", "properties": { "humidity@500m": 10.436280931578562, "lapserate": 0.0050422549, "timestamp": "20240716T14" }, "geometry": { "type": "Point", "coordinates": [ -82.0, 43.0 ] } },
{ "type": "Feature", "properties": { "humidity@500m": 10.613949496342743, "lapserate": 0.0050712731, "timestamp": "20240716T14" }, "geometry": { "type": "Point", "coordinates": [ -82.0, 43.25 ] } },
{ "type": "Feature", "properties": { "humidity@500m": 11.803786923471479, "lapserate": 0.0051104906, "timestamp": "20240716T14" }, "geometry": { "type": "Point", "coordinates": [ -82.0, 43.5 ] } },
{ "type": "Feature", "properties": { "humidity@500m": 13.209543909957688, "lapserate": 0.0051976079, "timestamp": "20240716T14" }, "geometry": { "type": "Point", "coordinates": [ -82.0, 43.75 ] } },
{ "type": "Feature", "properties": { "humidity@500m": 13.884722111481805, "lapserate": 0.0053211567, "timestamp": "20240716T14" }, "geometry": { "type": "Point", "coordinates": [ -82.0, 44.0 ] } },
{ "type": "Feature", "properties": { "humidity@500m": 14.007533351322266, "lapserate": 0.0055075763, "timestamp": "20240716T14" }, "geometry": { "type": "Point", "coordinates": [ -82.0, 44.25 ] } },
{ "type": "Feature", "properties": { "humidity@500m": 13.616627180333433, "lapserate": 0.0056956988, "timestamp": "20240716T14" }, "geometry": { "type": "Point", "coordinates": [ -82.0, 44.5 ] } },
{ "type": "Feature", "properties": { "humidity@500m": 13.151727211373942, "lapserate": 0.0058028698, "timestamp": "20240716T14" }, "geometry": { "type": "Point", "coordinates": [ -82.0, 44.75 ] } },
{ "type": "Feature", "properties": { "humidity@500m": 13.371433903050635, "lapserate": 0.0058980966, "timestamp": "20240716T14" }, "geometry": { "type": "Point", "coordinates": [ -82.0, 45.0 ] } },
{ "type": "Feature", "properties": { "humidity@500m": 13.581664584057346, "lapserate": 0.0058993227, "timestamp": "20240716T14" }, "geometry": { "type": "Point", "coordinates": [ -82.0, 45.25 ] } },
{ "type": "Feature", "properties": { "humidity@500m": 13.663265646789883, "lapserate": 0.005835467, "timestamp": "20240716T14" }, "geometry": { "type": "Point", "coordinates": [ -82.0, 45.5 ] } },
{ "type": "Feature", "properties": { "humidity@500m": 13.436117645885584, "lapserate": 0.0058080447, "timestamp": "20240716T14" }, "geometry": { "type": "Point", "coordinates": [ -82.0, 45.75 ] } },
{ "type": "Feature", "properties": { "humidity@500m": 12.757187117958569, "lapserate": 0.0057578683, "timestamp": "20240716T14" }, "geometry": { "type": "Point", "coordinates": [ -82.0, 46.0 ] } },
{ "type": "Feature", "properties": { "humidity@500m": 12.994625373510182, "lapserate": 0.0052378676, "timestamp": "20240716T14" }, "geometry": { "type": "Point", "coordinates": [ -81.75, 41.0 ] } },
{ "type": "Feature", "properties": { "humidity@500m": 13.024980274078805, "lapserate": 0.0049257986, "timestamp": "20240716T14" }, "geometry": { "type": "Point", "coordinates": [ -81.75, 41.25 ] } },
{ "type": "Feature", "properties": { "humidity@500m": 13.085430792145546, "lapserate": 0.0047504995, "timestamp": "20240716T14" }, "geometry": { "type": "Point", "coordinates": [ -81.75, 41.5 ] } },
{ "type": "Feature", "properties": { "humidity@500m": 13.083405694600959, "lapserate": 0.0047608642, "timestamp": "20240716T14" }, "geometry": { "type": "Point", "coordinates": [ -81.75, 41.75 ] } },
{ "type": "Feature", "properties": { "humidity@500m": 13.165890451834739, "lapserate": 0.0048287897, "timestamp": "20240716T14" }, "geometry": { "type": "Point", "coordinates": [ -81.75, 42.0 ] } },
{ "type": "Feature", "properties": { "humidity@500m": 12.669053224873494, "lapserate": 0.0048285159, "timestamp": "20240716T14" }, "geometry": { "type": "Point", "coordinates": [ -81.75, 42.25 ] } },
{ "type": "Feature", "properties": { "humidity@500m": 11.803727729389403, "lapserate": 0.0048401202, "timestamp": "20240716T14" }, "geometry": { "type": "Point", "coordinates": [ -81.75, 42.5 ] } },
{ "type": "Feature", "properties": { "humidity@500m": 10.964064126970387, "lapserate": 0.0049474305, "timestamp": "20240716T14" }, "geometry": { "type": "Point", "coordinates": [ -81.75, 42.75 ] } },
{ "type": "Feature", "properties": { "humidity@500m": 10.618822760646355, "lapserate": 0.0050958432, "timestamp": "20240716T14" }, "geometry": { "type": "Point", "coordinates": [ -81.75, 43.0 ] } },
{ "type": "Feature", "properties": { "humidity@500m": 10.768583238509757, "lapserate": 0.0051805503, "timestamp": "20240716T14" }, "geometry": { "type": "Point", "coordinates": [ -81.75, 43.25 ] } },
{ "type": "Feature", "properties": { "humidity@500m": 11.386081841250867, "lapserate": 0.0051707304, "timestamp": "20240716T14" }, "geometry": { "type": "Point", "coordinates": [ -81.75, 43.5 ] } },
{ "type": "Feature", "properties": { "humidity@500m": 12.594974487108436, "lapserate": 0.0051899841, "timestamp": "20240716T14" }, "geometry": { "type": "Point", "coordinates": [ -81.75, 43.75 ] } },
{ "type": "Feature", "properties": { "humidity@500m": 13.498212020133797, "lapserate": 0.005284661, "timestamp": "20240716T14" }, "geometry": { "type": "Point", "coordinates": [ -81.75, 44.0 ] } },
{ "type": "Feature", "properties": { "humidity@500m": 13.803012465996689, "lapserate": 0.0054566455, "timestamp": "20240716T14" }, "geometry": { "type": "Point", "coordinates": [ -81.75, 44.25 ] } },
{ "type": "Feature", "properties": { "humidity@500m": 13.496030260797593, "lapserate": 0.0056629884, "timestamp": "20240716T14" }, "geometry": { "type": "Point", "coordinates": [ -81.75, 44.5 ] } },
{ "type": "Feature", "properties": { "humidity@500m": 13.226529780298591, "lapserate": 0.0058122971, "timestamp": "20240716T14" }, "geometry": { "type": "Point", "coordinates": [ -81.75, 44.75 ] } },
{ "type": "Feature", "properties": { "humidity@500m": 13.470330770266921, "lapserate": 0.0059286454, "timestamp": "20240716T14" }, "geometry": { "type": "Point", "coordinates": [ -81.75, 45.0 ] } },
{ "type": "Feature", "properties": { "humidity@500m": 13.776747352189831, "lapserate": 0.0059398022, "timestamp": "20240716T14" }, "geometry": { "type": "Point", "coordinates": [ -81.75, 45.25 ] } },
{ "type": "Feature", "properties": { "humidity@500m": 13.895038947363663, "lapserate": 0.0058691762, "timestamp": "20240716T14" }, "geometry": { "type": "Point", "coordinates": [ -81.75, 45.5 ] } },
{ "type": "Feature", "properties": { "humidity@500m": 13.594244581295486, "lapserate": 0.0058295308, "timestamp": "20240716T14" }, "geometry": { "type": "Point", "coordinates": [ -81.75, 45.75 ] } },
{ "type": "Feature", "properties": { "humidity@500m": 12.720664819682819, "lapserate": 0.0057866029, "timestamp": "20240716T14" }, "geometry": { "type": "Point", "coordinates": [ -81.75, 46.0 ] } },
{ "type": "Feature", "properties": { "humidity@500m": 13.172331720701962, "lapserate": 0.0052253539, "timestamp": "20240716T14" }, "geometry": { "type": "Point", "coordinates": [ -81.5, 41.0 ] } },
{ "type": "Feature", "properties": { "humidity@500m": 13.164642671602955, "lapserate": 0.0048424089, "timestamp": "20240716T14" }, "geometry": { "type": "Point", "coordinates": [ -81.5, 41.25 ] } },
{ "type": "Feature", "properties": { "humidity@500m": 12.999192681535556, "lapserate": 0.004612484, "timestamp": "20240716T14" }, "geometry": { "type": "Point", "coordinates": [ -81.5, 41.5 ] } },
{ "type": "Feature", "properties": { "humidity@500m": 13.163054132918225, "lapserate": 0.0045792018, "timestamp": "20240716T14" }, "geometry": { "type": "Point", "coordinates": [ -81.5, 41.75 ] } },
{ "type": "Feature", "properties": { "humidity@500m": 13.542192301045917, "lapserate": 0.0046252776, "timestamp": "20240716T14" }, "geometry": { "type": "Point", "coordinates": [ -81.5, 42.0 ] } },
{ "type": "Feature", "properties": { "humidity@500m": 13.573689988613836, "lapserate": 0.0046183798, "timestamp": "20240716T14" }, "geometry": { "type": "Point", "coordinates": [ -81.5, 42.25 ] } },
{ "type": "Feature", "properties": { "humidity@500m": 12.828349215776917, "lapserate": 0.0046433643, "timestamp": "20240716T14" }, "geometry": { "type": "Point", "coordinates": [ -81.5, 42.5 ] } },
{ "type": "Feature", "properties": { "humidity@500m": 12.033743444675443, "lapserate": 0.0048109945, "timestamp": "20240716T14" }, "geometry": { "type": "Point", "coordinates": [ -81.5, 42.75 ] } },
{ "type": "Feature", "properties": { "humidity@500m": 11.372169929074676, "lapserate": 0.0050553158, "timestamp": "20240716T14" }, "geometry": { "type": "Point", "coordinates": [ -81.5, 43.0 ] } },
{ "type": "Feature", "properties": { "humidity@500m": 11.370253351959136, "lapserate": 0.0052287495, "timestamp": "20240716T14" }, "geometry": { "type": "Point", "coordinates": [ -81.5, 43.25 ] } },
{ "type": "Feature", "properties": { "humidity@500m": 11.392287879334916, "lapserate": 0.0052336636, "timestamp": "20240716T14" }, "geometry": { "type": "Point", "coordinates": [ -81.5, 43.5 ] } },
{ "type": "Feature", "properties": { "humidity@500m": 12.313583236158015, "lapserate": 0.0052037025, "timestamp": "20240716T14" }, "geometry": { "type": "Point", "coordinates": [ -81.5, 43.75 ] } },
{ "type": "Feature", "properties": { "humidity@500m": 13.291014336495019, "lapserate": 0.0052625327, "timestamp": "20240716T14" }, "geometry": { "type": "Point", "coordinates": [ -81.5, 44.0 ] } },
{ "type": "Feature", "properties": { "humidity@500m": 13.747279477886417, "lapserate": 0.0054182294, "timestamp": "20240716T14" }, "geometry": { "type": "Point", "coordinates": [ -81.5, 44.25 ] } },
{ "type": "Feature", "properties": { "humidity@500m": 13.534001984778, "lapserate": 0.0056357225, "timestamp": "20240716T14" }, "geometry": { "type": "Point", "coordinates": [ -81.5, 44.5 ] } },
{ "type": "Feature", "properties": { "humidity@500m": 13.369362646714713, "lapserate": 0.0058257841, "timestamp": "20240716T14" }, "geometry": { "type": "Point", "coordinates": [ -81.5, 44.75 ] } },
{ "type": "Feature", "properties": { "humidity@500m": 13.580440604072008, "lapserate": 0.0059617818, "timestamp": "20240716T14" }, "geometry": { "type": "Point", "coordinates": [ -81.5, 45.0 ] } },
{ "type": "Feature", "properties": { "humidity@500m": 13.821928953945115, "lapserate": 0.0059851678, "timestamp": "20240716T14" }, "geometry": { "type": "Point", "coordinates": [ -81.5, 45.25 ] } },
{ "type": "Feature", "properties": { "humidity@500m": 13.919371560698682, "lapserate": 0.0059149899, "timestamp": "20240716T14" }, "geometry": { "type": "Point", "coordinates": [ -81.5, 45.5 ] } },
{ "type": "Feature", "properties": { "humidity@500m": 13.453500815977209, "lapserate": 0.0058612707, "timestamp": "20240716T14" }, "geometry": { "type": "Point", "coordinates": [ -81.5, 45.75 ] } },
{ "type": "Feature", "properties": { "humidity@500m": 12.574852135505788, "lapserate": 0.0058275983, "timestamp": "20240716T14" }, "geometry": { "type": "Point", "coordinates": [ -81.5, 46.0 ] } },
{ "type": "Feature", "properties": { "humidity@500m": 13.390983151637714, "lapserate": 0.0052662431, "timestamp": "20240716T14" }, "geometry": { "type": "Point", "coordinates": [ -81.25, 41.0 ] } },
{ "type": "Feature", "properties": { "humidity@500m": 13.179430793176259, "lapserate": 0.0048611546, "timestamp": "20240716T14" }, "geometry": { "type": "Point", "coordinates": [ -81.25, 41.25 ] } },
{ "type": "Feature", "properties": { "humidity@500m": 12.931989847969426, "lapserate": 0.0045729997, "timestamp": "20240716T14" }, "geometry": { "type": "Point", "coordinates": [ -81.25, 41.5 ] } },
{ "type": "Feature", "properties": { "humidity@500m": 13.249329487080528, "lapserate": 0.0044555445, "timestamp": "20240716T14" }, "geometry": { "type": "Point", "coordinates": [ -81.25, 41.75 ] } },
{ "type": "Feature", "properties": { "humidity@500m": 13.727999817381319, "lapserate": 0.0044625746, "timestamp": "20240716T14" }, "geometry": { "type": "Point", "coordinates": [ -81.25, 42.0 ] } },
{ "type": "Feature", "properties": { "humidity@500m": 14.070655687440896, "lapserate": 0.0044821268, "timestamp": "20240716T14" }, "geometry": { "type": "Point", "coordinates": [ -81.25, 42.25 ] } },
{ "type": "Feature", "properties": { "humidity@500m": 13.803878663177574, "lapserate": 0.004526204, "timestamp": "20240716T14" }, "geometry": { "type": "Point", "coordinates": [ -81.25, 42.5 ] } },
{ "type": "Feature", "properties": { "humidity@500m": 13.096353876070268, "lapserate": 0.004676939, "timestamp": "20240716T14" }, "geometry": { "type": "Point", "coordinates": [ -81.25, 42.75 ] } },
{ "type": "Feature", "properties": { "humidity@500m": 12.395569042587683, "lapserate": 0.0049114763, "timestamp": "20240716T14" }, "geometry": { "type": "Point", "coordinates": [ -81.25, 43.0 ] } },
{ "type": "Feature", "properties": { "humidity@500m": 11.860989383194829, "lapserate": 0.0051382724, "timestamp": "20240716T14" }, "geometry": { "type": "Point", "coordinates": [ -81.25, 43.25 ] } },
{ "type": "Feature", "properties": { "humidity@500m": 11.891238492617608, "lapserate": 0.0052260002, "timestamp": "20240716T14" }, "geometry": { "type": "Point", "coordinates": [ -81.25, 43.5 ] } },
{ "type": "Feature", "properties": { "humidity@500m": 12.146452810850613, "lapserate": 0.0052143876, "timestamp": "20240716T14" }, "geometry": { "type": "Point", "coordinates": [ -81.25, 43.75 ] } },
{ "type": "Feature", "properties": { "humidity@500m": 13.102187953709105, "lapserate": 0.0052508065, "timestamp": "20240716T14" }, "geometry": { "type": "Point", "coordinates": [ -81.25, 44.0 ] } },
{ "type": "Feature", "properties": { "humidity@500m": 13.647312521014131, "lapserate": 0.0053998656, "timestamp": "20240716T14" }, "geometry": { "type": "Point", "coordinates": [ -81.25, 44.25 ] } },
{ "type": "Feature", "properties": { "humidity@500m": 13.585482443154801, "lapserate": 0.005631825, "timestamp": "20240716T14" }, "geometry": { "type": "Point", "coordinates": [ -81.25, 44.5 ] } },
{ "type": "Feature", "properties": { "humidity@500m": 13.455188563436421, "lapserate": 0.0058495295, "timestamp": "20240716T14" }, "geometry": { "type": "Point", "coordinates": [ -81.25, 44.75 ] } },
{ "type": "Feature", "properties": { "humidity@500m": 13.59182518086156, "lapserate": 0.0059897746, "timestamp": "20240716T14" }, "geometry": { "type": "Point", "coordinates": [ -81.25, 45.0 ] } },
{ "type": "Feature", "properties": { "humidity@500m": 13.833005782442916, "lapserate": 0.0060220137, "timestamp": "20240716T14" }, "geometry": { "type": "Point", "coordinates": [ -81.25, 45.25 ] } },
{ "type": "Feature", "properties": { "humidity@500m": 13.809997281135736, "lapserate": 0.0059671504, "timestamp": "20240716T14" }, "geometry": { "type": "Point", "coordinates": [ -81.25, 45.5 ] } },
{ "type": "Feature", "properties": { "humidity@500m": 13.348848472511602, "lapserate": 0.0059012119, "timestamp": "20240716T14" }, "geometry": { "type": "Point", "coordinates": [ -81.25, 45.75 ] } },
{ "type": "Feature", "properties": { "humidity@500m": 12.418488033737701, "lapserate": 0.0058635324, "timestamp": "20240716T14" }, "geometry": { "type": "Point", "coordinates": [ -81.25, 46.0 ] } },
{ "type": "Feature", "properties": { "humidity@500m": 13.635282067891714, "lapserate": 0.0053305193, "timestamp": "20240716T14" }, "geometry": { "type": "Point", "coordinates": [ -81.0, 41.0 ] } },
{ "type": "Feature", "properties": { "humidity@500m": 13.397928438729556, "lapserate": 0.0049390555, "timestamp": "20240716T14" }, "geometry": { "type": "Point", "coordinates": [ -81.0, 41.25 ] } },
{ "type": "Feature", "properties": { "humidity@500m": 12.980900675958038, "lapserate": 0.0046263481, "timestamp": "20240716T14" }, "geometry": { "type": "Point", "coordinates": [ -81.0, 41.5 ] } },
{ "type": "Feature", "properties": { "humidity@500m": 13.297515204681078, "lapserate": 0.0044522351, "timestamp": "20240716T14" }, "geometry": { "type": "Point", "coordinates": [ -81.0, 41.75 ] } },
{ "type": "Feature", "properties": { "humidity@500m": 13.652454992432864, "lapserate": 0.0044090971, "timestamp": "20240716T14" }, "geometry": { "type": "Point", "coordinates": [ -81.0, 42.0 ] } },
{ "type": "Feature", "properties": { "humidity@500m": 14.234341850838563, "lapserate": 0.0044466062, "timestamp": "20240716T14" }, "geometry": { "type": "Point", "coordinates": [ -81.0, 42.25 ] } },
{ "type": "Feature", "properties": { "humidity@500m": 14.149770585508868, "lapserate": 0.0045201262, "timestamp": "20240716T14" }, "geometry": { "type": "Point", "coordinates": [ -81.0, 42.5 ] } },
{ "type": "Feature", "properties": { "humidity@500m": 13.881087309763458, "lapserate": 0.0046481881, "timestamp": "20240716T14" }, "geometry": { "type": "Point", "coordinates": [ -81.0, 42.75 ] } },
{ "type": "Feature", "properties": { "humidity@500m": 13.643415018407255, "lapserate": 0.0048270193, "timestamp": "20240716T14" }, "geometry": { "type": "Point", "coordinates": [ -81.0, 43.0 ] } },
{ "type": "Feature", "properties": { "humidity@500m": 13.264703458034722, "lapserate": 0.0050154985, "timestamp": "20240716T14" }, "geometry": { "type": "Point", "coordinates": [ -81.0, 43.25 ] } },
{ "type": "Feature", "properties": { "humidity@500m": 12.677654989140235, "lapserate": 0.0051435949, "timestamp": "20240716T14" }, "geometry": { "type": "Point", "coordinates": [ -81.0, 43.5 ] } },
{ "type": "Feature", "properties": { "humidity@500m": 12.578265328686827, "lapserate": 0.0051908121, "timestamp": "20240716T14" }, "geometry": { "type": "Point", "coordinates": [ -81.0, 43.75 ] } },
{ "type": "Feature", "properties": { "humidity@500m": 12.983596833513637, "lapserate": 0.0052417857, "timestamp": "20240716T14" }, "geometry": { "type": "Point", "coordinates": [ -81.0, 44.0 ] } },
{ "type": "Feature", "properties": { "humidity@500m": 13.520646425609739, "lapserate": 0.0053903214, "timestamp": "20240716T14" }, "geometry": { "type": "Point", "coordinates": [ -81.0, 44.25 ] } },
{ "type": "Feature", "properties": { "humidity@500m": 13.558400110956793, "lapserate": 0.005620426, "timestamp": "20240716T14" }, "geometry": { "type": "Point", "coordinates": [ -81.0, 44.5 ] } },
{ "type": "Feature", "properties": { "humidity@500m": 13.544706087922924, "lapserate": 0.005856744, "timestamp": "20240716T14" }, "geometry": { "type": "Point", "coordinates": [ -81.0, 44.75 ] } },
{ "type": "Feature", "properties": { "humidity@500m": 13.625466538686021, "lapserate": 0.0060047661, "timestamp": "20240716T14" }, "geometry": { "type": "Point", "coordinates": [ -81.0, 45.0 ] } },
{ "type": "Feature", "properties": { "humidity@500m": 13.75704713206912, "lapserate": 0.0060405713, "timestamp": "20240716T14" }, "geometry": { "type": "Point", "coordinates": [ -81.0, 45.25 ] } },
{ "type": "Feature", "properties": { "humidity@500m": 13.727881655359996, "lapserate": 0.0060018692, "timestamp": "20240716T14" }, "geometry": { "type": "Point", "coordinates": [ -81.0, 45.5 ] } },
{ "type": "Feature", "properties": { "humidity@500m": 13.322419685831385, "lapserate": 0.0059313118, "timestamp": "20240716T14" }, "geometry": { "type": "Point", "coordinates": [ -81.0, 45.75 ] } },
{ "type": "Feature", "properties": { "humidity@500m": 12.46381083114693, "lapserate": 0.0058796927, "timestamp": "20240716T14" }, "geometry": { "type": "Point", "coordinates": [ -81.0, 46.0 ] } },
{ "type": "Feature", "properties": { "humidity@500m": 13.867806745216262, "lapserate": 0.0054071969, "timestamp": "20240716T14" }, "geometry": { "type": "Point", "coordinates": [ -80.75, 41.0 ] } },
{ "type": "Feature", "properties": { "humidity@500m": 13.59568979533941, "lapserate": 0.0050371713, "timestamp": "20240716T14" }, "geometry": { "type": "Point", "coordinates": [ -80.75, 41.25 ] } },
{ "type": "Feature", "properties": { "humidity@500m": 13.280850207797718, "lapserate": 0.0047163134, "timestamp": "20240716T14" }, "geometry": { "type": "Point", "coordinates": [ -80.75, 41.5 ] } },
{ "type": "Feature", "properties": { "humidity@500m": 13.047998934147438, "lapserate": 0.0045055407, "timestamp": "20240716T14" }, "geometry": { "type": "Point", "coordinates": [ -80.75, 41.75 ] } },
{ "type": "Feature", "properties": { "humidity@500m": 13.51888395639808, "lapserate": 0.0044142385, "timestamp": "20240716T14" }, "geometry": { "type": "Point", "coordinates": [ -80.75, 42.0 ] } },
{ "type": "Feature", "properties": { "humidity@500m": 14.17522372359147, "lapserate": 0.0044685812, "timestamp": "20240716T14" }, "geometry": { "type": "Point", "coordinates": [ -80.75, 42.25 ] } },
{ "type": "Feature", "properties": { "humidity@500m": 14.247004304073652, "lapserate": 0.0045855083, "timestamp": "20240716T14" }, "geometry": { "type": "Point", "coordinates": [ -80.75, 42.5 ] } },
{ "type": "Feature", "properties": { "humidity@500m": 14.069411394830496, "lapserate": 0.0047342572, "timestamp": "20240716T14" }, "geometry": { "type": "Point", "coordinates": [ -80.75, 42.75 ] } },
{ "type": "Feature", "properties": { "humidity@500m": 13.8648688453058, "lapserate": 0.0049048713, "timestamp": "20240716T14" }, "geometry": { "type": "Point", "coordinates": [ -80.75, 43.0 ] } },
{ "type": "Feature", "properties": { "humidity@500m": 13.50279464689056, "lapserate": 0.0050000013, "timestamp": "20240716T14" }, "geometry": { "type": "Point", "coordinates": [ -80.75, 43.25 ] } },
{ "type": "Feature", "properties": { "humidity@500m": 12.820392699909037, "lapserate": 0.0050571533, "timestamp": "20240716T14" }, "geometry": { "type": "Point", "coordinates": [ -80.75, 43.5 ] } },
{ "type": "Feature", "properties": { "humidity@500m": 12.731040186867387, "lapserate": 0.0051338458, "timestamp": "20240716T14" }, "geometry": { "type": "Point", "coordinates": [ -80.75, 43.75 ] } },
{ "type": "Feature", "properties": { "humidity@500m": 12.723504395845346, "lapserate": 0.0052233757, "timestamp": "20240716T14" }, "geometry": { "type": "Point", "coordinates": [ -80.75, 44.0 ] } },
{ "type": "Feature", "properties": { "humidity@500m": 13.32424682949549, "lapserate": 0.0053665917, "timestamp": "20240716T14" }, "geometry": { "type": "Point", "coordinates": [ -80.75, 44.25 ] } },
{ "type": "Feature", "properties": { "humidity@500m": 13.475469820683278, "lapserate": 0.0055618351, "timestamp": "20240716T14" }, "geometry": { "type": "Point", "coordinates": [ -80.75, 44.5 ] } },
{ "type": "Feature", "properties": { "humidity@500m": 13.515023256104111, "lapserate": 0.0058064791, "timestamp": "20240716T14" }, "geometry": { "type": "Point", "coordinates": [ -80.75, 44.75 ] } },
{ "type": "Feature", "properties": { "humidity@500m": 13.566871089506725, "lapserate": 0.0059951027, "timestamp": "20240716T14" }, "geometry": { "type": "Point", "coordinates": [ -80.75, 45.0 ] } },
{ "type": "Feature", "properties": { "humidity@500m": 13.678531683064847, "lapserate": 0.0060536624, "timestamp": "20240716T14" }, "geometry": { "type": "Point", "coordinates": [ -80.75, 45.25 ] } },
{ "type": "Feature", "properties": { "humidity@500m": 13.670351961470956, "lapserate": 0.0060309679, "timestamp": "20240716T14" }, "geometry": { "type": "Point", "coordinates": [ -80.75, 45.5 ] } },
{ "type": "Feature", "properties": { "humidity@500m": 13.458335322644855, "lapserate": 0.0059549506, "timestamp": "20240716T14" }, "geometry": { "type": "Point", "coordinates": [ -80.75, 45.75 ] } },
{ "type": "Feature", "properties": { "humidity@500m": 12.714401950888787, "lapserate": 0.0058804126, "timestamp": "20240716T14" }, "geometry": { "type": "Point", "coordinates": [ -80.75, 46.0 ] } },
{ "type": "Feature", "properties": { "humidity@500m": 13.972515907881663, "lapserate": 0.005478472, "timestamp": "20240716T14" }, "geometry": { "type": "Point", "coordinates": [ -80.5, 41.0 ] } },
{ "type": "Feature", "properties": { "humidity@500m": 13.806911658337089, "lapserate": 0.0051462459, "timestamp": "20240716T14" }, "geometry": { "type": "Point", "coordinates": [ -80.5, 41.25 ] } },
{ "type": "Feature", "properties": { "humidity@500m": 13.50386503093965, "lapserate": 0.0048097535, "timestamp": "20240716T14" }, "geometry": { "type": "Point", "coordinates": [ -80.5, 41.5 ] } },
{ "type": "Feature", "properties": { "humidity@500m": 13.109459162935522, "lapserate": 0.0045614713, "timestamp": "20240716T14" }, "geometry": { "type": "Point", "coordinates": [ -80.5, 41.75 ] } },
{ "type": "Feature", "properties": { "humidity@500m": 13.509678082723148, "lapserate": 0.0044552772, "timestamp": "20240716T14" }, "geometry": { "type": "Point", "coordinates": [ -80.5, 42.0 ] } },
{ "type": "Feature", "properties": { "humidity@500m": 13.998069751736406, "lapserate": 0.004542422, "timestamp": "20240716T14" }, "geometry": { "type": "Point", "coordinates": [ -80.5, 42.25 ] } },
{ "type": "Feature", "properties": { "humidity@500m": 14.039653334173629, "lapserate": 0.0046802475, "timestamp": "20240716T14" }, "geometry": { "type": "Point", "coordinates": [ -80.5, 42.5 ] } },
{ "type": "Feature", "properties": { "humidity@500m": 14.024340051502731, "lapserate": 0.0048353565, "timestamp": "20240716T14" }, "geometry": { "type": "Point", "coordinates": [ -80.5, 42.75 ] } },
{ "type": "Feature", "properties": { "humidity@500m": 13.900278236224265, "lapserate": 0.0050318614, "timestamp": "20240716T14" }, "geometry": { "type": "Point", "coordinates": [ -80.5, 43.0 ] } },
{ "type": "Feature", "properties": { "humidity@500m": 13.488794456925792, "lapserate": 0.0050666649, "timestamp": "20240716T14" }, "geometry": { "type": "Point", "coordinates": [ -80.5, 43.25 ] } },
{ "type": "Feature", "properties": { "humidity@500m": 12.887118391337941, "lapserate": 0.0050248494, "timestamp": "20240716T14" }, "geometry": { "type": "Point", "coordinates": [ -80.5, 43.5 ] } },
{ "type": "Feature", "properties": { "humidity@500m": 12.731947071442033, "lapserate": 0.0050826888, "timestamp": "20240716T14" }, "geometry": { "type": "Point", "coordinates": [ -80.5, 43.75 ] } },
{ "type": "Feature", "properties": { "humidity@500m": 12.534984925281988, "lapserate": 0.0051820632, "timestamp": "20240716T14" }, "geometry": { "type": "Point", "coordinates": [ -80.5, 44.0 ] } },
{ "type": "Feature", "properties": { "humidity@500m": 13.054356243213746, "lapserate": 0.0053098467, "timestamp": "20240716T14" }, "geometry": { "type": "Point", "coordinates": [ -80.5, 44.25 ] } },
{ "type": "Feature", "properties": { "humidity@500m": 13.444949414059996, "lapserate": 0.0054637976, "timestamp": "20240716T14" }, "geometry": { "type": "Point", "coordinates": [ -80.5, 44.5 ] } },
{ "type": "Feature", "properties": { "humidity@500m": 13.498325666174077, "lapserate": 0.0057047931, "timestamp": "20240716T14" }, "geometry": { "type": "Point", "coordinates": [ -80.5, 44.75 ] } },
{ "type": "Feature", "properties": { "humidity@500m": 13.457174175698059, "lapserate": 0.005948408, "timestamp": "20240716T14" }, "geometry": { "type": "Point", "coordinates": [ -80.5, 45.0 ] } },
{ "type": "Feature", "properties": { "humidity@500m": 13.570335361558177, "lapserate": 0.0060607982, "timestamp": "20240716T14" }, "geometry": { "type": "Point", "coordinates": [ -80.5, 45.25 ] } },
{ "type": "Feature", "properties": { "humidity@500m": 13.70114505370249, "lapserate": 0.006063119, "timestamp": "20240716T14" }, "geometry": { "type": "Point", "coordinates": [ -80.5, 45.5 ] } },
{ "type": "Feature", "properties": { "humidity@500m": 13.478808277708143, "lapserate": 0.0059743002, "timestamp": "20240716T14" }, "geometry": { "type": "Point", "coordinates": [ -80.5, 45.75 ] } },
{ "type": "Feature", "properties": { "humidity@500m": 13.063936580384148, "lapserate": 0.0058670845, "timestamp": "20240716T14" }, "geometry": { "type": "Point", "coordinates": [ -80.5, 46.0 ] } },
{ "type": "Feature", "properties": { "humidity@500m": 13.841056260776437, "lapserate": 0.0055197771, "timestamp": "20240716T14" }, "geometry": { "type": "Point", "coordinates": [ -80.25, 41.0 ] } },
{ "type": "Feature", "properties": { "humidity@500m": 13.658698145868433, "lapserate": 0.0052446723, "timestamp": "20240716T14" }, "geometry": { "type": "Point", "coordinates": [ -80.25, 41.25 ] } },
{ "type": "Feature", "properties": { "humidity@500m": 13.485695842581471, "lapserate": 0.0049194009, "timestamp": "20240716T14" }, "geometry": { "type": "Point", "coordinates": [ -80.25, 41.5 ] } },
{ "type": "Feature", "properties": { "humidity@500m": 13.286585806034386, "lapserate": 0.0046795276, "timestamp": "20240716T14" }, "geometry": { "type": "Point", "coordinates": [ -80.25, 41.75 ] } },
{ "type": "Feature", "properties": { "humidity@500m": 13.532457489917041, "lapserate": 0.0045995242, "timestamp": "20240716T14" }, "geometry": { "type": "Point", "coordinates": [ -80.25, 42.0 ] } },
{ "type": "Feature", "properties": { "humidity@500m": 13.830321263699799, "lapserate": 0.0046811225, "timestamp": "20240716T14" }, "geometry": { "type": "Point", "coordinates": [ -80.25, 42.25 ] } },
{ "type": "Feature", "properties": { "humidity@500m": 13.795274491179653, "lapserate": 0.0047775456, "timestamp": "20240716T14" }, "geometry": { "type": "Point", "coordinates": [ -80.25, 42.5 ] } },
{ "type": "Feature", "properties": { "humidity@500m": 13.851859478053283, "lapserate": 0.0048881103, "timestamp": "20240716T14" }, "geometry": { "type": "Point", "coordinates": [ -80.25, 42.75 ] } },
{ "type": "Feature", "properties": { "humidity@500m": 13.935165970723434, "lapserate": 0.0050694621, "timestamp": "20240716T14" }, "geometry": { "type": "Point", "coordinates": [ -80.25, 43.0 ] } },
{ "type": "Feature", "properties": { "humidity@500m": 13.533300790099382, "lapserate": 0.005084028, "timestamp": "20240716T14" }, "geometry": { "type": "Point", "coordinates": [ -80.25, 43.25 ] } },
{ "type": "Feature", "properties": { "humidity@500m": 12.883190111525051, "lapserate": 0.0050138994, "timestamp": "20240716T14" }, "geometry": { "type": "Point", "coordinates": [ -80.25, 43.5 ] } },
{ "type": "Feature", "properties": { "humidity@500m": 12.862297350583738, "lapserate": 0.0050458806, "timestamp": "20240716T14" }, "geometry": { "type": "Point", "coordinates": [ -80.25, 43.75 ] } },
{ "type": "Feature", "properties": { "humidity@500m": 12.474624297614445, "lapserate": 0.0051002689, "timestamp": "20240716T14" }, "geometry": { "type": "Point", "coordinates": [ -80.25, 44.0 ] } },
{ "type": "Feature", "properties": { "humidity@500m": 12.799839795596439, "lapserate": 0.0052040853, "timestamp": "20240716T14" }, "geometry": { "type": "Point", "coordinates": [ -80.25, 44.25 ] } },
{ "type": "Feature", "properties": { "humidity@500m": 13.449750173649948, "lapserate": 0.005361699, "timestamp": "20240716T14" }, "geometry": { "type": "Point", "coordinates": [ -80.25, 44.5 ] } },
{ "type": "Feature", "properties": { "humidity@500m": 13.444267505446618, "lapserate": 0.0056039672, "timestamp": "20240716T14" }, "geometry": { "type": "Point", "coordinates": [ -80.25, 44.75 ] } },
{ "type": "Feature", "properties": { "humidity@500m": 13.370619051752877, "lapserate": 0.0058699464, "timestamp": "20240716T14" }, "geometry": { "type": "Point", "coordinates": [ -80.25, 45.0 ] } },
{ "type": "Feature", "properties": { "humidity@500m": 13.470058615741085, "lapserate": 0.0060308324, "timestamp": "20240716T14" }, "geometry": { "type": "Point", "coordinates": [ -80.25, 45.25 ] } },
{ "type": "Feature", "properties": { "humidity@500m": 13.611655800337912, "lapserate": 0.0060703862, "timestamp": "20240716T14" }, "geometry": { "type": "Point", "coordinates": [ -80.25, 45.5 ] } },
{ "type": "Feature", "properties": { "humidity@500m": 13.587170520385198, "lapserate": 0.0059783058, "timestamp": "20240716T14" }, "geometry": { "type": "Point", "coordinates": [ -80.25, 45.75 ] } },
{ "type": "Feature", "properties": { "humidity@500m": 13.341588017296273, "lapserate": 0.0058449563, "timestamp": "20240716T14" }, "geometry": { "type": "Point", "coordinates": [ -80.25, 46.0 ] } },
{ "type": "Feature", "properties": { "humidity@500m": 13.712545917439405, "lapserate": 0.0055815852, "timestamp": "20240716T14" }, "geometry": { "type": "Point", "coordinates": [ -80.0, 41.0 ] } },
{ "type": "Feature", "properties": { "humidity@500m": 13.503151088709028, "lapserate": 0.0053366185, "timestamp": "20240716T14" }, "geometry": { "type": "Point", "coordinates": [ -80.0, 41.25 ] } },
{ "type": "Feature", "properties": { "humidity@500m": 13.337882985706827, "lapserate": 0.0050504939, "timestamp": "20240716T14" }, "geometry": { "type": "Point", "coordinates": [ -80.0, 41.5 ] } },
{ "type": "Feature", "properties": { "humidity@500m": 13.253570455505027, "lapserate": 0.004871964, "timestamp": "20240716T14" }, "geometry": { "type": "Point", "coordinates": [ -80.0, 41.75 ] } },
{ "type": "Feature", "properties": { "humidity@500m": 13.294820004470841, "lapserate": 0.0048141382, "timestamp": "20240716T14" }, "geometry": { "type": "Point", "coordinates": [ -80.0, 42.0 ] } },
{ "type": "Feature", "properties": { "humidity@500m": 13.541000506804806, "lapserate": 0.0048248693, "timestamp": "20240716T14" }, "geometry": { "type": "Point", "coordinates": [ -80.0, 42.25 ] } },
{ "type": "Feature", "properties": { "humidity@500m": 13.49015521978033, "lapserate": 0.0048712986, "timestamp": "20240716T14" }, "geometry": { "type": "Point", "coordinates": [ -80.0, 42.5 ] } },
{ "type": "Feature", "properties": { "humidity@500m": 13.581498487009515, "lapserate": 0.0049507925, "timestamp": "20240716T14" }, "geometry": { "type": "Point", "coordinates": [ -80.0, 42.75 ] } },
{ "type": "Feature", "properties": { "humidity@500m": 13.89110779882661, "lapserate": 0.0050560362, "timestamp": "20240716T14" }, "geometry": { "type": "Point", "coordinates": [ -80.0, 43.0 ] } },
{ "type": "Feature", "properties": { "humidity@500m": 13.554664703634629, "lapserate": 0.0050313193, "timestamp": "20240716T14" }, "geometry": { "type": "Point", "coordinates": [ -80.0, 43.25 ] } },
{ "type": "Feature", "properties": { "humidity@500m": 12.927174493397455, "lapserate": 0.004987014, "timestamp": "20240716T14" }, "geometry": { "type": "Point", "coordinates": [ -80.0, 43.5 ] } },
{ "type": "Feature", "properties": { "humidity@500m": 12.787465278795095, "lapserate": 0.0050215353, "timestamp": "20240716T14" }, "geometry": { "type": "Point", "coordinates": [ -80.0, 43.75 ] } },
{ "type": "Feature", "properties": { "humidity@500m": 12.803645405119207, "lapserate": 0.0050155926, "timestamp": "20240716T14" }, "geometry": { "type": "Point", "coordinates": [ -80.0, 44.0 ] } },
{ "type": "Feature", "properties": { "humidity@500m": 12.915798679684462, "lapserate": 0.0050883749, "timestamp": "20240716T14" }, "geometry": { "type": "Point", "coordinates": [ -80.0, 44.25 ] } },
{ "type": "Feature", "properties": { "humidity@500m": 13.473018920639278, "lapserate": 0.0052867006, "timestamp": "20240716T14" }, "geometry": { "type": "Point", "coordinates": [ -80.0, 44.5 ] } },
{ "type": "Feature", "properties": { "humidity@500m": 13.5970347794338, "lapserate": 0.0055437693, "timestamp": "20240716T14" }, "geometry": { "type": "Point", "coordinates": [ -80.0, 44.75 ] } },
{ "type": "Feature", "properties": { "humidity@500m": 13.470555784129695, "lapserate": 0.0057915584, "timestamp": "20240716T14" }, "geometry": { "type": "Point", "coordinates": [ -80.0, 45.0 ] } },
{ "type": "Feature", "properties": { "humidity@500m": 13.427100225719007, "lapserate": 0.0059661577, "timestamp": "20240716T14" }, "geometry": { "type": "Point", "coordinates": [ -80.0, 45.25 ] } },
{ "type": "Feature", "properties": { "humidity@500m": 13.52846723394657, "lapserate": 0.0060425573, "timestamp": "20240716T14" }, "geometry": { "type": "Point", "coordinates": [ -80.0, 45.5 ] } },
{ "type": "Feature", "properties": { "humidity@500m": 13.620894665395618, "lapserate": 0.0059734043, "timestamp": "20240716T14" }, "geometry": { "type": "Point", "coordinates": [ -80.0, 45.75 ] } },
{ "type": "Feature", "properties": { "humidity@500m": 13.448248192084975, "lapserate": 0.0058353725, "timestamp": "20240716T14" }, "geometry": { "type": "Point", "coordinates": [ -80.0, 46.0 ] } },
{ "type": "Feature", "properties": { "humidity@500m": 13.603426589284204, "lapserate": 0.0057473429, "timestamp": "20240716T14" }, "geometry": { "type": "Point", "coordinates": [ -79.75, 41.0 ] } },
{ "type": "Feature", "properties": { "humidity@500m": 13.39825940295788, "lapserate": 0.005491789, "timestamp": "20240716T14" }, "geometry": { "type": "Point", "coordinates": [ -79.75, 41.25 ] } },
{ "type": "Feature", "properties": { "humidity@500m": 13.255679641480963, "lapserate": 0.0052238596, "timestamp": "20240716T14" }, "geometry": { "type": "Point", "coordinates": [ -79.75, 41.5 ] } },
{ "type": "Feature", "properties": { "humidity@500m": 13.229784483739286, "lapserate": 0.0050740419, "timestamp": "20240716T14" }, "geometry": { "type": "Point", "coordinates": [ -79.75, 41.75 ] } },
{ "type": "Feature", "properties": { "humidity@500m": 13.291837793042982, "lapserate": 0.0050031301, "timestamp": "20240716T14" }, "geometry": { "type": "Point", "coordinates": [ -79.75, 42.0 ] } },
{ "type": "Feature", "properties": { "humidity@500m": 13.38699439679784, "lapserate": 0.0049618147, "timestamp": "20240716T14" }, "geometry": { "type": "Point", "coordinates": [ -79.75, 42.25 ] } },
{ "type": "Feature", "properties": { "humidity@500m": 13.362842396624732, "lapserate": 0.0050156093, "timestamp": "20240716T14" }, "geometry": { "type": "Point", "coordinates": [ -79.75, 42.5 ] } },
{ "type": "Feature", "properties": { "humidity@500m": 13.41212831649452, "lapserate": 0.0050926022, "timestamp": "20240716T14" }, "geometry": { "type": "Point", "coordinates": [ -79.75, 42.75 ] } },
{ "type": "Feature", "properties": { "humidity@500m": 13.786848278753837, "lapserate": 0.0051018363, "timestamp": "20240716T14" }, "geometry": { "type": "Point", "coordinates": [ -79.75, 43.0 ] } },
{ "type": "Feature", "properties": { "humidity@500m": 14.071442916723257, "lapserate": 0.0050311596, "timestamp": "20240716T14" }, "geometry": { "type": "Point", "coordinates": [ -79.75, 43.25 ] } },
{ "type": "Feature", "properties": { "humidity@500m": 13.350558829525209, "lapserate": 0.0050229155, "timestamp": "20240716T14" }, "geometry": { "type": "Point", "coordinates": [ -79.75, 43.5 ] } },
{ "type": "Feature", "properties": { "humidity@500m": 12.69858698568653, "lapserate": 0.0050789071, "timestamp": "20240716T14" }, "geometry": { "type": "Point", "coordinates": [ -79.75, 43.75 ] } },
{ "type": "Feature", "properties": { "humidity@500m": 13.12250757954927, "lapserate": 0.0050467108, "timestamp": "20240716T14" }, "geometry": { "type": "Point", "coordinates": [ -79.75, 44.0 ] } },
{ "type": "Feature", "properties": { "humidity@500m": 13.285890361792214, "lapserate": 0.0050750533, "timestamp": "20240716T14" }, "geometry": { "type": "Point", "coordinates": [ -79.75, 44.25 ] } },
{ "type": "Feature", "properties": { "humidity@500m": 13.521862939917131, "lapserate": 0.0052716997, "timestamp": "20240716T14" }, "geometry": { "type": "Point", "coordinates": [ -79.75, 44.5 ] } },
{ "type": "Feature", "properties": { "humidity@500m": 13.671160896920263, "lapserate": 0.0055219997, "timestamp": "20240716T14" }, "geometry": { "type": "Point", "coordinates": [ -79.75, 44.75 ] } },
{ "type": "Feature", "properties": { "humidity@500m": 13.468885662972072, "lapserate": 0.0057341466, "timestamp": "20240716T14" }, "geometry": { "type": "Point", "coordinates": [ -79.75, 45.0 ] } },
{ "type": "Feature", "properties": { "humidity@500m": 13.391587078469881, "lapserate": 0.005900892, "timestamp": "20240716T14" }, "geometry": { "type": "Point", "coordinates": [ -79.75, 45.25 ] } },
{ "type": "Feature", "properties": { "humidity@500m": 13.427527456059689, "lapserate": 0.0060035493, "timestamp": "20240716T14" }, "geometry": { "type": "Point", "coordinates": [ -79.75, 45.5 ] } },
{ "type": "Feature", "properties": { "humidity@500m": 13.569614895803594, "lapserate": 0.0059695668, "timestamp": "20240716T14" }, "geometry": { "type": "Point", "coordinates": [ -79.75, 45.75 ] } },
{ "type": "Feature", "properties": { "humidity@500m": 13.54220333007131, "lapserate": 0.0058395183, "timestamp": "20240716T14" }, "geometry": { "type": "Point", "coordinates": [ -79.75, 46.0 ] } },
{ "type": "Feature", "properties": { "humidity@500m": 13.501048765823148, "lapserate": 0.0059827999, "timestamp": "20240716T14" }, "geometry": { "type": "Point", "coordinates": [ -79.5, 41.0 ] } },
{ "type": "Feature", "properties": { "humidity@500m": 13.311727647467297, "lapserate": 0.0057266881, "timestamp": "20240716T14" }, "geometry": { "type": "Point", "coordinates": [ -79.5, 41.25 ] } },
{ "type": "Feature", "properties": { "humidity@500m": 13.203432794566545, "lapserate": 0.0054675089, "timestamp": "20240716T14" }, "geometry": { "type": "Point", "coordinates": [ -79.5, 41.5 ] } },
{ "type": "Feature", "properties": { "humidity@500m": 13.227029461419958, "lapserate": 0.0052954415, "timestamp": "20240716T14" }, "geometry": { "type": "Point", "coordinates": [ -79.5, 41.75 ] } },
{ "type": "Feature", "properties": { "humidity@500m": 13.301735454537408, "lapserate": 0.0052103912, "timestamp": "20240716T14" }, "geometry": { "type": "Point", "coordinates": [ -79.5, 42.0 ] } },
{ "type": "Feature", "properties": { "humidity@500m": 13.363798644284508, "lapserate": 0.0051988335, "timestamp": "20240716T14" }, "geometry": { "type": "Point", "coordinates": [ -79.5, 42.25 ] } },
{ "type": "Feature", "properties": { "humidity@500m": 13.402080082458125, "lapserate": 0.0052664145, "timestamp": "20240716T14" }, "geometry": { "type": "Point", "coordinates": [ -79.5, 42.5 ] } },
{ "type": "Feature", "properties": { "humidity@500m": 13.346985684055099, "lapserate": 0.0052818693, "timestamp": "20240716T14" }, "geometry": { "type": "Point", "coordinates": [ -79.5, 42.75 ] } },
{ "type": "Feature", "properties": { "humidity@500m": 13.688956429544234, "lapserate": 0.0052113221, "timestamp": "20240716T14" }, "geometry": { "type": "Point", "coordinates": [ -79.5, 43.0 ] } },
{ "type": "Feature", "properties": { "humidity@500m": 13.936176498548603, "lapserate": 0.0051598046, "timestamp": "20240716T14" }, "geometry": { "type": "Point", "coordinates": [ -79.5, 43.25 ] } },
{ "type": "Feature", "properties": { "humidity@500m": 13.527664586488781, "lapserate": 0.0051986794, "timestamp": "20240716T14" }, "geometry": { "type": "Point", "coordinates": [ -79.5, 43.5 ] } },
{ "type": "Feature", "properties": { "humidity@500m": 12.535100249758784, "lapserate": 0.0052655046, "timestamp": "20240716T14" }, "geometry": { "type": "Point", "coordinates": [ -79.5, 43.75 ] } },
{ "type": "Feature", "properties": { "humidity@500m": 13.188105324900086, "lapserate": 0.0052382261, "timestamp": "20240716T14" }, "geometry": { "type": "Point", "coordinates": [ -79.5, 44.0 ] } },
{ "type": "Feature", "properties": { "humidity@500m": 13.570700033442353, "lapserate": 0.0052188621, "timestamp": "20240716T14" }, "geometry": { "type": "Point", "coordinates": [ -79.5, 44.25 ] } },
{ "type": "Feature", "properties": { "humidity@500m": 13.552696789821651, "lapserate": 0.0053336537, "timestamp": "20240716T14" }, "geometry": { "type": "Point", "coordinates": [ -79.5, 44.5 ] } },
{ "type": "Feature", "properties": { "humidity@500m": 13.600936624341308, "lapserate": 0.005514659, "timestamp": "20240716T14" }, "geometry": { "type": "Point", "coordinates": [ -79.5, 44.75 ] } },
{ "type": "Feature", "properties": { "humidity@500m": 13.436985733996387, "lapserate": 0.0056828302, "timestamp": "20240716T14" }, "geometry": { "type": "Point", "coordinates": [ -79.5, 45.0 ] } },
{ "type": "Feature", "properties": { "humidity@500m": 13.252902976625087, "lapserate": 0.0058441786, "timestamp": "20240716T14" }, "geometry": { "type": "Point", "coordinates": [ -79.5, 45.25 ] } },
{ "type": "Feature", "properties": { "humidity@500m": 13.275133375282882, "lapserate": 0.0059677451, "timestamp": "20240716T14" }, "geometry": { "type": "Point", "coordinates": [ -79.5, 45.5 ] } },
{ "type": "Feature", "properties": { "humidity@500m": 13.490972521190402, "lapserate": 0.0059636179, "timestamp": "20240716T14" }, "geometry": { "type": "Point", "coordinates": [ -79.5, 45.75 ] } },
{ "type": "Feature", "properties": { "humidity@500m": 13.523162928061593, "lapserate": 0.0058458298, "timestamp": "20240716T14" }, "geometry": { "type": "Point", "coordinates": [ -79.5, 46.0 ] } },
{ "type": "Feature", "properties": { "humidity@500m": 13.085954911464711, "lapserate": 0.0061862525, "timestamp": "20240716T14" }, "geometry": { "type": "Point", "coordinates": [ -79.25, 41.0 ] } },
{ "type": "Feature", "properties": { "humidity@500m": 13.130655733302508, "lapserate": 0.0059519755, "timestamp": "20240716T14" }, "geometry": { "type": "Point", "coordinates": [ -79.25, 41.25 ] } },
{ "type": "Feature", "properties": { "humidity@500m": 13.044531921302811, "lapserate": 0.0057392167, "timestamp": "20240716T14" }, "geometry": { "type": "Point", "coordinates": [ -79.25, 41.5 ] } },
{ "type": "Feature", "properties": { "humidity@500m": 13.146457963442577, "lapserate": 0.0055749398, "timestamp": "20240716T14" }, "geometry": { "type": "Point", "coordinates": [ -79.25, 41.75 ] } },
{ "type": "Feature", "properties": { "humidity@500m": 13.24712881921957, "lapserate": 0.0055123614, "timestamp": "20240716T14" }, "geometry": { "type": "Point", "coordinates": [ -79.25, 42.0 ] } },
{ "type": "Feature", "properties": { "humidity@500m": 13.179495356102043, "lapserate": 0.0055501452, "timestamp": "20240716T14" }, "geometry": { "type": "Point", "coordinates": [ -79.25, 42.25 ] } },
{ "type": "Feature", "properties": { "humidity@500m": 13.091055638174819, "lapserate": 0.0055683414, "timestamp": "20240716T14" }, "geometry": { "type": "Point", "coordinates": [ -79.25, 42.5 ] } },
{ "type": "Feature", "properties": { "humidity@500m": 13.139547499819857, "lapserate": 0.0054714954, "timestamp": "20240716T14" }, "geometry": { "type": "Point", "coordinates": [ -79.25, 42.75 ] } },
{ "type": "Feature", "properties": { "humidity@500m": 13.586279691579, "lapserate": 0.0053591495, "timestamp": "20240716T14" }, "geometry": { "type": "Point", "coordinates": [ -79.25, 43.0 ] } },
{ "type": "Feature", "properties": { "humidity@500m": 13.855995573409279, "lapserate": 0.0053675971, "timestamp": "20240716T14" }, "geometry": { "type": "Point", "coordinates": [ -79.25, 43.25 ] } },
{ "type": "Feature", "properties": { "humidity@500m": 13.528394969313133, "lapserate": 0.0054433309, "timestamp": "20240716T14" }, "geometry": { "type": "Point", "coordinates": [ -79.25, 43.5 ] } },
{ "type": "Feature", "properties": { "humidity@500m": 12.558388168779455, "lapserate": 0.0054929657, "timestamp": "20240716T14" }, "geometry": { "type": "Point", "coordinates": [ -79.25, 43.75 ] } },
{ "type": "Feature", "properties": { "humidity@500m": 12.780705047218666, "lapserate": 0.0054783062, "timestamp": "20240716T14" }, "geometry": { "type": "Point", "coordinates": [ -79.25, 44.0 ] } },
{ "type": "Feature", "properties": { "humidity@500m": 13.395427113730037, "lapserate": 0.0054422985, "timestamp": "20240716T14" }, "geometry": { "type": "Point", "coordinates": [ -79.25, 44.25 ] } },
{ "type": "Feature", "properties": { "humidity@500m": 13.449532273062607, "lapserate": 0.0054645073, "timestamp": "20240716T14" }, "geometry": { "type": "Point", "coordinates": [ -79.25, 44.5 ] } },
{ "type": "Feature", "properties": { "humidity@500m": 13.403536677889996, "lapserate": 0.0055371728, "timestamp": "20240716T14" }, "geometry": { "type": "Point", "coordinates": [ -79.25, 44.75 ] } },
{ "type": "Feature", "properties": { "humidity@500m": 13.221096718415257, "lapserate": 0.0056409445, "timestamp": "20240716T14" }, "geometry": { "type": "Point", "coordinates": [ -79.25, 45.0 ] } },
{ "type": "Feature", "properties": { "humidity@500m": 13.015444441225911, "lapserate": 0.0057931477, "timestamp": "20240716T14" }, "geometry": { "type": "Point", "coordinates": [ -79.25, 45.25 ] } },
{ "type": "Feature", "properties": { "humidity@500m": 13.081540721236355, "lapserate": 0.0059386389, "timestamp": "20240716T14" }, "geometry": { "type": "Point", "coordinates": [ -79.25, 45.5 ] } },
{ "type": "Feature", "properties": { "humidity@500m": 13.374487310713315, "lapserate": 0.0059647574, "timestamp": "20240716T14" }, "geometry": { "type": "Point", "coordinates": [ -79.25, 45.75 ] } },
{ "type": "Feature", "properties": { "humidity@500m": 13.442349608247955, "lapserate": 0.0058686403, "timestamp": "20240716T14" }, "geometry": { "type": "Point", "coordinates": [ -79.25, 46.0 ] } },
{ "type": "Feature", "properties": { "humidity@500m": 12.690899753127374, "lapserate": 0.0063562258, "timestamp": "20240716T14" }, "geometry": { "type": "Point", "coordinates": [ -79.0, 41.0 ] } },
{ "type": "Feature", "properties": { "humidity@500m": 12.976298639217484, "lapserate": 0.0061427155, "timestamp": "20240716T14" }, "geometry": { "type": "Point", "coordinates": [ -79.0, 41.25 ] } },
{ "type": "Feature", "properties": { "humidity@500m": 13.017974861470371, "lapserate": 0.0059950077, "timestamp": "20240716T14" }, "geometry": { "type": "Point", "coordinates": [ -79.0, 41.5 ] } },
{ "type": "Feature", "properties": { "humidity@500m": 13.088753226834296, "lapserate": 0.0058884672, "timestamp": "20240716T14" }, "geometry": { "type": "Point", "coordinates": [ -79.0, 41.75 ] } },
{ "type": "Feature", "properties": { "humidity@500m": 13.155149232167105, "lapserate": 0.0058570122, "timestamp": "20240716T14" }, "geometry": { "type": "Point", "coordinates": [ -79.0, 42.0 ] } },
{ "type": "Feature", "properties": { "humidity@500m": 13.096531448693389, "lapserate": 0.005880353, "timestamp": "20240716T14" }, "geometry": { "type": "Point", "coordinates": [ -79.0, 42.25 ] } },
{ "type": "Feature", "properties": { "humidity@500m": 13.020040443976059, "lapserate": 0.0058254888, "timestamp": "20240716T14" }, "geometry": { "type": "Point", "coordinates": [ -79.0, 42.5 ] } },
{ "type": "Feature", "properties": { "humidity@500m": 13.132744023947367, "lapserate": 0.0056943917, "timestamp": "20240716T14" }, "geometry": { "type": "Point", "coordinates": [ -79.0, 42.75 ] } },
{ "type": "Feature", "properties": { "humidity@500m": 13.501033567116052, "lapserate": 0.0055957539, "timestamp": "20240716T14" }, "geometry": { "type": "Point", "coordinates": [ -79.0, 43.0 ] } },
{ "type": "Feature", "properties": { "humidity@500m": 13.654429547622273, "lapserate": 0.0056103715, "timestamp": "20240716T14" }, "geometry": { "type": "Point", "coordinates": [ -79.0, 43.25 ] } },
{ "type": "Feature", "properties": { "humidity@500m": 13.34124955716182, "lapserate": 0.0056648231, "timestamp": "20240716T14" }, "geometry": { "type": "Point", "coordinates": [ -79.0, 43.5 ] } },
{ "type": "Feature", "properties": { "humidity@500m": 12.537615627745804, "lapserate": 0.0056741792, "timestamp": "20240716T14" }, "geometry": { "type": "Point", "coordinates": [ -79.0, 43.75 ] } },
{ "type": "Feature", "properties": { "humidity@500m": 12.401025928687147, "lapserate": 0.005664614, "timestamp": "20240716T14" }, "geometry": { "type": "Point", "coordinates": [ -79.0, 44.0 ] } },
{ "type": "Feature", "properties": { "humidity@500m": 13.203600790711157, "lapserate": 0.0056516752, "timestamp": "20240716T14" }, "geometry": { "type": "Point", "coordinates": [ -79.0, 44.25 ] } },
{ "type": "Feature", "properties": { "humidity@500m": 13.374233411726017, "lapserate": 0.0056386506, "timestamp": "20240716T14" }, "geometry": { "type": "Point", "coordinates": [ -79.0, 44.5 ] } },
{ "type": "Feature", "properties": { "humidity@500m": 13.306131959415033, "lapserate": 0.0056234663, "timestamp": "20240716T14" }, "geometry": { "type": "Point", "coordinates": [ -79.0, 44.75 ] } },
{ "type": "Feature", "properties": { "humidity@500m": 12.929999967432773, "lapserate": 0.0056435522, "timestamp": "20240716T14" }, "geometry": { "type": "Point", "coordinates": [ -79.0, 45.0 ] } },
{ "type": "Feature", "properties": { "humidity@500m": 12.742751029023928, "lapserate": 0.0057602949, "timestamp": "20240716T14" }, "geometry": { "type": "Point", "coordinates": [ -79.0, 45.25 ] } },
{ "type": "Feature", "properties": { "humidity@500m": 12.907349393572316, "lapserate": 0.0059203161, "timestamp": "20240716T14" }, "geometry": { "type": "Point", "coordinates": [ -79.0, 45.5 ] } },
{ "type": "Feature", "properties": { "humidity@500m": 13.274113893101356, "lapserate": 0.0059815547, "timestamp": "20240716T14" }, "geometry": { "type": "Point", "coordinates": [ -79.0, 45.75 ] } },
{ "type": "Feature", "properties": { "humidity@500m": 13.340461802238849, "lapserate": 0.0059130755, "timestamp": "20240716T14" }, "geometry": { "type": "Point", "coordinates": [ -79.0, 46.0 ] } },
{ "type": "Feature", "properties": { "humidity@500m": 12.54840967424157, "lapserate": 0.0065341974, "timestamp": "20240716T14" }, "geometry": { "type": "Point", "coordinates": [ -78.75, 41.0 ] } },
{ "type": "Feature", "properties": { "humidity@500m": 12.8476020555968, "lapserate": 0.0063591176, "timestamp": "20240716T14" }, "geometry": { "type": "Point", "coordinates": [ -78.75, 41.25 ] } },
{ "type": "Feature", "properties": { "humidity@500m": 12.958694595021223, "lapserate": 0.0062587294, "timestamp": "20240716T14" }, "geometry": { "type": "Point", "coordinates": [ -78.75, 41.5 ] } },
{ "type": "Feature", "properties": { "humidity@500m": 13.035696264971415, "lapserate": 0.0061973617, "timestamp": "20240716T14" }, "geometry": { "type": "Point", "coordinates": [ -78.75, 41.75 ] } },
{ "type": "Feature", "properties": { "humidity@500m": 13.1015757814257, "lapserate": 0.0061722212, "timestamp": "20240716T14" }, "geometry": { "type": "Point", "coordinates": [ -78.75, 42.0 ] } },
{ "type": "Feature", "properties": { "humidity@500m": 13.041712834777691, "lapserate": 0.0061415634, "timestamp": "20240716T14" }, "geometry": { "type": "Point", "coordinates": [ -78.75, 42.25 ] } },
{ "type": "Feature", "properties": { "humidity@500m": 12.967691129880853, "lapserate": 0.0060519041, "timestamp": "20240716T14" }, "geometry": { "type": "Point", "coordinates": [ -78.75, 42.5 ] } },
{ "type": "Feature", "properties": { "humidity@500m": 13.117389986170005, "lapserate": 0.0059848242, "timestamp": "20240716T14" }, "geometry": { "type": "Point", "coordinates": [ -78.75, 42.75 ] } },
{ "type": "Feature", "properties": { "humidity@500m": 13.448798623630118, "lapserate": 0.0059319427, "timestamp": "20240716T14" }, "geometry": { "type": "Point", "coordinates": [ -78.75, 43.0 ] } },
{ "type": "Feature", "properties": { "humidity@500m": 13.774242711625796, "lapserate": 0.0058936207, "timestamp": "20240716T14" }, "geometry": { "type": "Point", "coordinates": [ -78.75, 43.25 ] } },
{ "type": "Feature", "properties": { "humidity@500m": 13.154485674583967, "lapserate": 0.0058745933, "timestamp": "20240716T14" }, "geometry": { "type": "Point", "coordinates": [ -78.75, 43.5 ] } },
{ "type": "Feature", "properties": { "humidity@500m": 12.60759470659171, "lapserate": 0.005829786, "timestamp": "20240716T14" }, "geometry": { "type": "Point", "coordinates": [ -78.75, 43.75 ] } },
{ "type": "Feature", "properties": { "humidity@500m": 12.245155646216142, "lapserate": 0.0058017173, "timestamp": "20240716T14" }, "geometry": { "type": "Point", "coordinates": [ -78.75, 44.0 ] } },
{ "type": "Feature", "properties": { "humidity@500m": 12.896094161431325, "lapserate": 0.0058092047, "timestamp": "20240716T14" }, "geometry": { "type": "Point", "coordinates": [ -78.75, 44.25 ] } },
{ "type": "Feature", "properties": { "humidity@500m": 13.224508555154177, "lapserate": 0.005804521, "timestamp": "20240716T14" }, "geometry": { "type": "Point", "coordinates": [ -78.75, 44.5 ] } },
{ "type": "Feature", "properties": { "humidity@500m": 13.12248636610931, "lapserate": 0.0057488452, "timestamp": "20240716T14" }, "geometry": { "type": "Point", "coordinates": [ -78.75, 44.75 ] } },
{ "type": "Feature", "properties": { "humidity@500m": 12.760199919962817, "lapserate": 0.005692808, "timestamp": "20240716T14" }, "geometry": { "type": "Point", "coordinates": [ -78.75, 45.0 ] } },
{ "type": "Feature", "properties": { "humidity@500m": 12.600989554481458, "lapserate": 0.0057510808, "timestamp": "20240716T14" }, "geometry": { "type": "Point", "coordinates": [ -78.75, 45.25 ] } },
{ "type": "Feature", "properties": { "humidity@500m": 12.85457293320537, "lapserate": 0.005906383, "timestamp": "20240716T14" }, "geometry": { "type": "Point", "coordinates": [ -78.75, 45.5 ] } },
{ "type": "Feature", "properties": { "humidity@500m": 13.162080824844292, "lapserate": 0.0059966226, "timestamp": "20240716T14" }, "geometry": { "type": "Point", "coordinates": [ -78.75, 45.75 ] } },
{ "type": "Feature", "properties": { "humidity@500m": 13.272709723378886, "lapserate": 0.005950958, "timestamp": "20240716T14" }, "geometry": { "type": "Point", "coordinates": [ -78.75, 46.0 ] } },
{ "type": "Feature", "properties": { "humidity@500m": 12.511502434275652, "lapserate": 0.0066824835, "timestamp": "20240716T14" }, "geometry": { "type": "Point", "coordinates": [ -78.5, 41.0 ] } },
{ "type": "Feature", "properties": { "humidity@500m": 12.769124374344146, "lapserate": 0.0065739732, "timestamp": "20240716T14" }, "geometry": { "type": "Point", "coordinates": [ -78.5, 41.25 ] } },
{ "type": "Feature", "properties": { "humidity@500m": 12.916766259999452, "lapserate": 0.0065060887, "timestamp": "20240716T14" }, "geometry": { "type": "Point", "coordinates": [ -78.5, 41.5 ] } },
{ "type": "Feature", "properties": { "humidity@500m": 13.102382874636053, "lapserate": 0.0064580413, "timestamp": "20240716T14" }, "geometry": { "type": "Point", "coordinates": [ -78.5, 41.75 ] } },
{ "type": "Feature", "properties": { "humidity@500m": 13.122221991679531, "lapserate": 0.0064404989, "timestamp": "20240716T14" }, "geometry": { "type": "Point", "coordinates": [ -78.5, 42.0 ] } },
{ "type": "Feature", "properties": { "humidity@500m": 13.020567658045147, "lapserate": 0.0064002285, "timestamp": "20240716T14" }, "geometry": { "type": "Point", "coordinates": [ -78.5, 42.25 ] } },
{ "type": "Feature", "properties": { "humidity@500m": 12.850919535995256, "lapserate": 0.0063204532, "timestamp": "20240716T14" }, "geometry": { "type": "Point", "coordinates": [ -78.5, 42.5 ] } },
{ "type": "Feature", "properties": { "humidity@500m": 13.39425807378667, "lapserate": 0.0062907343, "timestamp": "20240716T14" }, "geometry": { "type": "Point", "coordinates": [ -78.5, 42.75 ] } },
{ "type": "Feature", "properties": { "humidity@500m": 13.518782428324824, "lapserate": 0.0062495256, "timestamp": "20240716T14" }, "geometry": { "type": "Point", "coordinates": [ -78.5, 43.0 ] } },
{ "type": "Feature", "properties": { "humidity@500m": 13.718444943375189, "lapserate": 0.0061627743, "timestamp": "20240716T14" }, "geometry": { "type": "Point", "coordinates": [ -78.5, 43.25 ] } },
{ "type": "Feature", "properties": { "humidity@500m": 13.098542500394792, "lapserate": 0.0060716122, "timestamp": "20240716T14" }, "geometry": { "type": "Point", "coordinates": [ -78.5, 43.5 ] } },
{ "type": "Feature", "properties": { "humidity@500m": 12.734414681657144, "lapserate": 0.0059651388, "timestamp": "20240716T14" }, "geometry": { "type": "Point", "coordinates": [ -78.5, 43.75 ] } },
{ "type": "Feature", "properties": { "humidity@500m": 12.581239586472266, "lapserate": 0.0058955993, "timestamp": "20240716T14" }, "geometry": { "type": "Point", "coordinates": [ -78.5, 44.0 ] } },
{ "type": "Feature", "properties": { "humidity@500m": 13.257164750093281, "lapserate": 0.0058913832, "timestamp": "20240716T14" }, "geometry": { "type": "Point", "coordinates": [ -78.5, 44.25 ] } },
{ "type": "Feature", "properties": { "humidity@500m": 13.595711931112751, "lapserate": 0.0058953897, "timestamp": "20240716T14" }, "geometry": { "type": "Point", "coordinates": [ -78.5, 44.5 ] } },
{ "type": "Feature", "properties": { "humidity@500m": 13.135347997303278, "lapserate": 0.0058378708, "timestamp": "20240716T14" }, "geometry": { "type": "Point", "coordinates": [ -78.5, 44.75 ] } },
{ "type": "Feature", "properties": { "humidity@500m": 12.816380024195709, "lapserate": 0.0057469406, "timestamp": "20240716T14" }, "geometry": { "type": "Point", "coordinates": [ -78.5, 45.0 ] } },
{ "type": "Feature", "properties": { "humidity@500m": 12.634016528015216, "lapserate": 0.0057587107, "timestamp": "20240716T14" }, "geometry": { "type": "Point", "coordinates": [ -78.5, 45.25 ] } },
{ "type": "Feature", "properties": { "humidity@500m": 12.771865124755987, "lapserate": 0.0058970298, "timestamp": "20240716T14" }, "geometry": { "type": "Point", "coordinates": [ -78.5, 45.5 ] } },
{ "type": "Feature", "properties": { "humidity@500m": 13.151099378478339, "lapserate": 0.0060011609, "timestamp": "20240716T14" }, "geometry": { "type": "Point", "coordinates": [ -78.5, 45.75 ] } },
{ "type": "Feature", "properties": { "humidity@500m": 13.220644503691993, "lapserate": 0.0059721558, "timestamp": "20240716T14" }, "geometry": { "type": "Point", "coordinates": [ -78.5, 46.0 ] } },
{ "type": "Feature", "properties": { "humidity@500m": 12.627421115193251, "lapserate": 0.0067450712, "timestamp": "20240716T14" }, "geometry": { "type": "Point", "coordinates": [ -78.25, 41.0 ] } },
{ "type": "Feature", "properties": { "humidity@500m": 12.765467498666608, "lapserate": 0.0066921124, "timestamp": "20240716T14" }, "geometry": { "type": "Point", "coordinates": [ -78.25, 41.25 ] } },
{ "type": "Feature", "properties": { "humidity@500m": 12.937140030091749, "lapserate": 0.0066533992, "timestamp": "20240716T14" }, "geometry": { "type": "Point", "coordinates": [ -78.25, 41.5 ] } },
{ "type": "Feature", "properties": { "humidity@500m": 13.044105602951047, "lapserate": 0.0066232979, "timestamp": "20240716T14" }, "geometry": { "type": "Point", "coordinates": [ -78.25, 41.75 ] } },
{ "type": "Feature", "properties": { "humidity@500m": 13.109268600827379, "lapserate": 0.006639496, "timestamp": "20240716T14" }, "geometry": { "type": "Point", "coordinates": [ -78.25, 42.0 ] } },
{ "type": "Feature", "properties": { "humidity@500m": 13.002812466268203, "lapserate": 0.0066488967, "timestamp": "20240716T14" }, "geometry": { "type": "Point", "coordinates": [ -78.25, 42.25 ] } },
{ "type": "Feature", "properties": { "humidity@500m": 12.921161622406865, "lapserate": 0.0066006319, "timestamp": "20240716T14" }, "geometry": { "type": "Point", "coordinates": [ -78.25, 42.5 ] } },
{ "type": "Feature", "properties": { "humidity@500m": 13.49593543842769, "lapserate": 0.0065376423, "timestamp": "20240716T14" }, "geometry": { "type": "Point", "coordinates": [ -78.25, 42.75 ] } },
{ "type": "Feature", "properties": { "humidity@500m": 13.791380577230948, "lapserate": 0.0064484878, "timestamp": "20240716T14" }, "geometry": { "type": "Point", "coordinates": [ -78.25, 43.0 ] } },
{ "type": "Feature", "properties": { "humidity@500m": 13.62858247841063, "lapserate": 0.0063323751, "timestamp": "20240716T14" }, "geometry": { "type": "Point", "coordinates": [ -78.25, 43.25 ] } },
{ "type": "Feature", "properties": { "humidity@500m": 12.99857543535939, "lapserate": 0.0061923773, "timestamp": "20240716T14" }, "geometry": { "type": "Point", "coordinates": [ -78.25, 43.5 ] } },
{ "type": "Feature", "properties": { "humidity@500m": 12.804566912953575, "lapserate": 0.0060339882, "timestamp": "20240716T14" }, "geometry": { "type": "Point", "coordinates": [ -78.25, 43.75 ] } },
{ "type": "Feature", "properties": { "humidity@500m": 12.862333455997812, "lapserate": 0.005926515, "timestamp": "20240716T14" }, "geometry": { "type": "Point", "coordinates": [ -78.25, 44.0 ] } },
{ "type": "Feature", "properties": { "humidity@500m": 13.770649818329433, "lapserate": 0.0058955816, "timestamp": "20240716T14" }, "geometry": { "type": "Point", "coordinates": [ -78.25, 44.25 ] } },
{ "type": "Feature", "properties": { "humidity@500m": 13.824589981256432, "lapserate": 0.0058962437, "timestamp": "20240716T14" }, "geometry": { "type": "Point", "coordinates": [ -78.25, 44.5 ] } },
{ "type": "Feature", "properties": { "humidity@500m": 13.305446343690377, "lapserate": 0.0058537112, "timestamp": "20240716T14" }, "geometry": { "type": "Point", "coordinates": [ -78.25, 44.75 ] } },
{ "type": "Feature", "properties": { "humidity@500m": 12.936288684197221, "lapserate": 0.0057711848, "timestamp": "20240716T14" }, "geometry": { "type": "Point", "coordinates": [ -78.25, 45.0 ] } },
{ "type": "Feature", "properties": { "humidity@500m": 12.8018073588365, "lapserate": 0.0057758279, "timestamp": "20240716T14" }, "geometry": { "type": "Point", "coordinates": [ -78.25, 45.25 ] } },
{ "type": "Feature", "properties": { "humidity@500m": 12.894893162779509, "lapserate": 0.0059042014, "timestamp": "20240716T14" }, "geometry": { "type": "Point", "coordinates": [ -78.25, 45.5 ] } },
{ "type": "Feature", "properties": { "humidity@500m": 13.123109888249125, "lapserate": 0.0060079996, "timestamp": "20240716T14" }, "geometry": { "type": "Point", "coordinates": [ -78.25, 45.75 ] } },
{ "type": "Feature", "properties": { "humidity@500m": 13.209491136568662, "lapserate": 0.0059879515, "timestamp": "20240716T14" }, "geometry": { "type": "Point", "coordinates": [ -78.25, 46.0 ] } },
{ "type": "Feature", "properties": { "humidity@500m": 12.584423209829009, "lapserate": 0.0067259171, "timestamp": "20240716T14" }, "geometry": { "type": "Point", "coordinates": [ -78.0, 41.0 ] } },
{ "type": "Feature", "properties": { "humidity@500m": 12.800620169569891, "lapserate": 0.0067053908, "timestamp": "20240716T14" }, "geometry": { "type": "Point", "coordinates": [ -78.0, 41.25 ] } },
{ "type": "Feature", "properties": { "humidity@500m": 12.959226275823745, "lapserate": 0.006693684, "timestamp": "20240716T14" }, "geometry": { "type": "Point", "coordinates": [ -78.0, 41.5 ] } },
{ "type": "Feature", "properties": { "humidity@500m": 13.024952807957087, "lapserate": 0.0067072972, "timestamp": "20240716T14" }, "geometry": { "type": "Point", "coordinates": [ -78.0, 41.75 ] } },
{ "type": "Feature", "properties": { "humidity@500m": 13.108234263354497, "lapserate": 0.0067662788, "timestamp": "20240716T14" }, "geometry": { "type": "Point", "coordinates": [ -78.0, 42.0 ] } },
{ "type": "Feature", "properties": { "humidity@500m": 13.070710075481211, "lapserate": 0.0068142964, "timestamp": "20240716T14" }, "geometry": { "type": "Point", "coordinates": [ -78.0, 42.25 ] } },
{ "type": "Feature", "properties": { "humidity@500m": 12.98458037620669, "lapserate": 0.0067964545, "timestamp": "20240716T14" }, "geometry": { "type": "Point", "coordinates": [ -78.0, 42.5 ] } },
{ "type": "Feature", "properties": { "humidity@500m": 13.652905007741504, "lapserate": 0.0066987304, "timestamp": "20240716T14" }, "geometry": { "type": "Point", "coordinates": [ -78.0, 42.75 ] } },
{ "type": "Feature", "properties": { "humidity@500m": 13.731201791781967, "lapserate": 0.0065552057, "timestamp": "20240716T14" }, "geometry": { "type": "Point", "coordinates": [ -78.0, 43.0 ] } },
{ "type": "Feature", "properties": { "humidity@500m": 13.676267722085552, "lapserate": 0.0064089457, "timestamp": "20240716T14" }, "geometry": { "type": "Point", "coordinates": [ -78.0, 43.25 ] } },
{ "type": "Feature", "properties": { "humidity@500m": 13.022400272835972, "lapserate": 0.0062353346, "timestamp": "20240716T14" }, "geometry": { "type": "Point", "coordinates": [ -78.0, 43.5 ] } },
{ "type": "Feature", "properties": { "humidity@500m": 12.898799306448774, "lapserate": 0.0060487473, "timestamp": "20240716T14" }, "geometry": { "type": "Point", "coordinates": [ -78.0, 43.75 ] } },
{ "type": "Feature", "properties": { "humidity@500m": 13.028323206418287, "lapserate": 0.0059168162, "timestamp": "20240716T14" }, "geometry": { "type": "Point", "coordinates": [ -78.0, 44.0 ] } },
{ "type": "Feature", "properties": { "humidity@500m": 14.362651934797359, "lapserate": 0.0058598835, "timestamp": "20240716T14" }, "geometry": { "type": "Point", "coordinates": [ -78.0, 44.25 ] } },
{ "type": "Feature", "properties": { "humidity@500m": 14.012034225576102, "lapserate": 0.0058460324, "timestamp": "20240716T14" }, "geometry": { "type": "Point", "coordinates": [ -78.0, 44.5 ] } },
{ "type": "Feature", "properties": { "humidity@500m": 13.554065452364132, "lapserate": 0.0058095199, "timestamp": "20240716T14" }, "geometry": { "type": "Point", "coordinates": [ -78.0, 44.75 ] } },
{ "type": "Feature", "properties": { "humidity@500m": 13.095049057095249, "lapserate": 0.0057559833, "timestamp": "20240716T14" }, "geometry": { "type": "Point", "coordinates": [ -78.0, 45.0 ] } },
{ "type": "Feature", "properties": { "humidity@500m": 12.850906742914828, "lapserate": 0.005785394, "timestamp": "20240716T14" }, "geometry": { "type": "Point", "coordinates": [ -78.0, 45.25 ] } },
{ "type": "Feature", "properties": { "humidity@500m": 12.908600761047255, "lapserate": 0.0059170802, "timestamp": "20240716T14" }, "geometry": { "type": "Point", "coordinates": [ -78.0, 45.5 ] } },
{ "type": "Feature", "properties": { "humidity@500m": 13.166239162751864, "lapserate": 0.0060099391, "timestamp": "20240716T14" }, "geometry": { "type": "Point", "coordinates": [ -78.0, 45.75 ] } },
{ "type": "Feature", "properties": { "humidity@500m": 13.297127659812258, "lapserate": 0.0059850002, "timestamp": "20240716T14" }, "geometry": { "type": "Point", "coordinates": [ -78.0, 46.0 ] } },
{ "type": "Feature", "properties": { "humidity@500m": 12.578685912913079, "lapserate": 0.0066534141, "timestamp": "20240716T14" }, "geometry": { "type": "Point", "coordinates": [ -77.75, 41.0 ] } },
{ "type": "Feature", "properties": { "humidity@500m": 12.879127176453215, "lapserate": 0.0066621276, "timestamp": "20240716T14" }, "geometry": { "type": "Point", "coordinates": [ -77.75, 41.25 ] } },
{ "type": "Feature", "properties": { "humidity@500m": 13.09870253233003, "lapserate": 0.0066786027, "timestamp": "20240716T14" }, "geometry": { "type": "Point", "coordinates": [ -77.75, 41.5 ] } },
{ "type": "Feature", "properties": { "humidity@500m": 13.035127597422711, "lapserate": 0.0067502097, "timestamp": "20240716T14" }, "geometry": { "type": "Point", "coordinates": [ -77.75, 41.75 ] } },
{ "type": "Feature", "properties": { "humidity@500m": 13.126900634528337, "lapserate": 0.0068473346, "timestamp": "20240716T14" }, "geometry": { "type": "Point", "coordinates": [ -77.75, 42.0 ] } },
{ "type": "Feature", "properties": { "humidity@500m": 13.191734940637017, "lapserate": 0.0068967473, "timestamp": "20240716T14" }, "geometry": { "type": "Point", "coordinates": [ -77.75, 42.25 ] } },
{ "type": "Feature", "properties": { "humidity@500m": 13.047390850239941, "lapserate": 0.0068802759, "timestamp": "20240716T14" }, "geometry": { "type": "Point", "coordinates": [ -77.75, 42.5 ] } },
{ "type": "Feature", "properties": { "humidity@500m": 13.708621545220648, "lapserate": 0.0067754863, "timestamp": "20240716T14" }, "geometry": { "type": "Point", "coordinates": [ -77.75, 42.75 ] } },
{ "type": "Feature", "properties": { "humidity@500m": 13.666244194026854, "lapserate": 0.0066091483, "timestamp": "20240716T14" }, "geometry": { "type": "Point", "coordinates": [ -77.75, 43.0 ] } },
{ "type": "Feature", "properties": { "humidity@500m": 13.557711068167968, "lapserate": 0.0064361501, "timestamp": "20240716T14" }, "geometry": { "type": "Point", "coordinates": [ -77.75, 43.25 ] } },
{ "type": "Feature", "properties": { "humidity@500m": 13.018229074642486, "lapserate": 0.006244706, "timestamp": "20240716T14" }, "geometry": { "type": "Point", "coordinates": [ -77.75, 43.5 ] } },
{ "type": "Feature", "properties": { "humidity@500m": 12.911118687530276, "lapserate": 0.0060478677, "timestamp": "20240716T14" }, "geometry": { "type": "Point", "coordinates": [ -77.75, 43.75 ] } },
{ "type": "Feature", "properties": { "humidity@500m": 13.078939737213007, "lapserate": 0.005892382, "timestamp": "20240716T14" }, "geometry": { "type": "Point", "coordinates": [ -77.75, 44.0 ] } },
{ "type": "Feature", "properties": { "humidity@500m": 14.175273095247627, "lapserate": 0.0058085825, "timestamp": "20240716T14" }, "geometry": { "type": "Point", "coordinates": [ -77.75, 44.25 ] } },
{ "type": "Feature", "properties": { "humidity@500m": 14.129363439575851, "lapserate": 0.0057749194, "timestamp": "20240716T14" }, "geometry": { "type": "Point", "coordinates": [ -77.75, 44.5 ] } },
{ "type": "Feature", "properties": { "humidity@500m": 13.811511945940522, "lapserate": 0.0057396269, "timestamp": "20240716T14" }, "geometry": { "type": "Point", "coordinates": [ -77.75, 44.75 ] } },
{ "type": "Feature", "properties": { "humidity@500m": 13.425536088845707, "lapserate": 0.0057192175, "timestamp": "20240716T14" }, "geometry": { "type": "Point", "coordinates": [ -77.75, 45.0 ] } },
{ "type": "Feature", "properties": { "humidity@500m": 13.166304096489524, "lapserate": 0.0057797167, "timestamp": "20240716T14" }, "geometry": { "type": "Point", "coordinates": [ -77.75, 45.25 ] } },
{ "type": "Feature", "properties": { "humidity@500m": 13.189784159140718, "lapserate": 0.005916805, "timestamp": "20240716T14" }, "geometry": { "type": "Point", "coordinates": [ -77.75, 45.5 ] } },
{ "type": "Feature", "properties": { "humidity@500m": 13.427168357052128, "lapserate": 0.0059966915, "timestamp": "20240716T14" }, "geometry": { "type": "Point", "coordinates": [ -77.75, 45.75 ] } },
{ "type": "Feature", "properties": { "humidity@500m": 13.525364594352142, "lapserate": 0.0059601269, "timestamp": "20240716T14" }, "geometry": { "type": "Point", "coordinates": [ -77.75, 46.0 ] } },
{ "type": "Feature", "properties": { "humidity@500m": 12.714932310205601, "lapserate": 0.0065498254, "timestamp": "20240716T14" }, "geometry": { "type": "Point", "coordinates": [ -77.5, 41.0 ] } },
{ "type": "Feature", "properties": { "humidity@500m": 13.040961826424379, "lapserate": 0.0065715532, "timestamp": "20240716T14" }, "geometry": { "type": "Point", "coordinates": [ -77.5, 41.25 ] } },
{ "type": "Feature", "properties": { "humidity@500m": 13.287758729771429, "lapserate": 0.0066125738, "timestamp": "20240716T14" }, "geometry": { "type": "Point", "coordinates": [ -77.5, 41.5 ] } },
{ "type": "Feature", "properties": { "humidity@500m": 13.285621462234273, "lapserate": 0.006731343, "timestamp": "20240716T14" }, "geometry": { "type": "Point", "coordinates": [ -77.5, 41.75 ] } },
{ "type": "Feature", "properties": { "humidity@500m": 13.452236392028961, "lapserate": 0.0068641528, "timestamp": "20240716T14" }, "geometry": { "type": "Point", "coordinates": [ -77.5, 42.0 ] } },
{ "type": "Feature", "properties": { "humidity@500m": 13.379736316460214, "lapserate": 0.0069189142, "timestamp": "20240716T14" }, "geometry": { "type": "Point", "coordinates": [ -77.5, 42.25 ] } },
{ "type": "Feature", "properties": { "humidity@500m": 13.117075275845787, "lapserate": 0.0068832021, "timestamp": "20240716T14" }, "geometry": { "type": "Point", "coordinates": [ -77.5, 42.5 ] } },
{ "type": "Feature", "properties": { "humidity@500m": 13.744934805074625, "lapserate": 0.0067610131, "timestamp": "20240716T14" }, "geometry": { "type": "Point", "coordinates": [ -77.5, 42.75 ] } },
{ "type": "Feature", "properties": { "humidity@500m": 13.665363092290294, "lapserate": 0.0065865559, "timestamp": "20240716T14" }, "geometry": { "type": "Point", "coordinates": [ -77.5, 43.0 ] } },
{ "type": "Feature", "properties": { "humidity@500m": 13.522313160492661, "lapserate": 0.0064004967, "timestamp": "20240716T14" }, "geometry": { "type": "Point", "coordinates": [ -77.5, 43.25 ] } },
{ "type": "Feature", "properties": { "humidity@500m": 12.958007369708081, "lapserate": 0.0062072081, "timestamp": "20240716T14" }, "geometry": { "type": "Point", "coordinates": [ -77.5, 43.5 ] } },
{ "type": "Feature", "properties": { "humidity@500m": 12.798465764300117, "lapserate": 0.0060135797, "timestamp": "20240716T14" }, "geometry": { "type": "Point", "coordinates": [ -77.5, 43.75 ] } },
{ "type": "Feature", "properties": { "humidity@500m": 12.976362618451445, "lapserate": 0.0058438131, "timestamp": "20240716T14" }, "geometry": { "type": "Point", "coordinates": [ -77.5, 44.0 ] } },
{ "type": "Feature", "properties": { "humidity@500m": 14.221130484683586, "lapserate": 0.0057481313, "timestamp": "20240716T14" }, "geometry": { "type": "Point", "coordinates": [ -77.5, 44.25 ] } },
{ "type": "Feature", "properties": { "humidity@500m": 14.348349630867229, "lapserate": 0.0057101445, "timestamp": "20240716T14" }, "geometry": { "type": "Point", "coordinates": [ -77.5, 44.5 ] } },
{ "type": "Feature", "properties": { "humidity@500m": 14.034631651066897, "lapserate": 0.0056896927, "timestamp": "20240716T14" }, "geometry": { "type": "Point", "coordinates": [ -77.5, 44.75 ] } },
{ "type": "Feature", "properties": { "humidity@500m": 13.834921665234997, "lapserate": 0.0057066139, "timestamp": "20240716T14" }, "geometry": { "type": "Point", "coordinates": [ -77.5, 45.0 ] } },
{ "type": "Feature", "properties": { "humidity@500m": 13.573898391768466, "lapserate": 0.0057834424, "timestamp": "20240716T14" }, "geometry": { "type": "Point", "coordinates": [ -77.5, 45.25 ] } },
{ "type": "Feature", "properties": { "humidity@500m": 13.591623541274739, "lapserate": 0.0059123063, "timestamp": "20240716T14" }, "geometry": { "type": "Point", "coordinates": [ -77.5, 45.5 ] } },
{ "type": "Feature", "properties": { "humidity@500m": 13.852790414260886, "lapserate": 0.0059839427, "timestamp": "20240716T14" }, "geometry": { "type": "Point", "coordinates": [ -77.5, 45.75 ] } },
{ "type": "Feature", "properties": { "humidity@500m": 13.798173211142419, "lapserate": 0.0059456006, "timestamp": "20240716T14" }, "geometry": { "type": "Point", "coordinates": [ -77.5, 46.0 ] } },
{ "type": "Feature", "properties": { "humidity@500m": 13.049518080303205, "lapserate": 0.0064293514, "timestamp": "20240716T14" }, "geometry": { "type": "Point", "coordinates": [ -77.25, 41.0 ] } },
{ "type": "Feature", "properties": { "humidity@500m": 13.286990895541299, "lapserate": 0.0064313724, "timestamp": "20240716T14" }, "geometry": { "type": "Point", "coordinates": [ -77.25, 41.25 ] } },
{ "type": "Feature", "properties": { "humidity@500m": 13.420503888494176, "lapserate": 0.0064924862, "timestamp": "20240716T14" }, "geometry": { "type": "Point", "coordinates": [ -77.25, 41.5 ] } },
{ "type": "Feature", "properties": { "humidity@500m": 13.481764796463871, "lapserate": 0.0066371174, "timestamp": "20240716T14" }, "geometry": { "type": "Point", "coordinates": [ -77.25, 41.75 ] } },
{ "type": "Feature", "properties": { "humidity@500m": 13.46096623318992, "lapserate": 0.0067792367, "timestamp": "20240716T14" }, "geometry": { "type": "Point", "coordinates": [ -77.25, 42.0 ] } },
{ "type": "Feature", "properties": { "humidity@500m": 13.29966355470145, "lapserate": 0.0068467283, "timestamp": "20240716T14" }, "geometry": { "type": "Point", "coordinates": [ -77.25, 42.25 ] } },
{ "type": "Feature", "properties": { "humidity@500m": 13.335013335751958, "lapserate": 0.0067952652, "timestamp": "20240716T14" }, "geometry": { "type": "Point", "coordinates": [ -77.25, 42.5 ] } },
{ "type": "Feature", "properties": { "humidity@500m": 13.839054469995023, "lapserate": 0.0066455165, "timestamp": "20240716T14" }, "geometry": { "type": "Point", "coordinates": [ -77.25, 42.75 ] } },
{ "type": "Feature", "properties": { "humidity@500m": 13.733167547533572, "lapserate": 0.0064670476, "timestamp": "20240716T14" }, "geometry": { "type": "Point", "coordinates": [ -77.25, 43.0 ] } },
{ "type": "Feature", "properties": { "humidity@500m": 13.468395333009434, "lapserate": 0.0062824092, "timestamp": "20240716T14" }, "geometry": { "type": "Point", "coordinates": [ -77.25, 43.25 ] } },
{ "type": "Feature", "properties": { "humidity@500m": 12.816168084854665, "lapserate": 0.006105199, "timestamp": "20240716T14" }, "geometry": { "type": "Point", "coordinates": [ -77.25, 43.5 ] } },
{ "type": "Feature", "properties": { "humidity@500m": 12.606292187223005, "lapserate": 0.0059391805, "timestamp": "20240716T14" }, "geometry": { "type": "Point", "coordinates": [ -77.25, 43.75 ] } },
{ "type": "Feature", "properties": { "humidity@500m": 12.780140397174446, "lapserate": 0.0057871332, "timestamp": "20240716T14" }, "geometry": { "type": "Point", "coordinates": [ -77.25, 44.0 ] } },
{ "type": "Feature", "properties": { "humidity@500m": 14.430036178134815, "lapserate": 0.0057046572, "timestamp": "20240716T14" }, "geometry": { "type": "Point", "coordinates": [ -77.25, 44.25 ] } },
{ "type": "Feature", "properties": { "humidity@500m": 14.592951169009945, "lapserate": 0.0056875041, "timestamp": "20240716T14" }, "geometry": { "type": "Point", "coordinates": [ -77.25, 44.5 ] } },
{ "type": "Feature", "properties": { "humidity@500m": 14.403782828472469, "lapserate": 0.0056946259, "timestamp": "20240716T14" }, "geometry": { "type": "Point", "coordinates": [ -77.25, 44.75 ] } },
{ "type": "Feature", "properties": { "humidity@500m": 14.229351190652341, "lapserate": 0.0057374206, "timestamp": "20240716T14" }, "geometry": { "type": "Point", "coordinates": [ -77.25, 45.0 ] } },
{ "type": "Feature", "properties": { "humidity@500m": 14.103888575562706, "lapserate": 0.0058100261, "timestamp": "20240716T14" }, "geometry": { "type": "Point", "coordinates": [ -77.25, 45.25 ] } },
{ "type": "Feature", "properties": { "humidity@500m": 14.153091090569596, "lapserate": 0.005914981, "timestamp": "20240716T14" }, "geometry": { "type": "Point", "coordinates": [ -77.25, 45.5 ] } },
{ "type": "Feature", "properties": { "humidity@500m": 14.16240768090513, "lapserate": 0.0059818202, "timestamp": "20240716T14" }, "geometry": { "type": "Point", "coordinates": [ -77.25, 45.75 ] } },
{ "type": "Feature", "properties": { "humidity@500m": 14.021376714192648, "lapserate": 0.0059551289, "timestamp": "20240716T14" }, "geometry": { "type": "Point", "coordinates": [ -77.25, 46.0 ] } }
]
}
