{
"type": "FeatureCollection",
"name": "geojson_cape_points_20240716T14",
"crs": { "type": "name", "properties": { "name": "urn:ogc:def:crs:OGC:1.3:CRS84" } },
"features": [
{ "type": "Feature", "properties": { "cape": 0.0, "timestamp": "20240716T14" }, "geometry": { "type": "Point", "coordinates": [ -82.25, 41.0 ] } },
{ "type": "Feature", "properties": { "cape": 0.0, "timestamp": "20240716T14" }, "geometry": { "type": "Point", "coordinates": [ -82.25, 41.25 ] } },
{ "type": "Feature", "properties": { "cape": 0.0, "timestamp": "20240716T14" }, "geometry": { "type": "Point", "coordinates": [ -82.25, 41.5 ] } },
{ "type": "Feature", "properties": { "cape": 0.0, "timestamp": "20240716T14" }, "geometry": { "type": "Point", "coordinates": [ -82.25, 41.75 ] } },
{ "type": "Feature", "properties": { "cape": 0.0, "timestamp": "20240716T14" }, "geometry": { "type": "Point", "coordinates": [ -82.25, 42.0 ] } },
{ "type": "Feature", "properties": { "cape": 0.0, "timestamp": "20240716T14" }, "geometry": { "type": "Point", "coordinates": [ -82.25, 42.25 ] } },
{ "type": "Feature", "properties": { "cape": 0.0, "timestamp": "20240716T14" }, "geometry": { "type": "Point", "coordinates": [ -82.25, 42.5 ] } },
{ "type": "Feature", "properties": { "cape": 0.0, "timestamp": "20240716T14" }, "geometry": { "type": "Point", "coordinates": [ -82.25, 42.75 ] } },
{ "type": "Feature", "properties": { "cape": 1.0, "timestamp": "20240716T14" }, "geometry": { "type": "Point", "coordinates": [ -82.25, 43.0 ] } },
{ "type": "Feature", "properties": { "cape": 9.25, "timestamp": "20240716T14" }, "geometry": { "type": "Point", "coordinates": [ -82.25, 43.25 ] } },
{ "type": "Feature", "properties": { "cape": 16.0, "timestamp": "20240716T14" }, "geometry": { "type": "Point", "coordinates": [ -82.25, 43.5 ] } },
{ "type": "Feature", "properties": { "cape": 124.25, "timestamp": "20240716T14" }, "geometry": { "type": "Point", "coordinates": [ -82.25, 43.75 ] } },
{ "type": "Feature", "properties": { "cape": 287.5, "timestamp": "20240716T14" }, "geometry": { "type": "Point", "coordinates": [ -82.25, 44.0 ] } },
{ "type": "Feature", "properties": { "cape": 295.0, "timestamp": "20240716T14" }, "geometry": { "type": "Point", "coordinates": [ -82.25, 44.25 ] } },
{ "type": "Feature", "properties": { "cape": 488.75, "timestamp": "20240716T14" }, "geometry": { "type": "Point", "coordinates": [ -82.25, 44.5 ] } },
{ "type": "Feature", "properties": { "cape": 468.25, "timestamp": "20240716T14" }, "geometry": { "type": "Point", "coordinates": [ -82.25, 44.75 ] } },
{ "type": "Feature", "properties": { "cape": 150.0, "timestamp": "20240716T14" }, "geometry": { "type": "Point", "coordinates": [ -82.25, 45.0 ] } },
{ "type": "Feature", "properties": { "cape": 60.5, "timestamp": "20240716T14" }, "geometry": { "type": "Point", "coordinates": [ -82.25, 45.25 ] } },
{ "type": "Feature", "properties": { "cape": 64.5, "timestamp": "20240716T14" }, "geometry": { "type": "Point", "coordinates": [ -82.25, 45.5 ] } },
{ "type": "Feature", "properties": { "cape": 21.25, "timestamp": "20240716T14" }, "geometry": { "type": "Point", "coordinates": [ -82.25, 45.75 ] } },
{ "type": "Feature", "properties": { "cape": 7.75, "timestamp": "20240716T14" }, "geometry": { "type": "Point", "coordinates": [ -82.25, 46.0 ] } },
{ "type": "Feature", "properties": { "cape": 0.0, "timestamp": "20240716T14" }, "geometry": { "type": "Point", "coordinates": [ -82.0, 41.0 ] } },
{ "type": "Feature", "properties": { "cape": 0.0, "timestamp": "20240716T14" }, "geometry": { "type": "Point", "coordinates": [ -82.0, 41.25 ] } },
{ "type": "Feature", "properties": { "cape": 0.0, "timestamp": "20240716T14" }, "geometry": { "type": "Point", "coordinates": [ -82.0, 41.5 ] } },
{ "type": "Feature", "properties": { "cape": 0.0, "timestamp": "20240716T14" }, "geometry": { "type": "Point", "coordinates": [ -82.0, 41.75 ] } },
{ "type": "Feature", "properties": { "cape": 0.0, "timestamp": "20240716T14" }, "geometry": { "type": "Point", "coordinates": [ -82.0, 42.0 ] } },
{ "type": "Feature", "properties": { "cape": 0.0, "timestamp": "20240716T14" }, "geometry": { "type": "Point", "coordinates": [ -82.0, 42.25 ] } },
{ "type": "Feature", "properties": { "cape": 0.0, "timestamp": "20240716T14" }, "geometry": { "type": "Point", "coordinates": [ -82.0, 42.5 ] } },
{ "type": "Feature", "properties": { "cape": 0.0, "timestamp": "20240716T14" }, "geometry": { "type": "Point", "coordinates": [ -82.0, 42.75 ] } },
{ "type": "Feature", "properties": { "cape": 1.0, "timestamp": "20240716T14" }, "geometry": { "type": "Point", "coordinates": [ -82.0, 43.0 ] } },
{ "type": "Feature", "properties": { "cape": 1.25, "timestamp": "20240716T14" }, "geometry": { "type": "Point", "coordinates": [ -82.0, 43.25 ] } },
{ "type": "Feature", "properties": { "cape": 8.0, "timestamp": "20240716T14" }, "geometry": { "type": "Point", "coordinates": [ -82.0, 43.5 ] } },
{ "type": "Feature", "properties": { "cape": 36.75, "timestamp": "20240716T14" }, "geometry": { "type": "Point", "coordinates": [ -82.0, 43.75 ] } },
{ "type": "Feature", "properties": { "cape": 170.75, "timestamp": "20240716T14" }, "geometry": { "type": "Point", "coordinates": [ -82.0, 44.0 ] } },
{ "type": "Feature", "properties": { "cape": 210.75, "timestamp": "20240716T14" }, "geometry": { "type": "Point", "coordinates": [ -82.0, 44.25 ] } },
{ "type": "Feature", "properties": { "cape": 291.0, "timestamp": "20240716T14" }, "geometry": { "type": "Point", "coordinates": [ -82.0, 44.5 ] } },
{ "type": "Feature", "properties": { "cape": 293.0, "timestamp": "20240716T14" }, "geometry": { "type": "Point", "coordinates": [ -82.0, 44.75 ] } },
{ "type": "Feature", "properties": { "cape": 176.75, "timestamp": "20240716T14" }, "geometry": { "type": "Point", "coordinates": [ -82.0, 45.0 ] } },
{ "type": "Feature", "properties": { "cape": 87.0, "timestamp": "20240716T14" }, "geometry": { "type": "Point", "coordinates": [ -82.0, 45.25 ] } },
{ "type": "Feature", "properties": { "cape": 110.5, "timestamp": "20240716T14" }, "geometry": { "type": "Point", "coordinates": [ -82.0, 45.5 ] } },
{ "type": "Feature", "properties": { "cape": 67.0, "timestamp": "20240716T14" }, "geometry": { "type": "Point", "coordinates": [ -82.0, 45.75 ] } },
{ "type": "Feature", "properties": { "cape": 2.25, "timestamp": "20240716T14" }, "geometry": { "type": "Point", "coordinates": [ -82.0, 46.0 ] } },
{ "type": "Feature", "properties": { "cape": 0.25, "timestamp": "20240716T14" }, "geometry": { "type": "Point", "coordinates": [ -81.75, 41.0 ] } },
{ "type": "Feature", "properties": { "cape": 0.5, "timestamp": "20240716T14" }, "geometry": { "type": "Point", "coordinates": [ -81.75, 41.25 ] } },
{ "type": "Feature", "properties": { "cape": 0.0, "timestamp": "20240716T14" }, "geometry": { "type": "Point", "coordinates": [ -81.75, 41.5 ] } },
{ "type": "Feature", "properties": { "cape": 0.0, "timestamp": "20240716T14" }, "geometry": { "type": "Point", "coordinates": [ -81.75, 41.75 ] } },
{ "type": "Feature", "properties": { "cape": 0.0, "timestamp": "20240716T14" }, "geometry": { "type": "Point", "coordinates": [ -81.75, 42.0 ] } },
{ "type": "Feature", "properties": { "cape": 0.0, "timestamp": "20240716T14" }, "geometry": { "type": "Point", "coordinates": [ -81.75, 42.25 ] } },
{ "type": "Feature", "properties": { "cape": 0.0, "timestamp": "20240716T14" }, "geometry": { "type": "Point", "coordinates": [ -81.75, 42.5 ] } },
{ "type": "Feature", "properties": { "cape": 0.0, "timestamp": "20240716T14" }, "geometry": { "type": "Point", "coordinates": [ -81.75, 42.75 ] } },
{ "type": "Feature", "properties": { "cape": 5.5, "timestamp": "20240716T14" }, "geometry": { "type": "Point", "coordinates": [ -81.75, 43.0 ] } },
{ "type": "Feature", "properties": { "cape": 6.5, "timestamp": "20240716T14" }, "geometry": { "type": "Point", "coordinates": [ -81.75, 43.25 ] } },
{ "type": "Feature", "properties": { "cape": 3.25, "timestamp": "20240716T14" }, "geometry": { "type": "Point", "coordinates": [ -81.75, 43.5 ] } },
{ "type": "Feature", "properties": { "cape": 25.75, "timestamp": "20240716T14" }, "geometry": { "type": "Point", "coordinates": [ -81.75, 43.75 ] } },
{ "type": "Feature", "properties": { "cape": 96.0, "timestamp": "20240716T14" }, "geometry": { "type": "Point", "coordinates": [ -81.75, 44.0 ] } },
{ "type": "Feature", "properties": { "cape": 149.75, "timestamp": "20240716T14" }, "geometry": { "type": "Point", "coordinates": [ -81.75, 44.25 ] } },
{ "type": "Feature", "properties": { "cape": 151.0, "timestamp": "20240716T14" }, "geometry": { "type": "Point", "coordinates": [ -81.75, 44.5 ] } },
{ "type": "Feature", "properties": { "cape": 183.0, "timestamp": "20240716T14" }, "geometry": { "type": "Point", "coordinates": [ -81.75, 44.75 ] } },
{ "type": "Feature", "properties": { "cape": 128.75, "timestamp": "20240716T14" }, "geometry": { "type": "Point", "coordinates": [ -81.75, 45.0 ] } },
{ "type": "Feature", "properties": { "cape": 130.5, "timestamp": "20240716T14" }, "geometry": { "type": "Point", "coordinates": [ -81.75, 45.25 ] } },
{ "type": "Feature", "properties": { "cape": 158.75, "timestamp": "20240716T14" }, "geometry": { "type": "Point", "coordinates": [ -81.75, 45.5 ] } },
{ "type": "Feature", "properties": { "cape": 102.5, "timestamp": "20240716T14" }, "geometry": { "type": "Point", "coordinates": [ -81.75, 45.75 ] } },
{ "type": "Feature", "properties": { "cape": 4.5, "timestamp": "20240716T14" }, "geometry": { "type": "Point", "coordinates": [ -81.75, 46.0 ] } },
{ "type": "Feature", "properties": { "cape": 7.5, "timestamp": "20240716T14" }, "geometry": { "type": "Point", "coordinates": [ -81.5, 41.0 ] } },
{ "type": "Feature", "properties": { "cape": 11.75, "timestamp": "20240716T14" }, "geometry": { "type": "Point", "coordinates": [ -81.5, 41.25 ] } },
{ "type": "Feature", "properties": { "cape": 0.75, "timestamp": "20240716T14" }, "geometry": { "type": "Point", "coordinates": [ -81.5, 41.5 ] } },
{ "type": "Feature", "properties": { "cape": 0.0, "timestamp": "20240716T14" }, "geometry": { "type": "Point", "coordinates": [ -81.5, 41.75 ] } },
{ "type": "Feature", "properties": { "cape": 0.0, "timestamp": "20240716T14" }, "geometry": { "type": "Point", "coordinates": [ -81.5, 42.0 ] } },
{ "type": "Feature", "properties": { "cape": 0.0, "timestamp": "20240716T14" }, "geometry": { "type": "Point", "coordinates": [ -81.5, 42.25 ] } },
{ "type": "Feature", "properties": { "cape": 0.0, "timestamp": "20240716T14" }, "geometry": { "type": "Point", "coordinates": [ -81.5, 42.5 ] } },
{ "type": "Feature", "properties": { "cape": 0.0, "timestamp": "20240716T14" }, "geometry": { "type": "Point", "coordinates": [ -81.5, 42.75 ] } },
{ "type": "Feature", "properties": { "cape": 3.75, "timestamp": "20240716T14" }, "geometry": { "type": "Point", "coordinates": [ -81.5, 43.0 ] } },
{ "type": "Feature", "properties": { "cape": 8.5, "timestamp": "20240716T14" }, "geometry": { "type": "Point", "coordinates": [ -81.5, 43.25 ] } },
{ "type": "Feature", "properties": { "cape": 92.25, "timestamp": "20240716T14" }, "geometry": { "type": "Point", "coordinates": [ -81.5, 43.5 ] } },
{ "type": "Feature", "properties": { "cape": 176.5, "timestamp": "20240716T14" }, "geometry": { "type": "Point", "coordinates": [ -81.5, 43.75 ] } },
{ "type": "Feature", "properties": { "cape": 328.25, "timestamp": "20240716T14" }, "geometry": { "type": "Point", "coordinates": [ -81.5, 44.0 ] } },
{ "type": "Feature", "properties": { "cape": 375.5, "timestamp": "20240716T14" }, "geometry": { "type": "Point", "coordinates": [ -81.5, 44.25 ] } },
{ "type": "Feature", "properties": { "cape": 185.25, "timestamp": "20240716T14" }, "geometry": { "type": "Point", "coordinates": [ -81.5, 44.5 ] } },
{ "type": "Feature", "properties": { "cape": 104.75, "timestamp": "20240716T14" }, "geometry": { "type": "Point", "coordinates": [ -81.5, 44.75 ] } },
{ "type": "Feature", "properties": { "cape": 99.5, "timestamp": "20240716T14" }, "geometry": { "type": "Point", "coordinates": [ -81.5, 45.0 ] } },
{ "type": "Feature", "properties": { "cape": 142.0, "timestamp": "20240716T14" }, "geometry": { "type": "Point", "coordinates": [ -81.5, 45.25 ] } },
{ "type": "Feature", "properties": { "cape": 159.5, "timestamp": "20240716T14" }, "geometry": { "type": "Point", "coordinates": [ -81.5, 45.5 ] } },
{ "type": "Feature", "properties": { "cape": 88.5, "timestamp": "20240716T14" }, "geometry": { "type": "Point", "coordinates": [ -81.5, 45.75 ] } },
{ "type": "Feature", "properties": { "cape": 17.5, "timestamp": "20240716T14" }, "geometry": { "type": "Point", "coordinates": [ -81.5, 46.0 ] } },
{ "type": "Feature", "properties": { "cape": 23.25, "timestamp": "20240716T14" }, "geometry": { "type": "Point", "coordinates": [ -81.25, 41.0 ] } },
{ "type": "Feature", "properties": { "cape": 17.5, "timestamp": "20240716T14" }, "geometry": { "type": "Point", "coordinates": [ -81.25, 41.25 ] } },
{ "type": "Feature", "properties": { "cape": 4.25, "timestamp": "20240716T14" }, "geometry": { "type": "Point", "coordinates": [ -81.25, 41.5 ] } },
{ "type": "Feature", "properties": { "cape": 1.0, "timestamp": "20240716T14" }, "geometry": { "type": "Point", "coordinates": [ -81.25, 41.75 ] } },
{ "type": "Feature", "properties": { "cape": 1.0, "timestamp": "20240716T14" }, "geometry": { "type": "Point", "coordinates": [ -81.25, 42.0 ] } },
{ "type": "Feature", "properties": { "cape": 11.0, "timestamp": "20240716T14" }, "geometry": { "type": "Point", "coordinates": [ -81.25, 42.25 ] } },
{ "type": "Feature", "properties": { "cape": 9.75, "timestamp": "20240716T14" }, "geometry": { "type": "Point", "coordinates": [ -81.25, 42.5 ] } },
{ "type": "Feature", "properties": { "cape": 6.75, "timestamp": "20240716T14" }, "geometry": { "type": "Point", "coordinates": [ -81.25, 42.75 ] } },
{ "type": "Feature", "properties": { "cape": 7.0, "timestamp": "20240716T14" }, "geometry": { "type": "Point", "coordinates": [ -81.25, 43.0 ] } },
{ "type": "Feature", "properties": { "cape": 38.0, "timestamp": "20240716T14" }, "geometry": { "type": "Point", "coordinates": [ -81.25, 43.25 ] } },
{ "type": "Feature", "properties": { "cape": 121.5, "timestamp": "20240716T14" }, "geometry": { "type": "Point", "coordinates": [ -81.25, 43.5 ] } },
{ "type": "Feature", "properties": { "cape": 243.0, "timestamp": "20240716T14" }, "geometry": { "type": "Point", "coordinates": [ -81.25, 43.75 ] } },
{ "type": "Feature", "properties": { "cape": 411.75, "timestamp": "20240716T14" }, "geometry": { "type": "Point", "coordinates": [ -81.25, 44.0 ] } },
{ "type": "Feature", "properties": { "cape": 446.25, "timestamp": "20240716T14" }, "geometry": { "type": "Point", "coordinates": [ -81.25, 44.25 ] } },
{ "type": "Feature", "properties": { "cape": 261.0, "timestamp": "20240716T14" }, "geometry": { "type": "Point", "coordinates": [ -81.25, 44.5 ] } },
{ "type": "Feature", "properties": { "cape": 162.0, "timestamp": "20240716T14" }, "geometry": { "type": "Point", "coordinates": [ -81.25, 44.75 ] } },
{ "type": "Feature", "properties": { "cape": 124.5, "timestamp": "20240716T14" }, "geometry": { "type": "Point", "coordinates": [ -81.25, 45.0 ] } },
{ "type": "Feature", "properties": { "cape": 167.0, "timestamp": "20240716T14" }, "geometry": { "type": "Point", "coordinates": [ -81.25, 45.25 ] } },
{ "type": "Feature", "properties": { "cape": 156.25, "timestamp": "20240716T14" }, "geometry": { "type": "Point", "coordinates": [ -81.25, 45.5 ] } },
{ "type": "Feature", "properties": { "cape": 85.25, "timestamp": "20240716T14" }, "geometry": { "type": "Point", "coordinates": [ -81.25, 45.75 ] } },
{ "type": "Feature", "properties": { "cape": 27.25, "timestamp": "20240716T14" }, "geometry": { "type": "Point", "coordinates": [ -81.25, 46.0 ] } },
{ "type": "Feature", "properties": { "cape": 46.0, "timestamp": "20240716T14" }, "geometry": { "type": "Point", "coordinates": [ -81.0, 41.0 ] } },
{ "type": "Feature", "properties": { "cape": 30.0, "timestamp": "20240716T14" }, "geometry": { "type": "Point", "coordinates": [ -81.0, 41.25 ] } },
{ "type": "Feature", "properties": { "cape": 10.25, "timestamp": "20240716T14" }, "geometry": { "type": "Point", "coordinates": [ -81.0, 41.5 ] } },
{ "type": "Feature", "properties": { "cape": 3.5, "timestamp": "20240716T14" }, "geometry": { "type": "Point", "coordinates": [ -81.0, 41.75 ] } },
{ "type": "Feature", "properties": { "cape": 3.5, "timestamp": "20240716T14" }, "geometry": { "type": "Point", "coordinates": [ -81.0, 42.0 ] } },
{ "type": "Feature", "properties": { "cape": 17.25, "timestamp": "20240716T14" }, "geometry": { "type": "Point", "coordinates": [ -81.0, 42.25 ] } },
{ "type": "Feature", "properties": { "cape": 17.25, "timestamp": "20240716T14" }, "geometry": { "type": "Point", "coordinates": [ -81.0, 42.5 ] } },
{ "type": "Feature", "properties": { "cape": 11.5, "timestamp": "20240716T14" }, "geometry": { "type": "Point", "coordinates": [ -81.0, 42.75 ] } },
{ "type": "Feature", "properties": { "cape": 16.25, "timestamp": "20240716T14" }, "geometry": { "type": "Point", "coordinates": [ -81.0, 43.0 ] } },
{ "type": "Feature", "properties": { "cape": 48.75, "timestamp": "20240716T14" }, "geometry": { "type": "Point", "coordinates": [ -81.0, 43.25 ] } },
{ "type": "Feature", "properties": { "cape": 106.5, "timestamp": "20240716T14" }, "geometry": { "type": "Point", "coordinates": [ -81.0, 43.5 ] } },
{ "type": "Feature", "properties": { "cape": 186.25, "timestamp": "20240716T14" }, "geometry": { "type": "Point", "coordinates": [ -81.0, 43.75 ] } },
{ "type": "Feature", "properties": { "cape": 343.75, "timestamp": "20240716T14" }, "geometry": { "type": "Point", "coordinates": [ -81.0, 44.0 ] } },
{ "type": "Feature", "properties": { "cape": 357.75, "timestamp": "20240716T14" }, "geometry": { "type": "Point", "coordinates": [ -81.0, 44.25 ] } },
{ "type": "Feature", "properties": { "cape": 374.75, "timestamp": "20240716T14" }, "geometry": { "type": "Point", "coordinates": [ -81.0, 44.5 ] } },
{ "type": "Feature", "properties": { "cape": 213.25, "timestamp": "20240716T14" }, "geometry": { "type": "Point", "coordinates": [ -81.0, 44.75 ] } },
{ "type": "Feature", "properties": { "cape": 160.5, "timestamp": "20240716T14" }, "geometry": { "type": "Point", "coordinates": [ -81.0, 45.0 ] } },
{ "type": "Feature", "properties": { "cape": 187.5, "timestamp": "20240716T14" }, "geometry": { "type": "Point", "coordinates": [ -81.0, 45.25 ] } },
{ "type": "Feature", "properties": { "cape": 178.75, "timestamp": "20240716T14" }, "geometry": { "type": "Point", "coordinates": [ -81.0, 45.5 ] } },
{ "type": "Feature", "properties": { "cape": 105.75, "timestamp": "20240716T14" }, "geometry": { "type": "Point", "coordinates": [ -81.0, 45.75 ] } },
{ "type": "Feature", "properties": { "cape": 36.75, "timestamp": "20240716T14" }, "geometry": { "type": "Point", "coordinates": [ -81.0, 46.0 ] } },
{ "type": "Feature", "properties": { "cape": 139.5, "timestamp": "20240716T14" }, "geometry": { "type": "Point", "coordinates": [ -80.75, 41.0 ] } },
{ "type": "Feature", "properties": { "cape": 116.0, "timestamp": "20240716T14" }, "geometry": { "type": "Point", "coordinates": [ -80.75, 41.25 ] } },
{ "type": "Feature", "properties": { "cape": 46.25, "timestamp": "20240716T14" }, "geometry": { "type": "Point", "coordinates": [ -80.75, 41.5 ] } },
{ "type": "Feature", "properties": { "cape": 16.25, "timestamp": "20240716T14" }, "geometry": { "type": "Point", "coordinates": [ -80.75, 41.75 ] } },
{ "type": "Feature", "properties": { "cape": 10.5, "timestamp": "20240716T14" }, "geometry": { "type": "Point", "coordinates": [ -80.75, 42.0 ] } },
{ "type": "Feature", "properties": { "cape": 19.75, "timestamp": "20240716T14" }, "geometry": { "type": "Point", "coordinates": [ -80.75, 42.25 ] } },
{ "type": "Feature", "properties": { "cape": 13.5, "timestamp": "20240716T14" }, "geometry": { "type": "Point", "coordinates": [ -80.75, 42.5 ] } },
{ "type": "Feature", "properties": { "cape": 35.75, "timestamp": "20240716T14" }, "geometry": { "type": "Point", "coordinates": [ -80.75, 42.75 ] } },
{ "type": "Feature", "properties": { "cape": 35.25, "timestamp": "20240716T14" }, "geometry": { "type": "Point", "coordinates": [ -80.75, 43.0 ] } },
{ "type": "Feature", "properties": { "cape": 62.75, "timestamp": "20240716T14" }, "geometry": { "type": "Point", "coordinates": [ -80.75, 43.25 ] } },
{ "type": "Feature", "properties": { "cape": 135.75, "timestamp": "20240716T14" }, "geometry": { "type": "Point", "coordinates": [ -80.75, 43.5 ] } },
{ "type": "Feature", "properties": { "cape": 204.5, "timestamp": "20240716T14" }, "geometry": { "type": "Point", "coordinates": [ -80.75, 43.75 ] } },
{ "type": "Feature", "properties": { "cape": 313.5, "timestamp": "20240716T14" }, "geometry": { "type": "Point", "coordinates": [ -80.75, 44.0 ] } },
{ "type": "Feature", "properties": { "cape": 369.75, "timestamp": "20240716T14" }, "geometry": { "type": "Point", "coordinates": [ -80.75, 44.25 ] } },
{ "type": "Feature", "properties": { "cape": 379.0, "timestamp": "20240716T14" }, "geometry": { "type": "Point", "coordinates": [ -80.75, 44.5 ] } },
{ "type": "Feature", "properties": { "cape": 225.25, "timestamp": "20240716T14" }, "geometry": { "type": "Point", "coordinates": [ -80.75, 44.75 ] } },
{ "type": "Feature", "properties": { "cape": 177.0, "timestamp": "20240716T14" }, "geometry": { "type": "Point", "coordinates": [ -80.75, 45.0 ] } },
{ "type": "Feature", "properties": { "cape": 222.0, "timestamp": "20240716T14" }, "geometry": { "type": "Point", "coordinates": [ -80.75, 45.25 ] } },
{ "type": "Feature", "properties": { "cape": 226.75, "timestamp": "20240716T14" }, "geometry": { "type": "Point", "coordinates": [ -80.75, 45.5 ] } },
{ "type": "Feature", "properties": { "cape": 246.75, "timestamp": "20240716T14" }, "geometry": { "type": "Point", "coordinates": [ -80.75, 45.75 ] } },
{ "type": "Feature", "properties": { "cape": 183.5, "timestamp": "20240716T14" }, "geometry": { "type": "Point", "coordinates": [ -80.75, 46.0 ] } },
{ "type": "Feature", "properties": { "cape": 269.0, "timestamp": "20240716T14" }, "geometry": { "type": "Point", "coordinates": [ -80.5, 41.0 ] } },
{ "type": "Feature", "properties": { "cape": 203.0, "timestamp": "20240716T14" }, "geometry": { "type": "Point", "coordinates": [ -80.5, 41.25 ] } },
{ "type": "Feature", "properties": { "cape": 131.25, "timestamp": "20240716T14" }, "geometry": { "type": "Point", "coordinates": [ -80.5, 41.5 ] } },
{ "type": "Feature", "properties": { "cape": 63.0, "timestamp": "20240716T14" }, "geometry": { "type": "Point", "coordinates": [ -80.5, 41.75 ] } },
{ "type": "Feature", "properties": { "cape": 33.25, "timestamp": "20240716T14" }, "geometry": { "type": "Point", "coordinates": [ -80.5, 42.0 ] } },
{ "type": "Feature", "properties": { "cape": 13.75, "timestamp": "20240716T14" }, "geometry": { "type": "Point", "coordinates": [ -80.5, 42.25 ] } },
{ "type": "Feature", "properties": { "cape": 24.25, "timestamp": "20240716T14" }, "geometry": { "type": "Point", "coordinates": [ -80.5, 42.5 ] } },
{ "type": "Feature", "properties": { "cape": 53.5, "timestamp": "20240716T14" }, "geometry": { "type": "Point", "coordinates": [ -80.5, 42.75 ] } },
{ "type": "Feature", "properties": { "cape": 46.0, "timestamp": "20240716T14" }, "geometry": { "type": "Point", "coordinates": [ -80.5, 43.0 ] } },
{ "type": "Feature", "properties": { "cape": 91.25, "timestamp": "20240716T14" }, "geometry": { "type": "Point", "coordinates": [ -80.5, 43.25 ] } },
{ "type": "Feature", "properties": { "cape": 164.25, "timestamp": "20240716T14" }, "geometry": { "type": "Point", "coordinates": [ -80.5, 43.5 ] } },
{ "type": "Feature", "properties": { "cape": 214.5, "timestamp": "20240716T14" }, "geometry": { "type": "Point", "coordinates": [ -80.5, 43.75 ] } },
{ "type": "Feature", "properties": { "cape": 301.25, "timestamp": "20240716T14" }, "geometry": { "type": "Point", "coordinates": [ -80.5, 44.0 ] } },
{ "type": "Feature", "properties": { "cape": 396.75, "timestamp": "20240716T14" }, "geometry": { "type": "Point", "coordinates": [ -80.5, 44.25 ] } },
{ "type": "Feature", "properties": { "cape": 327.0, "timestamp": "20240716T14" }, "geometry": { "type": "Point", "coordinates": [ -80.5, 44.5 ] } },
{ "type": "Feature", "properties": { "cape": 183.25, "timestamp": "20240716T14" }, "geometry": { "type": "Point", "coordinates": [ -80.5, 44.75 ] } },
{ "type": "Feature", "properties": { "cape": 179.75, "timestamp": "20240716T14" }, "geometry": { "type": "Point", "coordinates": [ -80.5, 45.0 ] } },
{ "type": "Feature", "properties": { "cape": 224.5, "timestamp": "20240716T14" }, "geometry": { "type": "Point", "coordinates": [ -80.5, 45.25 ] } },
{ "type": "Feature", "properties": { "cape": 320.0, "timestamp": "20240716T14" }, "geometry": { "type": "Point", "coordinates": [ -80.5, 45.5 ] } },
{ "type": "Feature", "properties": { "cape": 339.5, "timestamp": "20240716T14" }, "geometry": { "type": "Point", "coordinates": [ -80.5, 45.75 ] } },
{ "type": "Feature", "properties": { "cape": 257.25, "timestamp": "20240716T14" }, "geometry": { "type": "Point", "coordinates": [ -80.5, 46.0 ] } },
{ "type": "Feature", "properties": { "cape": 400.25, "timestamp": "20240716T14" }, "geometry": { "type": "Point", "coordinates": [ -80.25, 41.0 ] } },
{ "type": "Feature", "properties": { "cape": 324.25, "timestamp": "20240716T14" }, "geometry": { "type": "Point", "coordinates": [ -80.25, 41.25 ] } },
{ "type": "Feature", "properties": { "cape": 231.5, "timestamp": "20240716T14" }, "geometry": { "type": "Point", "coordinates": [ -80.25, 41.5 ] } },
{ "type": "Feature", "properties": { "cape": 139.5, "timestamp": "20240716T14" }, "geometry": { "type": "Point", "coordinates": [ -80.25, 41.75 ] } },
{ "type": "Feature", "properties": { "cape": 71.25, "timestamp": "20240716T14" }, "geometry": { "type": "Point", "coordinates": [ -80.25, 42.0 ] } },
{ "type": "Feature", "properties": { "cape": 18.5, "timestamp": "20240716T14" }, "geometry": { "type": "Point", "coordinates": [ -80.25, 42.25 ] } },
{ "type": "Feature", "properties": { "cape": 23.0, "timestamp": "20240716T14" }, "geometry": { "type": "Point", "coordinates": [ -80.25, 42.5 ] } },
{ "type": "Feature", "properties": { "cape": 39.0, "timestamp": "20240716T14" }, "geometry": { "type": "Point", "coordinates": [ -80.25, 42.75 ] } },
{ "type": "Feature", "properties": { "cape": 66.75, "timestamp": "20240716T14" }, "geometry": { "type": "Point", "coordinates": [ -80.25, 43.0 ] } },
{ "type": "Feature", "properties": { "cape": 123.5, "timestamp": "20240716T14" }, "geometry": { "type": "Point", "coordinates": [ -80.25, 43.25 ] } },
{ "type": "Feature", "properties": { "cape": 197.5, "timestamp": "20240716T14" }, "geometry": { "type": "Point", "coordinates": [ -80.25, 43.5 ] } },
{ "type": "Feature", "properties": { "cape": 266.25, "timestamp": "20240716T14" }, "geometry": { "type": "Point", "coordinates": [ -80.25, 43.75 ] } },
{ "type": "Feature", "properties": { "cape": 316.0, "timestamp": "20240716T14" }, "geometry": { "type": "Point", "coordinates": [ -80.25, 44.0 ] } },
{ "type": "Feature", "properties": { "cape": 451.0, "timestamp": "20240716T14" }, "geometry": { "type": "Point", "coordinates": [ -80.25, 44.25 ] } },
{ "type": "Feature", "properties": { "cape": 257.75, "timestamp": "20240716T14" }, "geometry": { "type": "Point", "coordinates": [ -80.25, 44.5 ] } },
{ "type": "Feature", "properties": { "cape": 166.0, "timestamp": "20240716T14" }, "geometry": { "type": "Point", "coordinates": [ -80.25, 44.75 ] } },
{ "type": "Feature", "properties": { "cape": 162.25, "timestamp": "20240716T14" }, "geometry": { "type": "Point", "coordinates": [ -80.25, 45.0 ] } },
{ "type": "Feature", "properties": { "cape": 195.75, "timestamp": "20240716T14" }, "geometry": { "type": "Point", "coordinates": [ -80.25, 45.25 ] } },
{ "type": "Feature", "properties": { "cape": 296.5, "timestamp": "20240716T14" }, "geometry": { "type": "Point", "coordinates": [ -80.25, 45.5 ] } },
{ "type": "Feature", "properties": { "cape": 399.5, "timestamp": "20240716T14" }, "geometry": { "type": "Point", "coordinates": [ -80.25, 45.75 ] } },
{ "type": "Feature", "properties": { "cape": 330.0, "timestamp": "20240716T14" }, "geometry": { "type": "Point", "coordinates": [ -80.25, 46.0 ] } },
{ "type": "Feature", "properties": { "cape": 486.25, "timestamp": "20240716T14" }, "geometry": { "type": "Point", "coordinates": [ -80.0, 41.0 ] } },
{ "type": "Feature", "properties": { "cape": 459.25, "timestamp": "20240716T14" }, "geometry": { "type": "Point", "coordinates": [ -80.0, 41.25 ] } },
{ "type": "Feature", "properties": { "cape": 334.75, "timestamp": "20240716T14" }, "geometry": { "type": "Point", "coordinates": [ -80.0, 41.5 ] } },
{ "type": "Feature", "properties": { "cape": 183.0, "timestamp": "20240716T14" }, "geometry": { "type": "Point", "coordinates": [ -80.0, 41.75 ] } },
{ "type": "Feature", "properties": { "cape": 70.5, "timestamp": "20240716T14" }, "geometry": { "type": "Point", "coordinates": [ -80.0, 42.0 ] } },
{ "type": "Feature", "properties": { "cape": 17.0, "timestamp": "20240716T14" }, "geometry": { "type": "Point", "coordinates": [ -80.0, 42.25 ] } },
{ "type": "Feature", "properties": { "cape": 39.5, "timestamp": "20240716T14" }, "geometry": { "type": "Point", "coordinates": [ -80.0, 42.5 ] } },
{ "type": "Feature", "properties": { "cape": 106.25, "timestamp": "20240716T14" }, "geometry": { "type": "Point", "coordinates": [ -80.0, 42.75 ] } },
{ "type": "Feature", "properties": { "cape": 213.25, "timestamp": "20240716T14" }, "geometry": { "type": "Point", "coordinates": [ -80.0, 43.0 ] } },
{ "type": "Feature", "properties": { "cape": 281.5, "timestamp": "20240716T14" }, "geometry": { "type": "Point", "coordinates": [ -80.0, 43.25 ] } },
{ "type": "Feature", "properties": { "cape": 253.0, "timestamp": "20240716T14" }, "geometry": { "type": "Point", "coordinates": [ -80.0, 43.5 ] } },
{ "type": "Feature", "properties": { "cape": 231.0, "timestamp": "20240716T14" }, "geometry": { "type": "Point", "coordinates": [ -80.0, 43.75 ] } },
{ "type": "Feature", "properties": { "cape": 480.0, "timestamp": "20240716T14" }, "geometry": { "type": "Point", "coordinates": [ -80.0, 44.0 ] } },
{ "type": "Feature", "properties": { "cape": 408.5, "timestamp": "20240716T14" }, "geometry": { "type": "Point", "coordinates": [ -80.0, 44.25 ] } },
{ "type": "Feature", "properties": { "cape": 286.25, "timestamp": "20240716T14" }, "geometry": { "type": "Point", "coordinates": [ -80.0, 44.5 ] } },
{ "type": "Feature", "properties": { "cape": 321.25, "timestamp": "20240716T14" }, "geometry": { "type": "Point", "coordinates": [ -80.0, 44.75 ] } },
{ "type": "Feature", "properties": { "cape": 298.0, "timestamp": "20240716T14" }, "geometry": { "type": "Point", "coordinates": [ -80.0, 45.0 ] } },
{ "type": "Feature", "properties": { "cape": 264.5, "timestamp": "20240716T14" }, "geometry": { "type": "Point", "coordinates": [ -80.0, 45.25 ] } },
{ "type": "Feature", "properties": { "cape": 345.75, "timestamp": "20240716T14" }, "geometry": { "type": "Point", "coordinates": [ -80.0, 45.5 ] } },
{ "type": "Feature", "properties": { "cape": 406.25, "timestamp": "20240716T14" }, "geometry": { "type": "Point", "coordinates": [ -80.0, 45.75 ] } },
{ "type": "Feature", "properties": { "cape": 356.25, "timestamp": "20240716T14" }, "geometry": { "type": "Point", "coordinates": [ -80.0, 46.0 ] } },
{ "type": "Feature", "properties": { "cape": 531.5, "timestamp": "20240716T14" }, "geometry": { "type": "Point", "coordinates": [ -79.75, 41.0 ] } },
{ "type": "Feature", "properties": { "cape": 496.75, "timestamp": "20240716T14" }, "geometry": { "type": "Point", "coordinates": [ -79.75, 41.25 ] } },
{ "type": "Feature", "properties": { "cape": 392.25, "timestamp": "20240716T14" }, "geometry": { "type": "Point", "coordinates": [ -79.75, 41.5 ] } },
{ "type": "Feature", "properties": { "cape": 252.25, "timestamp": "20240716T14" }, "geometry": { "type": "Point", "coordinates": [ -79.75, 41.75 ] } },
{ "type": "Feature", "properties": { "cape": 186.5, "timestamp": "20240716T14" }, "geometry": { "type": "Point", "coordinates": [ -79.75, 42.0 ] } },
{ "type": "Feature", "properties": { "cape": 97.0, "timestamp": "20240716T14" }, "geometry": { "type": "Point", "coordinates": [ -79.75, 42.25 ] } },
{ "type": "Feature", "properties": { "cape": 80.0, "timestamp": "20240716T14" }, "geometry": { "type": "Point", "coordinates": [ -79.75, 42.5 ] } },
{ "type": "Feature", "properties": { "cape": 169.0, "timestamp": "20240716T14" }, "geometry": { "type": "Point", "coordinates": [ -79.75, 42.75 ] } },
{ "type": "Feature", "properties": { "cape": 300.75, "timestamp": "20240716T14" }, "geometry": { "type": "Point", "coordinates": [ -79.75, 43.0 ] } },
{ "type": "Feature", "properties": { "cape": 381.0, "timestamp": "20240716T14" }, "geometry": { "type": "Point", "coordinates": [ -79.75, 43.25 ] } },
{ "type": "Feature", "properties": { "cape": 352.25, "timestamp": "20240716T14" }, "geometry": { "type": "Point", "coordinates": [ -79.75, 43.5 ] } },
{ "type": "Feature", "properties": { "cape": 205.75, "timestamp": "20240716T14" }, "geometry": { "type": "Point", "coordinates": [ -79.75, 43.75 ] } },
{ "type": "Feature", "properties": { "cape": 456.5, "timestamp": "20240716T14" }, "geometry": { "type": "Point", "coordinates": [ -79.75, 44.0 ] } },
{ "type": "Feature", "properties": { "cape": 363.25, "timestamp": "20240716T14" }, "geometry": { "type": "Point", "coordinates": [ -79.75, 44.25 ] } },
{ "type": "Feature", "properties": { "cape": 459.5, "timestamp": "20240716T14" }, "geometry": { "type": "Point", "coordinates": [ -79.75, 44.5 ] } },
{ "type": "Feature", "properties": { "cape": 492.5, "timestamp": "20240716T14" }, "geometry": { "type": "Point", "coordinates": [ -79.75, 44.75 ] } },
{ "type": "Feature", "properties": { "cape": 370.5, "timestamp": "20240716T14" }, "geometry": { "type": "Point", "coordinates": [ -79.75, 45.0 ] } },
{ "type": "Feature", "properties": { "cape": 336.75, "timestamp": "20240716T14" }, "geometry": { "type": "Point", "coordinates": [ -79.75, 45.25 ] } },
{ "type": "Feature", "properties": { "cape": 306.75, "timestamp": "20240716T14" }, "geometry": { "type": "Point", "coordinates": [ -79.75, 45.5 ] } },
{ "type": "Feature", "properties": { "cape": 367.25, "timestamp": "20240716T14" }, "geometry": { "type": "Point", "coordinates": [ -79.75, 45.75 ] } },
{ "type": "Feature", "properties": { "cape": 383.75, "timestamp": "20240716T14" }, "geometry": { "type": "Point", "coordinates": [ -79.75, 46.0 ] } },
{ "type": "Feature", "properties": { "cape": 536.0, "timestamp": "20240716T14" }, "geometry": { "type": "Point", "coordinates": [ -79.5, 41.0 ] } },
{ "type": "Feature", "properties": { "cape": 484.25, "timestamp": "20240716T14" }, "geometry": { "type": "Point", "coordinates": [ -79.5, 41.25 ] } },
{ "type": "Feature", "properties": { "cape": 443.75, "timestamp": "20240716T14" }, "geometry": { "type": "Point", "coordinates": [ -79.5, 41.5 ] } },
{ "type": "Feature", "properties": { "cape": 326.0, "timestamp": "20240716T14" }, "geometry": { "type": "Point", "coordinates": [ -79.5, 41.75 ] } },
{ "type": "Feature", "properties": { "cape": 309.5, "timestamp": "20240716T14" }, "geometry": { "type": "Point", "coordinates": [ -79.5, 42.0 ] } },
{ "type": "Feature", "properties": { "cape": 211.25, "timestamp": "20240716T14" }, "geometry": { "type": "Point", "coordinates": [ -79.5, 42.25 ] } },
{ "type": "Feature", "properties": { "cape": 167.5, "timestamp": "20240716T14" }, "geometry": { "type": "Point", "coordinates": [ -79.5, 42.5 ] } },
{ "type": "Feature", "properties": { "cape": 244.75, "timestamp": "20240716T14" }, "geometry": { "type": "Point", "coordinates": [ -79.5, 42.75 ] } },
{ "type": "Feature", "properties": { "cape": 401.0, "timestamp": "20240716T14" }, "geometry": { "type": "Point", "coordinates": [ -79.5, 43.0 ] } },
{ "type": "Feature", "properties": { "cape": 485.25, "timestamp": "20240716T14" }, "geometry": { "type": "Point", "coordinates": [ -79.5, 43.25 ] } },
{ "type": "Feature", "properties": { "cape": 387.0, "timestamp": "20240716T14" }, "geometry": { "type": "Point", "coordinates": [ -79.5, 43.5 ] } },
{ "type": "Feature", "properties": { "cape": 187.75, "timestamp": "20240716T14" }, "geometry": { "type": "Point", "coordinates": [ -79.5, 43.75 ] } },
{ "type": "Feature", "properties": { "cape": 240.5, "timestamp": "20240716T14" }, "geometry": { "type": "Point", "coordinates": [ -79.5, 44.0 ] } },
{ "type": "Feature", "properties": { "cape": 309.0, "timestamp": "20240716T14" }, "geometry": { "type": "Point", "coordinates": [ -79.5, 44.25 ] } },
{ "type": "Feature", "properties": { "cape": 674.25, "timestamp": "20240716T14" }, "geometry": { "type": "Point", "coordinates": [ -79.5, 44.5 ] } },
{ "type": "Feature", "properties": { "cape": 672.5, "timestamp": "20240716T14" }, "geometry": { "type": "Point", "coordinates": [ -79.5, 44.75 ] } },
{ "type": "Feature", "properties": { "cape": 486.5, "timestamp": "20240716T14" }, "geometry": { "type": "Point", "coordinates": [ -79.5, 45.0 ] } },
{ "type": "Feature", "properties": { "cape": 331.5, "timestamp": "20240716T14" }, "geometry": { "type": "Point", "coordinates": [ -79.5, 45.25 ] } },
{ "type": "Feature", "properties": { "cape": 284.25, "timestamp": "20240716T14" }, "geometry": { "type": "Point", "coordinates": [ -79.5, 45.5 ] } },
{ "type": "Feature", "properties": { "cape": 317.0, "timestamp": "20240716T14" }, "geometry": { "type": "Point", "coordinates": [ -79.5, 45.75 ] } },
{ "type": "Feature", "properties": { "cape": 357.75, "timestamp": "20240716T14" }, "geometry": { "type": "Point", "coordinates": [ -79.5, 46.0 ] } },
{ "type": "Feature", "properties": { "cape": 459.0, "timestamp": "20240716T14" }, "geometry": { "type": "Point", "coordinates": [ -79.25, 41.0 ] } },
{ "type": "Feature", "properties": { "cape": 546.5, "timestamp": "20240716T14" }, "geometry": { "type": "Point", "coordinates": [ -79.25, 41.25 ] } },
{ "type": "Feature", "properties": { "cape": 450.75, "timestamp": "20240716T14" }, "geometry": { "type": "Point", "coordinates": [ -79.25, 41.5 ] } },
{ "type": "Feature", "properties": { "cape": 395.25, "timestamp": "20240716T14" }, "geometry": { "type": "Point", "coordinates": [ -79.25, 41.75 ] } },
{ "type": "Feature", "properties": { "cape": 279.5, "timestamp": "20240716T14" }, "geometry": { "type": "Point", "coordinates": [ -79.25, 42.0 ] } },
{ "type": "Feature", "properties": { "cape": 284.75, "timestamp": "20240716T14" }, "geometry": { "type": "Point", "coordinates": [ -79.25, 42.25 ] } },
{ "type": "Feature", "properties": { "cape": 238.5, "timestamp": "20240716T14" }, "geometry": { "type": "Point", "coordinates": [ -79.25, 42.5 ] } },
{ "type": "Feature", "properties": { "cape": 320.0, "timestamp": "20240716T14" }, "geometry": { "type": "Point", "coordinates": [ -79.25, 42.75 ] } },
{ "type": "Feature", "properties": { "cape": 453.25, "timestamp": "20240716T14" }, "geometry": { "type": "Point", "coordinates": [ -79.25, 43.0 ] } },
{ "type": "Feature", "properties": { "cape": 523.0, "timestamp": "20240716T14" }, "geometry": { "type": "Point", "coordinates": [ -79.25, 43.25 ] } },
{ "type": "Feature", "properties": { "cape": 347.0, "timestamp": "20240716T14" }, "geometry": { "type": "Point", "coordinates": [ -79.25, 43.5 ] } },
{ "type": "Feature", "properties": { "cape": 127.75, "timestamp": "20240716T14" }, "geometry": { "type": "Point", "coordinates": [ -79.25, 43.75 ] } },
{ "type": "Feature", "properties": { "cape": 322.0, "timestamp": "20240716T14" }, "geometry": { "type": "Point", "coordinates": [ -79.25, 44.0 ] } },
{ "type": "Feature", "properties": { "cape": 349.75, "timestamp": "20240716T14" }, "geometry": { "type": "Point", "coordinates": [ -79.25, 44.25 ] } },
{ "type": "Feature", "properties": { "cape": 623.5, "timestamp": "20240716T14" }, "geometry": { "type": "Point", "coordinates": [ -79.25, 44.5 ] } },
{ "type": "Feature", "properties": { "cape": 644.75, "timestamp": "20240716T14" }, "geometry": { "type": "Point", "coordinates": [ -79.25, 44.75 ] } },
{ "type": "Feature", "properties": { "cape": 455.25, "timestamp": "20240716T14" }, "geometry": { "type": "Point", "coordinates": [ -79.25, 45.0 ] } },
{ "type": "Feature", "properties": { "cape": 292.75, "timestamp": "20240716T14" }, "geometry": { "type": "Point", "coordinates": [ -79.25, 45.25 ] } },
{ "type": "Feature", "properties": { "cape": 246.0, "timestamp": "20240716T14" }, "geometry": { "type": "Point", "coordinates": [ -79.25, 45.5 ] } },
{ "type": "Feature", "properties": { "cape": 273.25, "timestamp": "20240716T14" }, "geometry": { "type": "Point", "coordinates": [ -79.25, 45.75 ] } },
{ "type": "Feature", "properties": { "cape": 294.25, "timestamp": "20240716T14" }, "geometry": { "type": "Point", "coordinates": [ -79.25, 46.0 ] } },
{ "type": "Feature", "properties": { "cape": 397.75, "timestamp": "20240716T14" }, "geometry": { "type": "Point", "coordinates": [ -79.0, 41.0 ] } },
{ "type": "Feature", "properties": { "cape": 399.75, "timestamp": "20240716T14" }, "geometry": { "type": "Point", "coordinates": [ -79.0, 41.25 ] } },
{ "type": "Feature", "properties": { "cape": 350.25, "timestamp": "20240716T14" }, "geometry": { "type": "Point", "coordinates": [ -79.0, 41.5 ] } },
{ "type": "Feature", "properties": { "cape": 360.5, "timestamp": "20240716T14" }, "geometry": { "type": "Point", "coordinates": [ -79.0, 41.75 ] } },
{ "type": "Feature", "properties": { "cape": 311.75, "timestamp": "20240716T14" }, "geometry": { "type": "Point", "coordinates": [ -79.0, 42.0 ] } },
{ "type": "Feature", "properties": { "cape": 299.5, "timestamp": "20240716T14" }, "geometry": { "type": "Point", "coordinates": [ -79.0, 42.25 ] } },
{ "type": "Feature", "properties": { "cape": 311.25, "timestamp": "20240716T14" }, "geometry": { "type": "Point", "coordinates": [ -79.0, 42.5 ] } },
{ "type": "Feature", "properties": { "cape": 382.25, "timestamp": "20240716T14" }, "geometry": { "type": "Point", "coordinates": [ -79.0, 42.75 ] } },
{ "type": "Feature", "properties": { "cape": 486.25, "timestamp": "20240716T14" }, "geometry": { "type": "Point", "coordinates": [ -79.0, 43.0 ] } },
{ "type": "Feature", "properties": { "cape": 474.0, "timestamp": "20240716T14" }, "geometry": { "type": "Point", "coordinates": [ -79.0, 43.25 ] } },
{ "type": "Feature", "properties": { "cape": 298.25, "timestamp": "20240716T14" }, "geometry": { "type": "Point", "coordinates": [ -79.0, 43.5 ] } },
{ "type": "Feature", "properties": { "cape": 146.25, "timestamp": "20240716T14" }, "geometry": { "type": "Point", "coordinates": [ -79.0, 43.75 ] } },
{ "type": "Feature", "properties": { "cape": 392.75, "timestamp": "20240716T14" }, "geometry": { "type": "Point", "coordinates": [ -79.0, 44.0 ] } },
{ "type": "Feature", "properties": { "cape": 431.75, "timestamp": "20240716T14" }, "geometry": { "type": "Point", "coordinates": [ -79.0, 44.25 ] } },
{ "type": "Feature", "properties": { "cape": 548.0, "timestamp": "20240716T14" }, "geometry": { "type": "Point", "coordinates": [ -79.0, 44.5 ] } },
{ "type": "Feature", "properties": { "cape": 568.75, "timestamp": "20240716T14" }, "geometry": { "type": "Point", "coordinates": [ -79.0, 44.75 ] } },
{ "type": "Feature", "properties": { "cape": 408.5, "timestamp": "20240716T14" }, "geometry": { "type": "Point", "coordinates": [ -79.0, 45.0 ] } },
{ "type": "Feature", "properties": { "cape": 246.0, "timestamp": "20240716T14" }, "geometry": { "type": "Point", "coordinates": [ -79.0, 45.25 ] } },
{ "type": "Feature", "properties": { "cape": 215.25, "timestamp": "20240716T14" }, "geometry": { "type": "Point", "coordinates": [ -79.0, 45.5 ] } },
{ "type": "Feature", "properties": { "cape": 242.5, "timestamp": "20240716T14" }, "geometry": { "type": "Point", "coordinates": [ -79.0, 45.75 ] } },
{ "type": "Feature", "properties": { "cape": 239.25, "timestamp": "20240716T14" }, "geometry": { "type": "Point", "coordinates": [ -79.0, 46.0 ] } },
{ "type": "Feature", "properties": { "cape": 267.5, "timestamp": "20240716T14" }, "geometry": { "type": "Point", "coordinates": [ -78.75, 41.0 ] } },
{ "type": "Feature", "properties": { "cape": 254.0, "timestamp": "20240716T14" }, "geometry": { "type": "Point", "coordinates": [ -78.75, 41.25 ] } },
{ "type": "Feature", "properties": { "cape": 278.75, "timestamp": "20240716T14" }, "geometry": { "type": "Point", "coordinates": [ -78.75, 41.5 ] } },
{ "type": "Feature", "properties": { "cape": 318.5, "timestamp": "20240716T14" }, "geometry": { "type": "Point", "coordinates": [ -78.75, 41.75 ] } },
{ "type": "Feature", "properties": { "cape": 354.25, "timestamp": "20240716T14" }, "geometry": { "type": "Point", "coordinates": [ -78.75, 42.0 ] } },
{ "type": "Feature", "properties": { "cape": 405.75, "timestamp": "20240716T14" }, "geometry": { "type": "Point", "coordinates": [ -78.75, 42.25 ] } },
{ "type": "Feature", "properties": { "cape": 412.0, "timestamp": "20240716T14" }, "geometry": { "type": "Point", "coordinates": [ -78.75, 42.5 ] } },
{ "type": "Feature", "properties": { "cape": 403.25, "timestamp": "20240716T14" }, "geometry": { "type": "Point", "coordinates": [ -78.75, 42.75 ] } },
{ "type": "Feature", "properties": { "cape": 508.5, "timestamp": "20240716T14" }, "geometry": { "type": "Point", "coordinates": [ -78.75, 43.0 ] } },
{ "type": "Feature", "properties": { "cape": 496.5, "timestamp": "20240716T14" }, "geometry": { "type": "Point", "coordinates": [ -78.75, 43.25 ] } },
{ "type": "Feature", "properties": { "cape": 247.5, "timestamp": "20240716T14" }, "geometry": { "type": "Point", "coordinates": [ -78.75, 43.5 ] } },
{ "type": "Feature", "properties": { "cape": 125.25, "timestamp": "20240716T14" }, "geometry": { "type": "Point", "coordinates": [ -78.75, 43.75 ] } },
{ "type": "Feature", "properties": { "cape": 455.5, "timestamp": "20240716T14" }, "geometry": { "type": "Point", "coordinates": [ -78.75, 44.0 ] } },
{ "type": "Feature", "properties": { "cape": 558.0, "timestamp": "20240716T14" }, "geometry": { "type": "Point", "coordinates": [ -78.75, 44.25 ] } },
{ "type": "Feature", "properties": { "cape": 521.75, "timestamp": "20240716T14" }, "geometry": { "type": "Point", "coordinates": [ -78.75, 44.5 ] } },
{ "type": "Feature", "properties": { "cape": 437.5, "timestamp": "20240716T14" }, "geometry": { "type": "Point", "coordinates": [ -78.75, 44.75 ] } },
{ "type": "Feature", "properties": { "cape": 309.25, "timestamp": "20240716T14" }, "geometry": { "type": "Point", "coordinates": [ -78.75, 45.0 ] } },
{ "type": "Feature", "properties": { "cape": 214.25, "timestamp": "20240716T14" }, "geometry": { "type": "Point", "coordinates": [ -78.75, 45.25 ] } },
{ "type": "Feature", "properties": { "cape": 190.25, "timestamp": "20240716T14" }, "geometry": { "type": "Point", "coordinates": [ -78.75, 45.5 ] } },
{ "type": "Feature", "properties": { "cape": 208.25, "timestamp": "20240716T14" }, "geometry": { "type": "Point", "coordinates": [ -78.75, 45.75 ] } },
{ "type": "Feature", "properties": { "cape": 204.25, "timestamp": "20240716T14" }, "geometry": { "type": "Point", "coordinates": [ -78.75, 46.0 ] } },
{ "type": "Feature", "properties": { "cape": 294.75, "timestamp": "20240716T14" }, "geometry": { "type": "Point", "coordinates": [ -78.5, 41.0 ] } },
{ "type": "Feature", "properties": { "cape": 260.5, "timestamp": "20240716T14" }, "geometry": { "type": "Point", "coordinates": [ -78.5, 41.25 ] } },
{ "type": "Feature", "properties": { "cape": 243.0, "timestamp": "20240716T14" }, "geometry": { "type": "Point", "coordinates": [ -78.5, 41.5 ] } },
{ "type": "Feature", "properties": { "cape": 312.75, "timestamp": "20240716T14" }, "geometry": { "type": "Point", "coordinates": [ -78.5, 41.75 ] } },
{ "type": "Feature", "properties": { "cape": 424.75, "timestamp": "20240716T14" }, "geometry": { "type": "Point", "coordinates": [ -78.5, 42.0 ] } },
{ "type": "Feature", "properties": { "cape": 551.0, "timestamp": "20240716T14" }, "geometry": { "type": "Point", "coordinates": [ -78.5, 42.25 ] } },
{ "type": "Feature", "properties": { "cape": 552.5, "timestamp": "20240716T14" }, "geometry": { "type": "Point", "coordinates": [ -78.5, 42.5 ] } },
{ "type": "Feature", "properties": { "cape": 533.25, "timestamp": "20240716T14" }, "geometry": { "type": "Point", "coordinates": [ -78.5, 42.75 ] } },
{ "type": "Feature", "properties": { "cape": 532.0, "timestamp": "20240716T14" }, "geometry": { "type": "Point", "coordinates": [ -78.5, 43.0 ] } },
{ "type": "Feature", "properties": { "cape": 482.5, "timestamp": "20240716T14" }, "geometry": { "type": "Point", "coordinates": [ -78.5, 43.25 ] } },
{ "type": "Feature", "properties": { "cape": 211.75, "timestamp": "20240716T14" }, "geometry": { "type": "Point", "coordinates": [ -78.5, 43.5 ] } },
{ "type": "Feature", "properties": { "cape": 142.25, "timestamp": "20240716T14" }, "geometry": { "type": "Point", "coordinates": [ -78.5, 43.75 ] } },
{ "type": "Feature", "properties": { "cape": 410.75, "timestamp": "20240716T14" }, "geometry": { "type": "Point", "coordinates": [ -78.5, 44.0 ] } },
{ "type": "Feature", "properties": { "cape": 516.75, "timestamp": "20240716T14" }, "geometry": { "type": "Point", "coordinates": [ -78.5, 44.25 ] } },
{ "type": "Feature", "properties": { "cape": 572.5, "timestamp": "20240716T14" }, "geometry": { "type": "Point", "coordinates": [ -78.5, 44.5 ] } },
{ "type": "Feature", "properties": { "cape": 480.25, "timestamp": "20240716T14" }, "geometry": { "type": "Point", "coordinates": [ -78.5, 44.75 ] } },
{ "type": "Feature", "properties": { "cape": 336.5, "timestamp": "20240716T14" }, "geometry": { "type": "Point", "coordinates": [ -78.5, 45.0 ] } },
{ "type": "Feature", "properties": { "cape": 205.5, "timestamp": "20240716T14" }, "geometry": { "type": "Point", "coordinates": [ -78.5, 45.25 ] } },
{ "type": "Feature", "properties": { "cape": 176.0, "timestamp": "20240716T14" }, "geometry": { "type": "Point", "coordinates": [ -78.5, 45.5 ] } },
{ "type": "Feature", "properties": { "cape": 175.75, "timestamp": "20240716T14" }, "geometry": { "type": "Point", "coordinates": [ -78.5, 45.75 ] } },
{ "type": "Feature", "properties": { "cape": 157.0, "timestamp": "20240716T14" }, "geometry": { "type": "Point", "coordinates": [ -78.5, 46.0 ] } },
{ "type": "Feature", "properties": { "cape": 250.75, "timestamp": "20240716T14" }, "geometry": { "type": "Point", "coordinates": [ -78.25, 41.0 ] } },
{ "type": "Feature", "properties": { "cape": 228.0, "timestamp": "20240716T14" }, "geometry": { "type": "Point", "coordinates": [ -78.25, 41.25 ] } },
{ "type": "Feature", "properties": { "cape": 232.25, "timestamp": "20240716T14" }, "geometry": { "type": "Point", "coordinates": [ -78.25, 41.5 ] } },
{ "type": "Feature", "properties": { "cape": 371.75, "timestamp": "20240716T14" }, "geometry": { "type": "Point", "coordinates": [ -78.25, 41.75 ] } },
{ "type": "Feature", "properties": { "cape": 508.25, "timestamp": "20240716T14" }, "geometry": { "type": "Point", "coordinates": [ -78.25, 42.0 ] } },
{ "type": "Feature", "properties": { "cape": 610.75, "timestamp": "20240716T14" }, "geometry": { "type": "Point", "coordinates": [ -78.25, 42.25 ] } },
{ "type": "Feature", "properties": { "cape": 664.75, "timestamp": "20240716T14" }, "geometry": { "type": "Point", "coordinates": [ -78.25, 42.5 ] } },
{ "type": "Feature", "properties": { "cape": 640.75, "timestamp": "20240716T14" }, "geometry": { "type": "Point", "coordinates": [ -78.25, 42.75 ] } },
{ "type": "Feature", "properties": { "cape": 625.0, "timestamp": "20240716T14" }, "geometry": { "type": "Point", "coordinates": [ -78.25, 43.0 ] } },
{ "type": "Feature", "properties": { "cape": 442.0, "timestamp": "20240716T14" }, "geometry": { "type": "Point", "coordinates": [ -78.25, 43.25 ] } },
{ "type": "Feature", "properties": { "cape": 171.25, "timestamp": "20240716T14" }, "geometry": { "type": "Point", "coordinates": [ -78.25, 43.5 ] } },
{ "type": "Feature", "properties": { "cape": 133.25, "timestamp": "20240716T14" }, "geometry": { "type": "Point", "coordinates": [ -78.25, 43.75 ] } },
{ "type": "Feature", "properties": { "cape": 387.25, "timestamp": "20240716T14" }, "geometry": { "type": "Point", "coordinates": [ -78.25, 44.0 ] } },
{ "type": "Feature", "properties": { "cape": 513.0, "timestamp": "20240716T14" }, "geometry": { "type": "Point", "coordinates": [ -78.25, 44.25 ] } },
{ "type": "Feature", "properties": { "cape": 635.75, "timestamp": "20240716T14" }, "geometry": { "type": "Point", "coordinates": [ -78.25, 44.5 ] } },
{ "type": "Feature", "properties": { "cape": 539.0, "timestamp": "20240716T14" }, "geometry": { "type": "Point", "coordinates": [ -78.25, 44.75 ] } },
{ "type": "Feature", "properties": { "cape": 386.75, "timestamp": "20240716T14" }, "geometry": { "type": "Point", "coordinates": [ -78.25, 45.0 ] } },
{ "type": "Feature", "properties": { "cape": 255.5, "timestamp": "20240716T14" }, "geometry": { "type": "Point", "coordinates": [ -78.25, 45.25 ] } },
{ "type": "Feature", "properties": { "cape": 168.25, "timestamp": "20240716T14" }, "geometry": { "type": "Point", "coordinates": [ -78.25, 45.5 ] } },
{ "type": "Feature", "properties": { "cape": 168.0, "timestamp": "20240716T14" }, "geometry": { "type": "Point", "coordinates": [ -78.25, 45.75 ] } },
{ "type": "Feature", "properties": { "cape": 155.5, "timestamp": "20240716T14" }, "geometry": { "type": "Point", "coordinates": [ -78.25, 46.0 ] } },
{ "type": "Feature", "properties": { "cape": 223.0, "timestamp": "20240716T14" }, "geometry": { "type": "Point", "coordinates": [ -78.0, 41.0 ] } },
{ "type": "Feature", "properties": { "cape": 200.25, "timestamp": "20240716T14" }, "geometry": { "type": "Point", "coordinates": [ -78.0, 41.25 ] } },
{ "type": "Feature", "properties": { "cape": 290.0, "timestamp": "20240716T14" }, "geometry": { "type": "Point", "coordinates": [ -78.0, 41.5 ] } },
{ "type": "Feature", "properties": { "cape": 455.5, "timestamp": "20240716T14" }, "geometry": { "type": "Point", "coordinates": [ -78.0, 41.75 ] } },
{ "type": "Feature", "properties": { "cape": 608.5, "timestamp": "20240716T14" }, "geometry": { "type": "Point", "coordinates": [ -78.0, 42.0 ] } },
{ "type": "Feature", "properties": { "cape": 720.75, "timestamp": "20240716T14" }, "geometry": { "type": "Point", "coordinates": [ -78.0, 42.25 ] } },
{ "type": "Feature", "properties": { "cape": 761.0, "timestamp": "20240716T14" }, "geometry": { "type": "Point", "coordinates": [ -78.0, 42.5 ] } },
{ "type": "Feature", "properties": { "cape": 709.5, "timestamp": "20240716T14" }, "geometry": { "type": "Point", "coordinates": [ -78.0, 42.75 ] } },
{ "type": "Feature", "properties": { "cape": 642.25, "timestamp": "20240716T14" }, "geometry": { "type": "Point", "coordinates": [ -78.0, 43.0 ] } },
{ "type": "Feature", "properties": { "cape": 443.75, "timestamp": "20240716T14" }, "geometry": { "type": "Point", "coordinates": [ -78.0, 43.25 ] } },
{ "type": "Feature", "properties": { "cape": 167.25, "timestamp": "20240716T14" }, "geometry": { "type": "Point", "coordinates": [ -78.0, 43.5 ] } },
{ "type": "Feature", "properties": { "cape": 131.0, "timestamp": "20240716T14" }, "geometry": { "type": "Point", "coordinates": [ -78.0, 43.75 ] } },
{ "type": "Feature", "properties": { "cape": 389.5, "timestamp": "20240716T14" }, "geometry": { "type": "Point", "coordinates": [ -78.0, 44.0 ] } },
{ "type": "Feature", "properties": { "cape": 553.25, "timestamp": "20240716T14" }, "geometry": { "type": "Point", "coordinates": [ -78.0, 44.25 ] } },
{ "type": "Feature", "properties": { "cape": 682.25, "timestamp": "20240716T14" }, "geometry": { "type": "Point", "coordinates": [ -78.0, 44.5 ] } },
{ "type": "Feature", "properties": { "cape": 579.25, "timestamp": "20240716T14" }, "geometry": { "type": "Point", "coordinates": [ -78.0, 44.75 ] } },
{ "type": "Feature", "properties": { "cape": 450.0, "timestamp": "20240716T14" }, "geometry": { "type": "Point", "coordinates": [ -78.0, 45.0 ] } },
{ "type": "Feature", "properties": { "cape": 301.5, "timestamp": "20240716T14" }, "geometry": { "type": "Point", "coordinates": [ -78.0, 45.25 ] } },
{ "type": "Feature", "properties": { "cape": 197.5, "timestamp": "20240716T14" }, "geometry": { "type": "Point", "coordinates": [ -78.0, 45.5 ] } },
{ "type": "Feature", "properties": { "cape": 171.0, "timestamp": "20240716T14" }, "geometry": { "type": "Point", "coordinates": [ -78.0, 45.75 ] } },
{ "type": "Feature", "properties": { "cape": 155.0, "timestamp": "20240716T14" }, "geometry": { "type": "Point", "coordinates": [ -78.0, 46.0 ] } },
{ "type": "Feature", "properties": { "cape": 172.5, "timestamp": "20240716T14" }, "geometry": { "type": "Point", "coordinates": [ -77.75, 41.0 ] } },
{ "type": "Feature", "properties": { "cape": 232.0, "timestamp": "20240716T14" }, "geometry": { "type": "Point", "coordinates": [ -77.75, 41.25 ] } },
{ "type": "Feature", "properties": { "cape": 366.5, "timestamp": "20240716T14" }, "geometry": { "type": "Point", "coordinates": [ -77.75, 41.5 ] } },
{ "type": "Feature", "properties": { "cape": 568.25, "timestamp": "20240716T14" }, "geometry": { "type": "Point", "coordinates": [ -77.75, 41.75 ] } },
{ "type": "Feature", "properties": { "cape": 728.75, "timestamp": "20240716T14" }, "geometry": { "type": "Point", "coordinates": [ -77.75, 42.0 ] } },
{ "type": "Feature", "properties": { "cape": 847.0, "timestamp": "20240716T14" }, "geometry": { "type": "Point", "coordinates": [ -77.75, 42.25 ] } },
{ "type": "Feature", "properties": { "cape": 830.75, "timestamp": "20240716T14" }, "geometry": { "type": "Point", "coordinates": [ -77.75, 42.5 ] } },
{ "type": "Feature", "properties": { "cape": 706.25, "timestamp": "20240716T14" }, "geometry": { "type": "Point", "coordinates": [ -77.75, 42.75 ] } },
{ "type": "Feature", "properties": { "cape": 619.0, "timestamp": "20240716T14" }, "geometry": { "type": "Point", "coordinates": [ -77.75, 43.0 ] } },
{ "type": "Feature", "properties": { "cape": 428.75, "timestamp": "20240716T14" }, "geometry": { "type": "Point", "coordinates": [ -77.75, 43.25 ] } },
{ "type": "Feature", "properties": { "cape": 159.0, "timestamp": "20240716T14" }, "geometry": { "type": "Point", "coordinates": [ -77.75, 43.5 ] } },
{ "type": "Feature", "properties": { "cape": 134.75, "timestamp": "20240716T14" }, "geometry": { "type": "Point", "coordinates": [ -77.75, 43.75 ] } },
{ "type": "Feature", "properties": { "cape": 289.75, "timestamp": "20240716T14" }, "geometry": { "type": "Point", "coordinates": [ -77.75, 44.0 ] } },
{ "type": "Feature", "properties": { "cape": 530.5, "timestamp": "20240716T14" }, "geometry": { "type": "Point", "coordinates": [ -77.75, 44.25 ] } },
{ "type": "Feature", "properties": { "cape": 717.0, "timestamp": "20240716T14" }, "geometry": { "type": "Point", "coordinates": [ -77.75, 44.5 ] } },
{ "type": "Feature", "properties": { "cape": 565.5, "timestamp": "20240716T14" }, "geometry": { "type": "Point", "coordinates": [ -77.75, 44.75 ] } },
{ "type": "Feature", "properties": { "cape": 466.75, "timestamp": "20240716T14" }, "geometry": { "type": "Point", "coordinates": [ -77.75, 45.0 ] } },
{ "type": "Feature", "properties": { "cape": 418.75, "timestamp": "20240716T14" }, "geometry": { "type": "Point", "coordinates": [ -77.75, 45.25 ] } },
{ "type": "Feature", "properties": { "cape": 324.5, "timestamp": "20240716T14" }, "geometry": { "type": "Point", "coordinates": [ -77.75, 45.5 ] } },
{ "type": "Feature", "properties": { "cape": 215.0, "timestamp": "20240716T14" }, "geometry": { "type": "Point", "coordinates": [ -77.75, 45.75 ] } },
{ "type": "Feature", "properties": { "cape": 178.5, "timestamp": "20240716T14" }, "geometry": { "type": "Point", "coordinates": [ -77.75, 46.0 ] } },
{ "type": "Feature", "properties": { "cape": 260.5, "timestamp": "20240716T14" }, "geometry": { "type": "Point", "coordinates": [ -77.5, 41.0 ] } },
{ "type": "Feature", "properties": { "cape": 329.75, "timestamp": "20240716T14" }, "geometry": { "type": "Point", "coordinates": [ -77.5, 41.25 ] } },
{ "type": "Feature", "properties": { "cape": 412.25, "timestamp": "20240716T14" }, "geometry": { "type": "Point", "coordinates": [ -77.5, 41.5 ] } },
{ "type": "Feature", "properties": { "cape": 636.5, "timestamp": "20240716T14" }, "geometry": { "type": "Point", "coordinates": [ -77.5, 41.75 ] } },
{ "type": "Feature", "properties": { "cape": 782.0, "timestamp": "20240716T14" }, "geometry": { "type": "Point", "coordinates": [ -77.5, 42.0 ] } },
{ "type": "Feature", "properties": { "cape": 906.5, "timestamp": "20240716T14" }, "geometry": { "type": "Point", "coordinates": [ -77.5, 42.25 ] } },
{ "type": "Feature", "properties": { "cape": 768.75, "timestamp": "20240716T14" }, "geometry": { "type": "Point", "coordinates": [ -77.5, 42.5 ] } },
{ "type": "Feature", "properties": { "cape": 651.5, "timestamp": "20240716T14" }, "geometry": { "type": "Point", "coordinates": [ -77.5, 42.75 ] } },
{ "type": "Feature", "properties": { "cape": 581.5, "timestamp": "20240716T14" }, "geometry": { "type": "Point", "coordinates": [ -77.5, 43.0 ] } },
{ "type": "Feature", "properties": { "cape": 403.75, "timestamp": "20240716T14" }, "geometry": { "type": "Point", "coordinates": [ -77.5, 43.25 ] } },
{ "type": "Feature", "properties": { "cape": 134.0, "timestamp": "20240716T14" }, "geometry": { "type": "Point", "coordinates": [ -77.5, 43.5 ] } },
{ "type": "Feature", "properties": { "cape": 121.25, "timestamp": "20240716T14" }, "geometry": { "type": "Point", "coordinates": [ -77.5, 43.75 ] } },
{ "type": "Feature", "properties": { "cape": 277.5, "timestamp": "20240716T14" }, "geometry": { "type": "Point", "coordinates": [ -77.5, 44.0 ] } },
{ "type": "Feature", "properties": { "cape": 526.25, "timestamp": "20240716T14" }, "geometry": { "type": "Point", "coordinates": [ -77.5, 44.25 ] } },
{ "type": "Feature", "properties": { "cape": 799.0, "timestamp": "20240716T14" }, "geometry": { "type": "Point", "coordinates": [ -77.5, 44.5 ] } },
{ "type": "Feature", "properties": { "cape": 643.25, "timestamp": "20240716T14" }, "geometry": { "type": "Point", "coordinates": [ -77.5, 44.75 ] } },
{ "type": "Feature", "properties": { "cape": 562.75, "timestamp": "20240716T14" }, "geometry": { "type": "Point", "coordinates": [ -77.5, 45.0 ] } },
{ "type": "Feature", "properties": { "cape": 514.25, "timestamp": "20240716T14" }, "geometry": { "type": "Point", "coordinates": [ -77.5, 45.25 ] } },
{ "type": "Feature", "properties": { "cape": 455.75, "timestamp": "20240716T14" }, "geometry": { "type": "Point", "coordinates": [ -77.5, 45.5 ] } },
{ "type": "Feature", "properties": { "cape": 345.5, "timestamp": "20240716T14" }, "geometry": { "type": "Point", "coordinates": [ -77.5, 45.75 ] } },
{ "type": "Feature", "properties": { "cape": 261.75, "timestamp": "20240716T14" }, "geometry": { "type": "Point", "coordinates": [ -77.5, 46.0 ] } },
{ "type": "Feature", "properties": { "cape": 337.5, "timestamp": "20240716T14" }, "geometry": { "type": "Point", "coordinates": [ -77.25, 41.0 ] } },
{ "type": "Feature", "properties": { "cape": 406.0, "timestamp": "20240716T14" }, "geometry": { "type": "Point", "coordinates": [ -77.25, 41.25 ] } },
{ "type": "Feature", "properties": { "cape": 416.5, "timestamp": "20240716T14" }, "geometry": { "type": "Point", "coordinates": [ -77.25, 41.5 ] } },
{ "type": "Feature", "properties": { "cape": 614.75, "timestamp": "20240716T14" }, "geometry": { "type": "Point", "coordinates": [ -77.25, 41.75 ] } },
{ "type": "Feature", "properties": { "cape": 695.25, "timestamp": "20240716T14" }, "geometry": { "type": "Point", "coordinates": [ -77.25, 42.0 ] } },
{ "type": "Feature", "properties": { "cape": 798.5, "timestamp": "20240716T14" }, "geometry": { "type": "Point", "coordinates": [ -77.25, 42.25 ] } },
{ "type": "Feature", "properties": { "cape": 683.75, "timestamp": "20240716T14" }, "geometry": { "type": "Point", "coordinates": [ -77.25, 42.5 ] } },
{ "type": "Feature", "properties": { "cape": 606.25, "timestamp": "20240716T14" }, "geometry": { "type": "Point", "coordinates": [ -77.25, 42.75 ] } },
{ "type": "Feature", "properties": { "cape": 517.5, "timestamp": "20240716T14" }, "geometry": { "type": "Point", "coordinates": [ -77.25, 43.0 ] } },
{ "type": "Feature", "properties": { "cape": 332.0, "timestamp": "20240716T14" }, "geometry": { "type": "Point", "coordinates": [ -77.25, 43.25 ] } },
{ "type": "Feature", "properties": { "cape": 101.25, "timestamp": "20240716T14" }, "geometry": { "type": "Point", "coordinates": [ -77.25, 43.5 ] } },
{ "type": "Feature", "properties": { "cape": 88.0, "timestamp": "20240716T14" }, "geometry": { "type": "Point", "coordinates": [ -77.25, 43.75 ] } },
{ "type": "Feature", "properties": { "cape": 354.5, "timestamp": "20240716T14" }, "geometry": { "type": "Point", "coordinates": [ -77.25, 44.0 ] } },
{ "type": "Feature", "properties": { "cape": 542.75, "timestamp": "20240716T14" }, "geometry": { "type": "Point", "coordinates": [ -77.25, 44.25 ] } },
{ "type": "Feature", "properties": { "cape": 888.75, "timestamp": "20240716T14" }, "geometry": { "type": "Point", "coordinates": [ -77.25, 44.5 ] } },
{ "type": "Feature", "properties": { "cape": 781.5, "timestamp": "20240716T14" }, "geometry": { "type": "Point", "coordinates": [ -77.25, 44.75 ] } },
{ "type": "Feature", "properties": { "cape": 699.5, "timestamp": "20240716T14" }, "geometry": { "type": "Point", "coordinates": [ -77.25, 45.0 ] } },
{ "type": "Feature", "properties": { "cape": 711.75, "timestamp": "20240716T14" }, "geometry": { "type": "Point", "coordinates": [ -77.25, 45.25 ] } },
{ "type": "Feature", "properties": { "cape": 669.75, "timestamp": "20240716T14" }, "geometry": { "type": "Point", "coordinates": [ -77.25, 45.5 ] } },
{ "type": "Feature", "properties": { "cape": 511.75, "timestamp": "20240716T14" }, "geometry": { "type": "Point", "coordinates": [ -77.25, 45.75 ] } },
{ "type": "Feature", "properties": { "cape": 382.75, "timestamp": "20240716T14" }, "geometry": { "type": "Point", "coordinates": [ -77.25, 46.0 ] } }
]
}
