{
"type": "FeatureCollection",
"name": "geojson_lapse_rate_20240716T14",
"crs": { "type": "name", "properties": { "name": "urn:ogc:def:crs:OGC:1.3:CRS84" } },
"features": [
{ "type": "Feature", "properties": { "level": 6.5, "color": "red", "line_style": "dashed", "line_width": 1.0 }, "geometry": { "type": "LineString", "coordinates": [ [ -77.25, 41.512988190456099 ], [ -77.26564274426029, 41.5 ], [ -77.372391413050508, 41.25 ], [ -77.39660580561403, 41.0 ], [ -78.798037686914071, 41.0 ], [ -78.75, 41.048831055998733 ], [ -78.586073104963546, 41.25 ], [ -78.506153734939758, 41.5 ], [ -78.5, 41.531680775681544 ], [ -78.436524722420998, 41.75 ], [ -78.425248665914268, 42.0 ], [ -78.399694148553678, 42.25 ], [ -78.339792486771955, 42.5 ], [ -78.288113842303261, 42.75 ], [ -78.25, 42.855553802461344 ], [ -78.129326330181755, 43.0 ], [ -78.0, 43.094362305610794 ], [ -77.75, 43.157730482574614 ], [ -77.5, 43.116301464652288 ], [ -77.318933115745708, 43.0 ], [ -77.25, 42.953840214173496 ] ] } },
{ "type": "Feature", "properties": { "level": 6.0, "color": "red", "line_style": "dotted", "line_width": 0.5 }, "geometry": { "type": "LineString", "coordinates": [ [ -79.478864863091232, 41.0 ], [ -79.25, 41.198752327936248 ], [ -79.187054855991462, 41.25 ], [ -79.0, 41.491550073281125 ], [ -78.995267283230731, 41.5 ], [ -78.909732416999717, 41.75 ], [ -78.886592889094629, 42.0 ], [ -78.885487898824024, 42.25 ], [ -78.807310873223301, 42.5 ], [ -78.75, 42.693441358573189 ], [ -78.737597811516039, 42.75 ], [ -78.696425702570053, 43.0 ], [ -78.651190703969846, 43.25 ], [ -78.59086981671382, 43.5 ], [ -78.5, 43.668146051564996 ], [ -78.373414850367425, 43.75 ], [ -78.25, 43.8290617914964 ], [ -78.0, 43.84237295792974 ], [ -77.75, 43.826964949996473 ], [ -77.5, 43.769997781067168 ], [ -77.454368474687072, 43.75 ], [ -77.25, 43.658414377050029 ], [ -78.5, 45.760007726704814 ], [ -78.25, 45.849755012725062 ], [ -78.0, 45.84963480621785 ], [ -77.812432510258446, 45.75 ], [ -78.0, 45.723241107328278 ], [ -78.25, 45.730733186328557 ], [ -78.5, 45.747212415113175 ], [ -78.563957764236179, 45.75 ], [ -78.5, 45.760007726704814 ], [ -81.0, 45.506622964114349 ], [ -80.75, 45.601844824017213 ], [ -80.5, 45.677662590059384 ], [ -80.25, 45.691099706896729 ], [ -80.0, 45.653852121028237 ], [ -79.75, 45.526109926192014 ], [ -79.72521841621608, 45.5 ], [ -79.75, 45.491356926535616 ], [ -80.0, 45.360741658448902 ], [ -80.130818089992843, 45.25 ], [ -80.25, 45.202089791998866 ], [ -80.5, 45.114760775395737 ], [ -80.75, 45.020906618461339 ], [ -80.876696274364662, 45.0 ], [ -81.0, 44.991950551663045 ], [ -81.079479309138335, 45.0 ], [ -81.25, 45.079293003993492 ], [ -81.399363926958372, 45.25 ], [ -81.25, 45.350311150125592 ], [ -81.013459504745157, 45.5 ], [ -81.0, 45.506622964114349 ] ] } },
{ "type": "Feature", "properties": { "level": 5.0, "color": "gray", "line_style": "dotted", "line_width": 0.1 }, "geometry": { "type": "LineString", "coordinates": [ [ -80.0, 43.594043952097465 ], [ -80.120754482734156, 43.5 ], [ -80.0, 43.426723349297745 ], [ -79.909570865043634, 43.5 ], [ -80.0, 43.594043952097465 ], [ -81.25, 43.097580872366102 ], [ -81.403858394054112, 43.0 ], [ -81.5, 42.943398343804098 ], [ -81.75, 42.83855271105628 ], [ -81.936465733035661, 42.75 ], [ -81.981070765990637, 42.5 ], [ -81.974127056934805, 42.25 ], [ -82.0, 42.027913893822358 ], [ -82.004708366418825, 42.0 ], [ -82.083334938976392, 41.75 ], [ -82.060000637795781, 41.5 ], [ -82.0, 41.409889207387593 ], [ -81.865821000390014, 41.25 ], [ -81.75, 41.190556737198527 ], [ -81.5, 41.147119013613619 ], [ -81.25, 41.164311644528986 ], [ -81.0, 41.211079055105067 ], [ -80.844712874944108, 41.25 ], [ -80.75, 41.278962472209336 ], [ -80.5, 41.358654680051465 ], [ -80.25, 41.438052302739599 ], [ -80.096293676024473, 41.5 ], [ -80.0, 41.570707711456073 ], [ -79.841600635223273, 41.75 ], [ -79.754140332286255, 42.0 ], [ -79.75, 42.018939568810303 ], [ -79.709723496370685, 42.25 ], [ -79.75, 42.427458671275986 ], [ -79.777041114720092, 42.5 ], [ -79.913250638036033, 42.75 ], [ -80.0, 42.866889883649279 ], [ -80.25, 42.904243892691213 ], [ -80.5, 42.959464935695223 ], [ -80.56272412200498, 43.0 ], [ -80.75, 43.249996240639199 ], [ -81.0, 43.229442532952156 ], [ -81.25, 43.097580872366102 ] ] } }
]
}
